uid,name,address,city,state,zip,latitude,longitude,,,,,,,,,,,
,Albertson's,1000 N Azusa Ave,,CA,91722,34.097617,-117.907705,(626) 974-4582,9:00 AM - 7:00 PM,9:00 AM - 7:00 PM,9:00 AM - 7:00 PM,9:00 AM - 7:00 PM,9:00 AM - 7:00 PM,9:00 AM - 5:00 PM,10:00 AM - 6:00 PM,PST,Factual,http://www.albertsons.com/
,Albertson's,101 E Ave E,,CA,93535,34.689546,-118.13026,(661) 948-9620,6:00 AM - 11:00 PM,6:00 AM - 11:00 PM,6:00 AM - 11:00 PM,6:00 AM - 11:00 PM,6:00 AM - 11:00 PM,6:00 AM - 11:00 PM,6:00 AM - 11:00 PM,PST,Factual,
,Albertson's,101 E Willow Blvd,Long Beach,CA,90806,33.80546,-118.192,(562) 988-8785,6:00 AM to 11:00 PM,6:00 AM to 11:00 PM,6:00 AM to 11:00 PM,6:00 AM to 11:00 PM,6:00 AM to 11:00 PM,6:00 AM to 11:00 PM,6:00 AM to 11:00 PM,PST,Yelp,https://www.yelp.com/biz/albertsons-long-beach-2
,Albertson's,1010 E Ave,,CA,93535,34.68832,-118.111805,(661) 948-7332,6:00 AM - 11:00 PM,6:00 AM - 11:00 PM,6:00 AM - 11:00 PM,6:00 AM - 11:00 PM,6:00 AM - 11:00 PM,6:00 AM - 11:00 PM,6:00 AM - 11:00 PM,PST,Factual,http://www.albertsons.com/
,Albertson's,1023 N Grand Ave,Covina,CA,91724,34.098049,-117.873009,(626) 332-1060,6:00 AM - 11:59 PM,6:00 AM - 11:59 PM,6:00 AM - 11:59 PM,6:00 AM - 11:59 PM,6:00 AM - 11:59 PM,6:00 AM - 11:59 PM,6:00 AM - 11:59 PM,PST,Factual,http://www.albertsons.com/
,Albertson's,110 E Carson St,Carson,CA,90745,33.83084,-118.276729,(310) 835-6402,6:00 AM - 11:00 PM,6:00 AM - 11:00 PM,6:00 AM - 11:00 PM,6:00 AM - 11:00 PM,6:00 AM - 11:00 PM,6:00 AM - 11:00 PM,6:00 AM - 11:00 PM,PST,Factual,http://www.albertsons.com/
,Albertson's,1180 W Lambert Rd,,CA,92821,33.924525,-117.915742,(714) 671-6100,,,,,,,,PST,Factual,
,Albertson's,12 Village Loop Rd,,CA,91766,34.033372,-117.771234,(909) 865-2190,,,,,,,,PST,Factual,http://albertsons.com
,Albertson's,12013 Central Ave,,CA,91710,34.035002,-117.687794,(909) 464-1594,6:00 AM - 11:00 PM,6:00 AM - 11:00 PM,6:00 AM - 11:00 PM,6:00 AM - 11:00 PM,6:00 AM - 11:00 PM,6:00 AM - 11:00 PM,6:00 AM - 11:00 PM,PST,Factual,http://www.albertsons.com
,Albertson's,1222 N Avalon Blvd,,CA,90744,33.787265,-118.262881,(310) 835-1427,6:00 AM - 11:00 PM,6:00 AM - 11:00 PM,6:00 AM - 11:00 PM,6:00 AM - 11:00 PM,6:00 AM - 11:00 PM,6:00 AM - 11:00 PM,6:00 AM - 11:00 PM,PST,Factual,http://www.albertsons.com
,Albertson's,1235 S Diamond Bar Blvd,Diamond Bar,CA,91765,34.000335,-117.812871,(909) 861-6207,7:00 AM - 11:00 PM,7:00 AM - 11:00 PM,7:00 AM - 11:00 PM,7:00 AM - 11:00 PM,7:00 AM - 11:00 PM,7:00 AM - 11:00 PM,7:00 AM - 11:00 PM,PST,Factual,http://www.albertsons.com
,Albertson's,12630 Hawthorne Blvd,,CA,90250,33.917324,-118.351146,(310) 675-9494,6:00 AM - 11:00 PM,6:00 AM - 11:00 PM,6:00 AM - 11:00 PM,6:00 AM - 11:00 PM,6:00 AM - 11:00 PM,6:00 AM - 11:00 PM,6:00 AM - 11:00 PM,PST,Factual,http://www.albertsons.com
,Albertson's,13003 Whittier Blvd,,CA,90602,33.966778,-118.036703,(562) 696-5025,12:00 PM - 3:00 PM,12:00 PM - 3:00 PM,12:00 PM - 3:00 PM,12:00 PM - 3:00 PM,12:00 PM - 3:00 PM,12:00 PM - 3:00 PM,12:00 PM - 3:00 PM,PST,Factual,http://www.albertsons.com
,Albertson's,13021 Victory Blvd,,CA,91606,34.186829,-118.416519,(818) 760-2986,,,,,,,,PST,Factual,
,Albertson's,133 W Rt 66,Glendora,CA,91741,34.12973,-117.865,(626) 963-5358,6:00 AM to 11:00 PM,6:00 AM to 11:00 PM,6:00 AM to 11:00 PM,6:00 AM to 11:00 PM,6:00 AM to 11:00 PM,6:00 AM to 11:00 PM,6:00 AM to 11:00 PM,PST,Yelp,https://www.yelp.com/biz/albertsons-glendora
,Albertson's,14401 Inglewood Ave,,CA,90250,33.900773,-118.362225,(310) 644-7200,6:00 AM - 11:00 PM,6:00 AM - 11:00 PM,6:00 AM - 11:00 PM,6:00 AM - 11:00 PM,6:00 AM - 11:00 PM,6:00 AM - 11:00 PM,6:00 AM - 11:00 PM,PST,Factual,http://www.albertsons.com/
,Albertson's,14433 Ramona Blvd,,CA,91706,34.086819,-117.95969,(626) 337-0818,6:00 AM - 11:00 PM,6:00 AM - 11:00 PM,6:00 AM - 11:00 PM,6:00 AM - 11:00 PM,6:00 AM - 11:00 PM,6:00 AM - 11:00 PM,6:00 AM - 11:00 PM,PST,Factual,http://www.albertsons.com
,Albertson's,14601 Lakewood Blvd,Paramount,CA,90723,33.900652,-118.144736,(562) 529-2204,7:00 AM - 10:00 PM,7:00 AM - 10:00 PM,7:00 AM - 10:00 PM,7:00 AM - 10:00 PM,7:00 AM - 10:00 PM,7:00 AM - 9:30 PM,7:00 AM - 9:00 PM,PST,Factual,http://www.albertsons.com/
,Albertson's,1516 S Pacific Coast Hwy,,CA,90277,33.820859,-118.384368,(310) 316-3551,6:00 AM - 11:00 PM,6:00 AM - 11:00 PM,6:00 AM - 11:00 PM,6:00 AM - 11:00 PM,6:00 AM - 11:00 PM,6:00 AM - 11:00 PM,6:00 AM - 11:00 PM,PST,Factual,http://www.albertsons.com/
,Albertson's,15200 Rosecrans Ave,La Mirada,CA,90638,33.896983,-118.00761,(714) 521-2310,6:00 AM - 11:00 PM,6:00 AM - 11:00 PM,6:00 AM - 11:00 PM,6:00 AM - 11:00 PM,6:00 AM - 11:00 PM,6:00 AM - 11:00 PM,6:00 AM - 11:00 PM,PST,Factual,http://www.albertsons.com
,Albertson's,15970 Los Serranos Country Club Dr,,CA,91709,33.961486,-117.695507,(909) 606-8184,9:00 AM - 9:00 PM,9:00 AM - 9:00 PM,9:00 AM - 9:00 PM,9:00 AM - 9:00 PM,9:00 AM - 9:00 PM,9:00 AM - 5:00 PM,10:00 AM - 6:00 PM,PST,Factual,http://www.albertsons.com/
,Albertson's,15970 Los Serranos Country Club Dr,Chino Hills,CA,91709,33.96142,-117.696,(909) 606-8184,6:00 AM to 11:00 PM,6:00 AM to 11:00 PM,6:00 AM to 11:00 PM,6:00 AM to 11:00 PM,6:00 AM to 11:00 PM,6:00 AM to 11:00 PM,6:00 AM to 11:00 PM,PST,Yelp,https://www.yelp.com/biz/albertsons-chino-hills-4
,Albertson's,16201 San Fernando Mission Blvd,,CA,91344,34.272303,-118.485134,(818) 366-9555,9:00 AM - 9:00 PM,9:00 AM - 9:00 PM,9:00 AM - 9:00 PM,9:00 AM - 9:00 PM,9:00 AM - 9:00 PM,9:00 AM - 5:00 PM,10:00 AM - 6:00 PM,PST,Factual,http://www.albertsons.com
,Albertson's,17120 Colima Rd,,CA,91745,33.989912,-117.934668,(626) 964-7737,9:00 AM - 9:00 PM,9:00 AM - 9:00 PM,9:00 AM - 9:00 PM,9:00 AM - 9:00 PM,9:00 AM - 9:00 PM,9:00 AM - 5:00 PM,10:00 AM - 6:00 PM,PST,Factual,http://www.albertsons.com
,Albertson's,17202 Norwalk Blvd,Cerritos,CA,90703,33.874577,-118.072465,(562) 860-9211,8:00 AM - 9:00 PM,8:00 AM - 9:00 PM,8:00 AM - 9:00 PM,8:00 AM - 9:00 PM,8:00 AM - 9:00 PM,8:00 AM - 9:00 PM,8:00 AM - 9:00 PM,PST,Factual,http://www.albertsons.com
,Albertson's,1735 W Artesia Blvd,Gardena,CA,90248,33.874334,-118.308203,(310) 380-4620,6:00 AM - 11:00 PM,6:00 AM - 11:00 PM,6:00 AM - 11:00 PM,6:00 AM - 11:00 PM,6:00 AM - 11:00 PM,6:00 AM - 11:00 PM,6:00 AM - 11:00 PM,PST,Factual,http://www.albertsons.com/
,Albertson's,1736 E Avenida De Los Arboles,,CA,91362,34.209932,-118.846068,(805) 493-1551,7:00 AM - 11:00 PM,7:00 AM - 11:00 PM,7:00 AM - 11:00 PM,7:00 AM - 11:00 PM,7:00 AM - 11:00 PM,7:00 AM - 11:00 PM,7:00 AM - 11:00 PM,PST,Factual,http://www.albertsons.com/
,Albertson's,1800 W Whittier Blvd,La Habra,CA,90631,33.938491,-117.966288,(562) 697-6442,7:00 AM - 11:00 PM,7:00 AM - 11:00 PM,7:00 AM - 11:00 PM,7:00 AM - 11:00 PM,7:00 AM - 11:00 PM,7:00 AM - 11:00 PM,7:00 AM - 11:00 PM,PST,Factual,http://www.albertsons.com
,Albertson's,1855 W Glenoaks Blvd,,CA,91201,34.174061,-118.292809,(818) 244-8485,6:00 AM - 10:00 PM,6:00 AM - 10:00 PM,6:00 AM - 10:00 PM,6:00 AM - 10:00 PM,6:00 AM - 10:00 PM,6:00 AM - 10:00 PM,6:00 AM - 10:00 PM,PST,Factual,http://www.albertsons.com/
,Albertson's,18730 Amar Rd,,CA,91789,34.026426,-117.893787,(626) 965-7377,9:00 AM - 9:00 PM,9:00 AM - 9:00 PM,9:00 AM - 9:00 PM,9:00 AM - 9:00 PM,9:00 AM - 9:00 PM,9:00 AM - 5:00 PM,10:00 AM - 6:00 PM,PST,Factual,http://www.albertsons.com
,Albertson's,1930 N Placentia Ave,Fullerton,CA,92831,33.89049,-117.873,(714) 792-2880,,,,,,,,PST,Yelp,https://www.yelp.com/biz/albertsons-fullerton-2
,Albertson's,19307 Saticoy St,Reseda,CA,91335,34.209634,-118.554097,(818) 772-0010,6:00 AM - 11:00 PM,6:00 AM - 11:00 PM,6:00 AM - 11:00 PM,6:00 AM - 11:00 PM,6:00 AM - 11:00 PM,6:00 AM - 11:00 PM,6:00 AM - 11:00 PM,PST,Factual,http://www.albertsons.com
,Albertson's,200 E Sepulveda Blvd,Carson,CA,90745,33.806346,-118.272689,(310) 513-1900,6:00 AM - 11:00 PM,6:00 AM - 11:00 PM,6:00 AM - 11:00 PM,6:00 AM - 11:00 PM,6:00 AM - 11:00 PM,6:00 AM - 11:00 PM,6:00 AM - 11:00 PM,PST,Factual,http://www.albertsons.com/
,Albertson's,200 N Puente St,,CA,92821,33.923696,-117.911485,(714) 990-8200,12:00 AM - 12:00 AM,12:00 AM - 12:00 AM,12:00 AM - 12:00 AM,12:00 AM - 12:00 AM,12:00 AM - 12:00 AM,12:00 AM - 12:00 AM,12:00 AM - 12:00 AM,PST,Factual,http://www.albertsons.com
,Albertson's,2035 Hillhurst Ave,Los Angeles,CA,90027,34.108801,-118.287927,(323) 660-0687,6:00 AM - 11:59 PM,6:00 AM - 11:59 PM,6:00 AM - 11:59 PM,6:00 AM - 11:59 PM,6:00 AM - 11:59 PM,6:00 AM - 11:59 PM,6:00 AM - 11:59 PM,PST,Factual,http://www.albertsons.com
,Albertson's,21035 Hawthorne Blvd,Torrance,CA,90503,33.839072,-118.355309,(310) 540-6824,9:00 AM - 9:00 PM,9:00 AM - 9:00 PM,9:00 AM - 9:00 PM,9:00 AM - 9:00 PM,9:00 AM - 9:00 PM,9:00 AM - 5:00 PM,10:00 AM - 6:00 PM,PST,Factual,http://www.albertsons.com
,Albertson's,2130 Pacific Coast Hwy,,CA,90717,33.789053,-118.318066,(310) 326-3351,6:00 AM - 11:00 PM,6:00 AM - 11:00 PM,6:00 AM - 11:00 PM,6:00 AM - 11:00 PM,6:00 AM - 11:00 PM,6:00 AM - 11:00 PM,6:00 AM - 11:00 PM,PST,Factual,http://www.albertsons.com/
,Albertson's,220 E Bonita Ave,San Dimas,CA,91773,34.105927,-117.803449,(909) 599-8836,7:00 AM - 11:00 PM,7:00 AM - 11:00 PM,7:00 AM - 11:00 PM,7:00 AM - 11:00 PM,7:00 AM - 11:00 PM,7:00 AM - 11:00 PM,7:00 AM - 11:00 PM,PST,Factual,http://www.albertsons.com
,Albertson's,22840 Victory Blvd,,CA,91367,34.185998,-118.625082,(818) 883-6565,9:00 AM - 9:00 PM,9:00 AM - 9:00 PM,9:00 AM - 9:00 PM,9:00 AM - 9:00 PM,9:00 AM - 9:00 PM,9:00 AM - 6:00 PM,10:00 AM - 6:00 PM,PST,Factual,http://www.albertsons.com
,Albertson's,2291 W Malvern Ave,Fullerton,CA,92833,33.87851,-117.966,(714) 992-6099,6:00 AM to 11:00 PM,6:00 AM to 11:00 PM,6:00 AM to 11:00 PM,6:00 AM to 11:00 PM,6:00 AM to 11:00 PM,6:00 AM to 11:00 PM,6:00 AM to 11:00 PM,PST,Yelp,https://www.yelp.com/biz/albertsons-fullerton-4
,Albertson's,23357 Mulholland Dr,,CA,91364,34.15864,-118.63472,(818) 223-8222,9:00 AM - 9:00 PM,9:00 AM - 9:00 PM,9:00 AM - 9:00 PM,9:00 AM - 9:00 PM,9:00 AM - 9:00 PM,9:00 AM - 5:00 PM,10:00 AM - 4:00 PM,PST,Factual,http://albertsons.com/pharmacy
,Albertson's,23850 Copperhill Dr,Valencia,CA,91354,34.462145,-118.556618,(661) 775-0163,7:00 AM - 11:00 PM,7:00 AM - 11:00 PM,7:00 AM - 11:00 PM,7:00 AM - 11:00 PM,7:00 AM - 11:00 PM,7:00 AM - 11:00 PM,7:00 AM - 11:00 PM,PST,Factual,http://www.albertsons.com
,Albertson's,2469 Via Campo,Montebello,CA,90640,34.031143,-118.122436,(323) 888-2250,6:00 AM - 11:00 PM,6:00 AM - 11:00 PM,6:00 AM - 11:00 PM,6:00 AM - 11:00 PM,6:00 AM - 11:00 PM,6:00 AM - 11:00 PM,6:00 AM - 11:00 PM,PST,Factual,http://www.albertsons.com/
,Albertson's,2500 E Imperial Hwy,Brea,CA,92821,33.909868,-117.865205,(714) 671-1180,6:00 AM - 11:00 PM,6:00 AM - 11:00 PM,6:00 AM - 11:00 PM,6:00 AM - 11:00 PM,6:00 AM - 11:00 PM,6:00 AM - 11:00 PM,6:00 AM - 11:00 PM,PST,Factual,http://www.albertsons.com
,Albertson's,2510 Pacific Coast Hwy,,CA,90254,33.872077,-118.394663,(310) 379-7437,11:03 AM - 10:00 PM,11:30 AM - 10:00 PM,11:30 AM - 10:00 PM,11:30 AM - 10:00 PM,11:30 AM - 11:00 PM,11:30 AM - 11:00 PM,10:00 AM - 9:30 PM,PST,Factual,http://www.albertsons.com/
,Albertson's,2547 Rosamond,Rosamond,CA,93560,34.86556,-118.177,(661) 256-0756,6:00 AM to 10:00 PM,6:00 AM to 10:00 PM,6:00 AM to 10:00 PM,6:00 AM to 10:00 PM,6:00 AM to 10:00 PM,6:00 AM to 10:00 PM,6:00 AM to 10:00 PM,PST,Yelp,https://www.yelp.com/biz/albertsons-rosamond
,Albertson's,2547 W Rosamond Blvd,,CA,93560,34.865569,-118.176723,(661) 256-0756,6:00 AM - 10:00 PM,6:00 AM - 10:00 PM,6:00 AM - 10:00 PM,6:00 AM - 10:00 PM,6:00 AM - 10:00 PM,6:00 AM - 10:00 PM,6:00 AM - 10:00 PM,PST,Factual,http://www.albertsons.com
,Albertson's,2627 Lincoln Blvd,,CA,90405,34.007051,-118.474617,(310) 452-3811,6:00 AM - 11:00 PM,6:00 AM - 11:00 PM,6:00 AM - 11:00 PM,6:00 AM - 11:00 PM,6:00 AM - 11:00 PM,6:00 AM - 11:00 PM,6:00 AM - 11:00 PM,PST,Factual,http://www.albertsons.com/
,Albertson's,2630 E Workman Ave,West Covina,CA,91791,34.074499,-117.888832,(626) 915-5555,9:00 AM - 7:00 PM,9:00 AM - 7:00 PM,9:00 AM - 7:00 PM,9:00 AM - 7:00 PM,9:00 AM - 7:00 PM,9:00 AM - 5:00 PM,11:00 AM - 5:00 PM,PST,Factual,http://www.savon.com
,Albertson's,26521 Agoura Rd,Calabasas,CA,91302,34.145022,-118.699756,(818) 880-9080,5:00 AM - 11:59 PM,5:00 AM - 11:59 PM,5:00 AM - 11:59 PM,5:00 AM - 11:59 PM,5:00 AM - 11:59 PM,5:00 AM - 11:59 PM,5:00 AM - 11:59 PM,PST,Factual,http://www.albertsons.com/
,Albertson's,26850 The Old Rd,,CA,91381,34.408976,-118.57854,(661) 799-8516,9:00 AM - 9:00 PM,9:00 AM - 9:00 PM,9:00 AM - 9:00 PM,9:00 AM - 9:00 PM,9:00 AM - 9:00 PM,9:00 AM - 5:00 PM,10:00 AM - 6:00 PM,PST,Factual,http://ems02013.egain.net/CustomerInquiries
,Albertson's,27631 W Bouquet Canyon,Santa Clarita,CA,91350,34.44349,-118.512,(661) 296-9655,6:00 AM to 11:00 PM,6:00 AM to 11:00 PM,6:00 AM to 11:00 PM,6:00 AM to 11:00 PM,6:00 AM to 11:00 PM,6:00 AM to 11:00 PM,6:00 AM to 11:00 PM,PST,Yelp,https://www.yelp.com/biz/albertsons-santa-clarita-4
,Albertson's,3180 N Garey Ave,,CA,91767,34.105878,-117.747508,(909) 392-1555,12:00 AM - 12:00 AM,12:00 AM - 12:00 AM,12:00 AM - 12:00 AM,12:00 AM - 12:00 AM,12:00 AM - 12:00 AM,12:00 AM - 12:00 AM,12:00 AM - 12:00 AM,PST,Factual,http://www.albertsons.com
,Albertson's,3255 Grand Ave,Chino Hills,CA,91709,34.000903,-117.734449,(909) 590-3660,6:00 AM - 11:00 PM,6:00 AM - 11:00 PM,6:00 AM - 11:00 PM,6:00 AM - 11:00 PM,6:00 AM - 11:00 PM,6:00 AM - 11:00 PM,6:00 AM - 11:00 PM,PST,Factual,http://www.albertsons.com/
,Albertson's,3400 E South St,,CA,90805,33.859636,-118.152333,(562) 529-6098,6:00 AM - 11:00 PM,6:00 AM - 11:00 PM,6:00 AM - 11:00 PM,6:00 AM - 11:00 PM,6:00 AM - 11:00 PM,6:00 AM - 11:00 PM,6:00 AM - 11:00 PM,PST,Factual,http://www.albertsons.com
,Albertson's,3443 S Sepulveda Blvd,,CA,90034,34.019502,-118.423203,(310) 390-7857,6:00 AM - 11:00 PM,6:00 AM - 11:00 PM,6:00 AM - 11:00 PM,6:00 AM - 11:00 PM,6:00 AM - 11:00 PM,6:00 AM - 11:00 PM,6:00 AM - 11:00 PM,PST,Factual,http://www.albertsons.com
,Albertson's,3830 W Verdugo Ave,Burbank,CA,91505,34.159889,-118.34508,(818) 954-0817,6:00 AM - 11:00 PM,6:00 AM - 11:00 PM,6:00 AM - 11:00 PM,6:00 AM - 11:00 PM,6:00 AM - 11:00 PM,6:00 AM - 11:00 PM,6:00 AM - 11:00 PM,PST,Factual,http://www.albertsons.com/
,Albertson's,3841 E Sierra Madre Blvd,,CA,91107,34.162549,-118.069395,(626) 351-0076,7:00 AM - 10:00 PM,7:00 AM - 10:00 PM,7:00 AM - 10:00 PM,7:00 AM - 10:00 PM,7:00 AM - 10:00 PM,7:00 AM - 10:00 PM,7:00 AM - 10:00 PM,PST,Factual,http://www.albertsons.com
,Albertson's,3901 Crenshaw Blvd,Los Angeles,CA,90008,34.0141,-118.336,(323) 295-1919,6:00 AM to 11:00 PM,6:00 AM to 11:00 PM,6:00 AM to 11:00 PM,6:00 AM to 11:00 PM,6:00 AM to 11:00 PM,6:00 AM to 11:00 PM,6:00 AM to 11:00 PM,PST,Yelp,https://www.yelp.com/biz/albertsons-los-angeles-12
,Albertson's,43543 20Th St W,Lancaster,CA,93534,34.673762,-118.167606,(661) 940-4747,6:00 AM - 11:00 PM,6:00 AM - 11:00 PM,6:00 AM - 11:00 PM,6:00 AM - 11:00 PM,6:00 AM - 11:00 PM,6:00 AM - 11:00 PM,6:00 AM - 11:00 PM,PST,Factual,http://www.albertsons.com/
,Albertson's,450 Long Beach Blvd,,CA,90802,33.772259,-118.188574,(562) 436-0678,6:00 AM - 11:00 PM,6:00 AM - 11:00 PM,6:00 AM - 11:00 PM,6:00 AM - 11:00 PM,6:00 AM - 11:00 PM,6:00 AM - 11:00 PM,6:00 AM - 11:00 PM,PST,Factual,http://www.albertsons.com
,Albertson's,4644 E Ave S,,CA,93552,34.557284,-118.046364,(661) 285-5400,12:00 AM - 12:00 AM,12:00 AM - 12:00 AM,12:00 AM - 12:00 AM,12:00 AM - 12:00 AM,12:00 AM - 12:00 AM,12:00 AM - 12:00 AM,12:00 AM - 12:00 AM,PST,Factual,http://www.albertsons.com/
,Albertson's,5015 Del Amo Blvd,Lakewood,CA,90712,33.847731,-118.134277,(562) 634-0405,6:00 AM - 11:00 PM,6:00 AM - 11:00 PM,6:00 AM - 11:00 PM,6:00 AM - 11:00 PM,6:00 AM - 11:00 PM,6:00 AM - 11:00 PM,6:00 AM - 11:00 PM,PST,Factual,http://www.albertsons.com
,Albertson's,541 S Reino Rd,Newbury Park,CA,91320,34.16976,-118.956,(805) 499-7795,6:00 AM to 11:00 PM,6:00 AM to 11:00 PM,6:00 AM to 11:00 PM,6:00 AM to 11:00 PM,6:00 AM to 11:00 PM,6:00 AM to 11:00 PM,6:00 AM to 11:00 PM,PST,Yelp,https://www.yelp.com/biz/albertsons-newbury-park-2
,Albertson's,5595 Rosemead Blvd,,CA,91780,34.10122,-118.07502,(626) 287-0907,,,,,,,,PST,Factual,http://www.albertsons.com
,Albertson's,5770 Lindero Canyon Rd,Westlake Village,CA,91362,34.153819,-118.794652,(818) 889-9819,6:00 AM - 11:59 PM,6:00 AM - 11:59 PM,6:00 AM - 11:59 PM,6:00 AM - 11:59 PM,6:00 AM - 11:59 PM,6:00 AM - 11:59 PM,6:00 AM - 11:59 PM,PST,Factual,http://www.albertsons.com/
,Albertson's,615 N Pacific Coast Hwy,,CA,90277,33.851941,-118.390408,(310) 376-2170,6:00 AM - 11:00 PM,6:00 AM - 11:00 PM,6:00 AM - 11:00 PM,6:00 AM - 11:00 PM,6:00 AM - 11:00 PM,6:00 AM - 11:00 PM,6:00 AM - 11:00 PM,PST,Factual,http://www.albertsons.com/
,Albertson's,6235 E Spring St,,CA,90808,33.811269,-118.109734,(562) 425-8456,9:00 AM - 9:00 PM,9:00 AM - 9:00 PM,9:00 AM - 9:00 PM,9:00 AM - 9:00 PM,9:00 AM - 9:00 PM,9:00 AM - 5:00 PM,10:00 AM - 6:00 PM,PST,Factual,http://www.albertsons.com
,Albertson's,644 Redondo Ave,,CA,90814,33.774627,-118.1517,(562) 439-4004,6:00 AM - 11:59 PM,6:00 AM - 11:59 PM,6:00 AM - 11:59 PM,6:00 AM - 11:59 PM,6:00 AM - 11:59 PM,6:00 AM - 11:59 PM,6:00 AM - 11:59 PM,PST,Factual,http://www.albertsons.com
,Albertson's,7224 Mason Ave,,CA,91306,34.202041,-118.578855,(818) 346-8785,6:00 AM - 10:00 PM,6:00 AM - 10:00 PM,6:00 AM - 10:00 PM,6:00 AM - 10:00 PM,6:00 AM - 10:00 PM,6:00 AM - 10:00 PM,6:00 AM - 10:00 PM,PST,Factual,http://www.albertsons.com
,Albertson's,725 E Huntington Dr,,CA,91016,34.141509,-117.988782,(626) 305-4231,9:00 AM - 9:00 PM,9:00 AM - 9:00 PM,9:00 AM - 9:00 PM,9:00 AM - 9:00 PM,9:00 AM - 9:00 PM,9:00 AM - 5:00 PM,10:00 AM - 6:00 PM,PST,Factual,http://www.albertsons.com/
,Albertson's,7676 Firestone Blvd,Downey,CA,90241,33.945545,-118.144449,(562) 869-9670,6:00 AM - 11:00 PM,6:00 AM - 11:00 PM,6:00 AM - 11:00 PM,6:00 AM - 11:00 PM,6:00 AM - 11:00 PM,6:00 AM - 11:00 PM,6:00 AM - 11:00 PM,PST,Factual,http://www.albertsons.com/
,Albertson's,775 S Tucker Rd,Tehachapi,CA,93561,35.12574,-118.47,(661) 823-7090,,,,,,,,PST,Yelp,https://www.yelp.com/biz/albertsons-tehachapi
,Albertson's,855 N Wilcox Ave,,CA,90640,34.031148,-118.122406,(323) 724-0462,6:00 AM - 11:00 PM,6:00 AM - 11:00 PM,6:00 AM - 11:00 PM,6:00 AM - 11:00 PM,6:00 AM - 11:00 PM,6:00 AM - 11:00 PM,6:00 AM - 11:00 PM,PST,Factual,http://www.albertsons.com
,Albertson's,8880 Valley View St,Buena Park,CA,90620,33.83367,-118.027,(714) 236-8200,6:00 AM to 11:00 PM,6:00 AM to 11:00 PM,6:00 AM to 11:00 PM,6:00 AM to 11:00 PM,6:00 AM to 11:00 PM,6:00 AM to 11:00 PM,6:00 AM to 11:00 PM,PST,Yelp,https://www.yelp.com/biz/albertsons-buena-park-2
,Albertson's,9022 Balboa Blvd,Northridge,CA,91325,34.234389,-118.501424,(818) 894-6415,6:00 AM - 11:59 PM,6:00 AM - 11:59 PM,6:00 AM - 11:59 PM,6:00 AM - 11:59 PM,6:00 AM - 11:59 PM,6:00 AM - 11:59 PM,6:00 AM - 11:59 PM,PST,Factual,http://www.albertsons.com/
,Aldi,1051 W Washington Blvd Unit #A & B,Los Angeles,CA,90015,34.0383,-118.28,,,,,,,,,PST,LACity,
,Aldi,114 W Channel Road,Santa Monica,CA,90402,34.0285,-118.52,,,,,,,,,PST,LACity,
,Aldi,11530 South St,Cerritos,CA,90703,33.85838,-118.08795,(562) 860-8224,9:00 AM - 9:00 PM,9:00 AM - 9:00 PM,9:00 AM - 9:00 PM,9:00 AM - 9:00 PM,9:00 AM - 9:00 PM,9:00 AM - 9:00 PM,9:00 AM - 9:00 PM,PST,Factual,http://www.aldi.us/
,Aldi,1400 N Azusa Ave,Covina,CA,91722,34.10466,-117.90725,(626) 331-1112,9:00 AM - 9:00 PM,9:00 AM - 9:00 PM,9:00 AM - 9:00 PM,9:00 AM - 9:00 PM,9:00 AM - 9:00 PM,9:00 AM - 9:00 PM,9:00 AM - 9:00 PM,PST,Factual,http://www.aldi.us/
,Aldi,1403 S Baldwin Ave,Arcadia,CA,91007,34.12351,-118.055,n/a,9:00 AM to 9:00 PM,9:00 AM to 9:00 PM,9:00 AM to 9:00 PM,9:00 AM to 9:00 PM,9:00 AM to 9:00 PM,9:00 AM to 9:00 PM,9:00 AM to 9:00 PM,PST,Yelp,https://www.yelp.com/biz/aldi-arcadia-3
,Aldi,1545 N Hacienda Blvd,La Puente,CA,91744,34.048,-117.947,n/a,9:00 AM to 9:00 PM,9:00 AM to 9:00 PM,9:00 AM to 9:00 PM,9:00 AM to 9:00 PM,9:00 AM to 9:00 PM,9:00 AM to 9:00 PM,9:00 AM to 9:00 PM,PST,Yelp,https://www.yelp.com/biz/aldi-la-puente
,Aldi,17609 Vierra Ave,,CA,90703,33.871223,-118.034043,(714) 739-1175,,,,,,,,PST,Factual,
,Aldi,3330 W Century Blvd,Inglewood,CA,90303,33.9443,-118.329,n/a,,,,,,,,PST,Yelp,https://www.yelp.com/biz/aldi-inglewood
,Aldi,4212 S Central Ave,Los Angeles,CA,90011,34.007069,-118.256327,(323) 235-2724,7:00 AM - 10:00 PM,7:00 AM - 10:00 PM,7:00 AM - 10:00 PM,7:00 AM - 10:00 PM,7:00 AM - 10:00 PM,7:00 AM - 9:30 PM,7:00 AM - 9:00 PM,PST,Factual,
,Aldi,740 W Rancho Vista Blvd,Palmdale,CA,93551,34.60109,-118.145,n/a,9:00 AM to 9:00 PM,9:00 AM to 9:00 PM,9:00 AM to 9:00 PM,9:00 AM to 9:00 PM,9:00 AM to 9:00 PM,9:00 AM to 9:00 PM,9:00 AM to 9:00 PM,PST,Yelp,https://www.yelp.com/biz/aldi-palmdale
,Aldi,8530 Firestone Blvd,,CA,90241,33.937191,-118.129155,(562) 622-4713,,,,,,,,PST,Factual,http://www.aldi.us/
,Costco,1220 W Foothill Blvd,Azusa,CA,91702,34.13205,-117.926,(626) 812-7911,10:00 AM to 8:30 PM,10:00 AM to 8:30 PM,10:00 AM to 8:30 PM,10:00 AM to 8:30 PM,10:00 AM to 8:30 PM,9:30 AM to 6:00 PM,10:00 AM to 6:00 PM,PST,Yelp,https://www.yelp.com/biz/costco-wholesale-azusa-3
,Costco,1345 N Montebello Blvd,Montebello,CA,90640,34.032227,-118.09663,,,,,,,,,,LACounty,
,Costco,13550 Paxton St,Pacoima,CA,91331,34.2723,-118.43,,,,,,,,,PST,LACity,
,Costco,21800 Victory Blvd,Woodland Hills,CA,91367,34.18742,-118.60309,,,,,,,,,,LACounty,
,Costco,2640 Lomita Blvd,Torrance,CA,90505,33.807537,-118.33176,,,,,,,,,,LACounty,
,Costco,2751 Skypark Dr,Torrance,CA,90505,33.804165,-118.33478,,,,,,,,,,LACounty,
,Costco,2901 Los Feliz Blvd,Los Angeles,CA,90039,34.1264,-118.26,,,,,,,,,PST,LACity,
,Costco,340 Lakewood Center Mall,Lakewood,CA,90712,33.850395,-118.14178,,,,,,,,,,LACounty,
,Costco,8810 Tampa Ave,Northridge,CA,91324,34.23076,-118.551,(818) 775-1860,10:00 AM to 8:30 PM,10:00 AM to 8:30 PM,10:00 AM to 8:30 PM,10:00 AM to 8:30 PM,10:00 AM to 8:30 PM,9:30 AM to 6:00 PM,10:00 AM to 6:00 PM,PST,Yelp,https://www.yelp.com/biz/costco-wholesale-northridge
,Costco,6100 Sepulveda Blvd,Van Nuys,CA,91411,34.1811,-118.47,,,,,,,,,PST,LACity,
,Food 4 Less,10901 Imperial Hwy,,CA,90650,33.918367,-118.101564,(562) 868-6685,6:00 AM - 11:59 PM,6:00 AM - 11:59 PM,6:00 AM - 11:59 PM,6:00 AM - 11:59 PM,6:00 AM - 11:59 PM,6:00 AM - 11:59 PM,6:00 AM - 11:59 PM,PST,Factual,http://www.food4less.com/
,Food 4 Less,1091 S Hoover St,Los Angeles,CA,90006,34.051106,-118.284705,(213) 386-1680,6:00 AM - 11:59 PM,6:00 AM - 11:59 PM,6:00 AM - 11:59 PM,6:00 AM - 11:59 PM,6:00 AM - 11:59 PM,6:00 AM - 11:59 PM,6:00 AM - 11:59 PM,PST,Factual,http://www.food4less.com/
,Food 4 Less,11245 Long Beach Blvd,Lynwood,CA,90262,33.928574,-118.212819,(310) 632-9954,6:00 AM - 11:59 PM,6:00 AM - 11:59 PM,6:00 AM - 11:59 PM,6:00 AM - 11:59 PM,6:00 AM - 11:59 PM,6:00 AM - 11:59 PM,6:00 AM - 11:59 PM,PST,Factual,http://www.food4less.com/
,Food 4 Less,11407 S Western Ave,,CA,90047,33.930221,-118.310616,(323) 757-1257,6:00 AM - 11:59 PM,6:00 AM - 11:59 PM,6:00 AM - 11:59 PM,6:00 AM - 11:59 PM,6:00 AM - 11:59 PM,6:00 AM - 11:59 PM,6:00 AM - 11:59 PM,PST,Factual,http://www.food4less.com/
,Food 4 Less,11840 Wilmington Ave,Los Angeles,CA,90059,33.925909,-118.237361,(323) 564-3986,6:00 AM - 10:00 PM,6:00 AM - 10:00 PM,6:00 AM - 10:00 PM,6:00 AM - 10:00 PM,6:00 AM - 10:00 PM,6:00 AM - 10:00 PM,6:00 AM - 10:00 PM,PST,Factual,http://www.food4less.com/
,Food 4 Less,11873 Hawthorne Blvd,,CA,90250,33.925969,-118.354076,(310) 679-9164,,,,,,,,PST,Factual,http://www.food4less.com/
,Food 4 Less,11950 Garvey Ave,,CA,91732,34.061833,-118.019964,(626) 442-7155,6:00 AM - 11:59 PM,6:00 AM - 11:59 PM,6:00 AM - 11:59 PM,6:00 AM - 11:59 PM,6:00 AM - 11:59 PM,6:00 AM - 11:59 PM,6:00 AM - 11:59 PM,PST,Factual,http://www.food4less.com/
,Food 4 Less,12222 Carson St,Hawaiian Gardens,CA,90716,33.830862,-118.070346,(562) 429-9135,6:00 AM - 11:59 PM,6:00 AM - 11:59 PM,6:00 AM - 11:59 PM,6:00 AM - 11:59 PM,6:00 AM - 11:59 PM,6:00 AM - 11:59 PM,6:00 AM - 11:59 PM,PST,Factual,http://www.food4less.com/
,Food 4 Less,12689 Glenoaks Blvd,Sylmar,CA,91342,34.299749,-118.441956,(818) 362-3309,6:00 AM - 11:59 PM,6:00 AM - 11:59 PM,6:00 AM - 11:59 PM,6:00 AM - 11:59 PM,6:00 AM - 11:59 PM,6:00 AM - 11:59 PM,6:00 AM - 11:59 PM,PST,Factual,http://www.food4less.com/
,Food 4 Less,12765 Van Nuys Blvd,Pacoima,CA,91331,34.275399,-118.412319,(818) 890-1151,6:00 AM - 10:00 PM,6:00 AM - 10:00 PM,6:00 AM - 10:00 PM,6:00 AM - 10:00 PM,6:00 AM - 10:00 PM,6:00 AM - 10:00 PM,6:00 AM - 10:00 PM,PST,Factual,http://www.food4less.com/
,Food 4 Less,1299 W Artesia Blvd,Gardena,CA,90248,33.873544,-118.294853,(310) 768-3095,6:00 AM - 11:59 PM,6:00 AM - 11:59 PM,6:00 AM - 11:59 PM,6:00 AM - 11:59 PM,6:00 AM - 11:59 PM,6:00 AM - 11:59 PM,6:00 AM - 11:59 PM,PST,Factual,http://www.food4less.com/
,Food 4 Less,1329 N Lake Ave,Pasadena,CA,91104,34.168305,-118.133551,(626) 791-7412,6:00 AM - 11:59 PM,6:00 AM - 11:59 PM,6:00 AM - 11:59 PM,6:00 AM - 11:59 PM,6:00 AM - 11:59 PM,6:00 AM - 11:59 PM,6:00 AM - 11:59 PM,PST,Factual,http://www.food4less.com/
,Food 4 Less,13413 Telegraph Rd,Whittier,CA,90605,33.941249,-118.044892,(562) 946-1425,6:00 AM - 11:59 PM,6:00 AM - 11:59 PM,6:00 AM - 11:59 PM,6:00 AM - 11:59 PM,6:00 AM - 11:59 PM,6:00 AM - 11:59 PM,6:00 AM - 11:59 PM,PST,Factual,http://www.food4less.com/
,Food 4 Less,13525 Lakewood Blvd,,CA,90242,33.905229,-118.144472,(562) 633-0830,6:00 AM - 11:59 PM,6:00 AM - 11:59 PM,6:00 AM - 11:59 PM,6:00 AM - 11:59 PM,6:00 AM - 11:59 PM,6:00 AM - 11:59 PM,6:00 AM - 11:59 PM,PST,Factual,http://www.food4less.com/
,Food 4 Less,13535 Lakewood Blvd,Downey,CA,90242,33.904,-118.143,(562) 633-0830,,,,,,,,PST,Yelp,https://www.yelp.com/biz/food-4-less-downey
,Food 4 Less,14500 Ocean Gate Ave,Hawthorne,CA,90250,33.899345,-118.366496,(310) 644-1183,6:00 AM - 11:59 PM,6:00 AM - 11:59 PM,6:00 AM - 11:59 PM,6:00 AM - 11:59 PM,6:00 AM - 11:59 PM,6:00 AM - 11:59 PM,6:00 AM - 11:59 PM,PST,Factual,http://www.food4less.com/
,Food 4 Less,1600 E Willow St,Signal Hill,CA,90755,33.803651,-118.171477,(562) 989-7576,6:00 AM - 11:59 PM,6:00 AM - 11:59 PM,6:00 AM - 11:59 PM,6:00 AM - 11:59 PM,6:00 AM - 11:59 PM,6:00 AM - 11:59 PM,6:00 AM - 11:59 PM,PST,Factual,http://www.food4less.com/
,Food 4 Less,16208 Parthenia St,North Hills,CA,91343,34.227377,-118.486198,(818) 830-0249,6:00 AM - 11:59 PM,6:00 AM - 11:59 PM,6:00 AM - 11:59 PM,6:00 AM - 11:59 PM,6:00 AM - 11:59 PM,6:00 AM - 11:59 PM,6:00 AM - 11:59 PM,PST,Factual,http://www.food4less.com/
,Food 4 Less,1651 E 103Rd St,Los Angeles,CA,90002,33.944813,-118.243947,(323) 564-3753,7:00 AM - 10:00 PM,7:00 AM - 10:00 PM,7:00 AM - 10:00 PM,7:00 AM - 10:00 PM,7:00 AM - 10:00 PM,7:00 AM - 10:00 PM,7:00 AM - 10:00 PM,PST,Factual,http://www.food4less.com/
,Food 4 Less,16530 Sherman Way,Van Nuys,CA,91406,34.200623,-118.494086,(818) 997-0170,6:00 AM - 11:59 PM,6:00 AM - 11:59 PM,6:00 AM - 11:59 PM,6:00 AM - 11:59 PM,6:00 AM - 11:59 PM,6:00 AM - 11:59 PM,6:00 AM - 11:59 PM,PST,Factual,http://www.food4less.com/
,Food 4 Less,1700 W 6Th St,Los Angeles,CA,90017,34.056954,-118.270402,(213) 353-0920,6:00 AM - 11:59 PM,6:00 AM - 11:59 PM,6:00 AM - 11:59 PM,6:00 AM - 11:59 PM,6:00 AM - 11:59 PM,6:00 AM - 11:59 PM,6:00 AM - 11:59 PM,PST,Factual,http://www.food4less.com/
,Food 4 Less,1717 S Western Ave,Los Angeles,CA,90006,34.042123,-118.310107,(323) 731-0164,6:00 AM - 11:59 PM,6:00 AM - 11:59 PM,6:00 AM - 11:59 PM,6:00 AM - 11:59 PM,6:00 AM - 11:59 PM,6:00 AM - 11:59 PM,6:00 AM - 11:59 PM,PST,Factual,http://www.food4less.com/
,Food 4 Less,1730 W Manchester Ave,Los Angeles,CA,90047,33.959312,-118.307911,(323) 750-3151,,,,,,,,PST,Factual,http://www.food4less.com/
,Food 4 Less,1748 W Jefferson Blvd,Los Angeles,CA,90018,34.025033,-118.307434,(323) 735-8317,6:00 AM - 11:59 PM,6:00 AM - 11:59 PM,6:00 AM - 11:59 PM,6:00 AM - 11:59 PM,6:00 AM - 11:59 PM,6:00 AM - 11:59 PM,6:00 AM - 11:59 PM,PST,Factual,http://www.food4less.com/
,Food 4 Less,1820 W Slauson Ave,Los Angeles,CA,90047,33.987671,-118.310841,(323) 293-1369,6:00 AM - 11:59 PM,6:00 AM - 11:59 PM,6:00 AM - 11:59 PM,6:00 AM - 11:59 PM,6:00 AM - 11:59 PM,6:00 AM - 11:59 PM,6:00 AM - 11:59 PM,PST,Factual,http://www.food4less.com/
,Food 4 Less,1821 N Hacienda Blvd,La Puente,CA,91744,34.052197,-117.944335,(626) 916-1120,12:00 AM - 2:00 AM,12:00 AM - 2:00 AM,12:00 AM - 2:00 AM,12:00 AM - 2:00 AM,12:00 AM - 2:00 AM,12:00 AM - 2:00 AM,12:00 AM - 2:00 AM,PST,Factual,http://www.food4less.com/
,Food 4 Less,1900 W Rosecrans Ave,,CA,90220,33.90159,-118.252046,(310) 609-3385,6:00 AM - 11:59 PM,6:00 AM - 11:59 PM,6:00 AM - 11:59 PM,6:00 AM - 11:59 PM,6:00 AM - 11:59 PM,6:00 AM - 11:59 PM,6:00 AM - 11:59 PM,PST,Factual,http://www.food4less.com/
,Food 4 Less,19200 Soledad Canyon Rd,Canyon Cntry,CA,91351,34.414001,-118.470833,(661) 250-7357,6:00 AM - 11:59 PM,6:00 AM - 11:59 PM,6:00 AM - 11:59 PM,6:00 AM - 11:59 PM,6:00 AM - 11:59 PM,6:00 AM - 11:59 PM,6:00 AM - 11:59 PM,PST,Factual,http://www.food4less.com/
,Food 4 Less,20155 Saticoy St,Winnetka,CA,91306,34.209037,-118.57284,(818) 998-8074,6:00 AM - 11:59 PM,6:00 AM - 11:59 PM,6:00 AM - 11:59 PM,6:00 AM - 11:59 PM,6:00 AM - 11:59 PM,6:00 AM - 11:59 PM,6:00 AM - 11:59 PM,PST,Factual,http://www.food4less.com/
,Food 4 Less,2090 S Garey Ave,,CA,91766,34.034367,-117.747737,(909) 902-0299,6:00 AM - 11:59 PM,6:00 AM - 11:59 PM,6:00 AM - 11:59 PM,6:00 AM - 11:59 PM,6:00 AM - 11:59 PM,6:00 AM - 11:59 PM,6:00 AM - 11:59 PM,PST,Factual,http://www.food4less.com/
,Food 4 Less,2185 E South St,Long Beach,CA,90805,33.861389,-118.166628,(562) 422-9646,6:00 AM - 11:59 PM,6:00 AM - 11:59 PM,6:00 AM - 11:59 PM,6:00 AM - 11:59 PM,6:00 AM - 11:59 PM,6:00 AM - 11:59 PM,6:00 AM - 11:59 PM,PST,Factual,http://www.food4less.com/
,Food 4 Less,2341 E Ave S,Palmdale,CA,93550,34.55935,-118.086,(661) 266-9091,6:00 AM - 11:59 PM,6:00 AM - 11:59 PM,6:00 AM - 11:59 PM,6:00 AM - 11:59 PM,6:00 AM - 11:59 PM,6:00 AM - 11:59 PM,6:00 AM - 11:59 PM,PST,Yelp,https://www.yelp.com/biz/food-4-less-palmdale
,Food 4 Less,2750 E 1St St,Los Angeles,CA,90033,34.040772,-118.205676,(323) 268-0461,6:00 AM - 11:59 PM,6:00 AM - 11:59 PM,6:00 AM - 11:59 PM,6:00 AM - 11:59 PM,6:00 AM - 11:59 PM,6:00 AM - 11:59 PM,6:00 AM - 11:59 PM,PST,Factual,http://www.food4less.com/
,Food 4 Less,3000 Baldwin Park Blvd,Baldwin Park,CA,91706,34.068772,-117.979135,(626) 856-0511,6:00 AM - 11:59 PM,6:00 AM - 11:59 PM,6:00 AM - 11:59 PM,6:00 AM - 11:59 PM,6:00 AM - 11:59 PM,6:00 AM - 11:59 PM,6:00 AM - 11:59 PM,PST,Factual,http://www.food4less.com/
,Food 4 Less,3200 W Century Blvd,Inglewood,CA,90303,33.944101,-118.327919,(310) 677-2520,6:00 AM - 11:59 PM,6:00 AM - 11:59 PM,6:00 AM - 11:59 PM,6:00 AM - 11:59 PM,6:00 AM - 11:59 PM,6:00 AM - 11:59 PM,6:00 AM - 11:59 PM,PST,Factual,http://www.food4less.com/
,Food 4 Less,3210 Anaheim St,Long Beach,CA,90804,33.7816,-118.154,(562) 438-6978,,,,,,,,PST,Yelp,https://www.yelp.com/biz/food-4-less-long-beach-6
,Food 4 Less,336 W Anaheim St,Wilmington,CA,90744,33.778711,-118.265585,(310) 847-7488,6:00 AM - 11:59 PM,6:00 AM - 11:59 PM,6:00 AM - 11:59 PM,6:00 AM - 11:59 PM,6:00 AM - 11:59 PM,6:00 AM - 11:59 PM,6:00 AM - 11:59 PM,PST,Factual,http://www.food4less.com/
,Food 4 Less,3654 E Olympic Blvd,Los Angeles,CA,90023,34.017784,-118.198406,(323) 980-5067,6:00 AM - 11:59 PM,6:00 AM - 11:59 PM,6:00 AM - 11:59 PM,6:00 AM - 11:59 PM,6:00 AM - 11:59 PM,6:00 AM - 11:59 PM,6:00 AM - 11:59 PM,PST,Factual,http://www.food4less.com/
,Food 4 Less,4400 Slauson Ave,Maywood,CA,90270,33.986908,-118.187503,(323) 773-2214,6:00 AM - 11:59 PM,6:00 AM - 11:59 PM,6:00 AM - 11:59 PM,6:00 AM - 11:59 PM,6:00 AM - 11:59 PM,6:00 AM - 11:59 PM,6:00 AM - 11:59 PM,PST,Factual,http://www.food4less.com/
,Food 4 Less,44455 Valley Central Way,Lancaster,CA,93536,34.690611,-118.173871,(661) 940-6373,#VALUE!,#VALUE!,#VALUE!,#VALUE!,#VALUE!,#VALUE!,#VALUE!,PST,Factual,http://www.food4less.com/
,Food 4 Less,4910 Huntington Dr S,Los Angeles,CA,90032,34.086672,-118.175998,(323) 222-2659,6:00 AM - 11:59 PM,6:00 AM - 11:59 PM,6:00 AM - 11:59 PM,6:00 AM - 11:59 PM,6:00 AM - 11:59 PM,6:00 AM - 11:59 PM,6:00 AM - 11:59 PM,PST,Factual,http://www.food4less.com/
,Food 4 Less,5080 Rodeo Rd,Los Angeles,CA,90016,34.02148,-118.355009,(323) 292-0633,5:00 AM to 10:00 PM,5:00 AM to 10:00 PM,5:00 AM to 10:00 PM,5:00 AM to 10:00 PM,5:00 AM to 10:00 PM,5:00 AM to 10:00 PM,5:00 AM to 10:00 PM,PST,Factual,http://www.food4less.com/
,Food 4 Less,5100 N Figueroa St,Los Angeles,CA,90042,34.10527,-118.2,(323) 982-0304,,,,,,,,PST,Yelp,https://www.yelp.com/biz/food-4-less-los-angeles-7
,Food 4 Less,5318 S Main St,Los Angeles,CA,90037,33.993947,-118.273383,(323) 846-8895,7:00 AM - 10:00 PM,7:00 AM - 10:00 PM,7:00 AM - 10:00 PM,7:00 AM - 10:00 PM,7:00 AM - 10:00 PM,7:00 AM - 10:00 PM,7:00 AM - 10:00 PM,PST,Factual,http://www.food4less.com/
,Food 4 Less,5420 W Sunset Blvd,Los Angeles,CA,90027,34.097044,-118.3079,(323) 871-8011,12:00 AM - 11:59 PM,12:00 AM - 11:59 PM,12:00 AM - 11:59 PM,12:00 AM - 11:59 PM,12:00 AM - 11:59 PM,12:00 AM - 11:59 PM,12:00 AM - 11:59 PM,PST,Factual,http://www.food4less.com/
,Food 4 Less,615 N Azusa Ave,West Covina,CA,91791,34.081604,-117.909375,(626) 967-5244,12:00 AM - 1:00 AM,12:00 AM - 1:00 AM,12:00 AM - 1:00 AM,12:00 AM - 1:00 AM,12:00 AM - 1:00 AM,12:00 AM - 1:00 AM,12:00 AM - 1:00 AM,PST,Factual,http://www.food4less.com/
,Food 4 Less,6700 Cherry Ave,Long Beach,CA,90805,33.876919,-118.167578,(562) 220-2373,12:00 AM - 1:00 AM,12:00 AM - 1:00 AM,12:00 AM - 1:00 AM,12:00 AM - 1:00 AM,12:00 AM - 1:00 AM,12:00 AM - 1:00 AM,12:00 AM - 1:00 AM,PST,Factual,http://www.food4less.com/
,Food 4 Less,6901 Eastern Ave,,CA,90201,33.97065,-118.166005,(323) 771-2003,6:00 AM - 11:59 PM,6:00 AM - 11:59 PM,6:00 AM - 11:59 PM,6:00 AM - 11:59 PM,6:00 AM - 11:59 PM,6:00 AM - 11:59 PM,6:00 AM - 11:59 PM,PST,Factual,http://www.food4less.com/
,Food 4 Less,6920 Santa Fe Ave,Huntington Park,CA,90255,33.976578,-118.229592,(323) 585-6430,6:00 AM - 11:59 PM,6:00 AM - 11:59 PM,6:00 AM - 11:59 PM,6:00 AM - 11:59 PM,6:00 AM - 11:59 PM,6:00 AM - 11:59 PM,6:00 AM - 11:59 PM,PST,Factual,http://www.food4less.com/
,Food 4 Less,7810 Norwalk Blvd,Whittier,CA,90606,33.974421,-118.074137,(562) 699-3358,6:00 AM - 11:59 PM,6:00 AM - 11:59 PM,6:00 AM - 11:59 PM,6:00 AM - 11:59 PM,6:00 AM - 11:59 PM,6:00 AM - 11:59 PM,6:00 AM - 11:59 PM,PST,Factual,http://www.food4less.com/
,Food 4 Less,8035 Webb Ave,N Hollywood,CA,91605,34.216243,-118.389719,(818) 252-4855,6:00 AM - 11:59 PM,6:00 AM - 11:59 PM,6:00 AM - 11:59 PM,6:00 AM - 11:59 PM,6:00 AM - 11:59 PM,6:00 AM - 11:59 PM,6:00 AM - 11:59 PM,PST,Factual,http://www.food4less.com/
,Food 4 Less,851 Sepulveda Blvd,West Carson,CA,90502,33.811198,-118.288949,(310) 549-4870,6:00 AM - 11:59 PM,6:00 AM - 11:59 PM,6:00 AM - 11:59 PM,6:00 AM - 11:59 PM,6:00 AM - 11:59 PM,6:00 AM - 11:59 PM,6:00 AM - 11:59 PM,PST,Factual,http://www.food4less.com/
,Food 4 Less,8530 Tobias Ave,Panorama City,CA,91402,34.225718,-118.450917,(818) 830-7085,6:00 AM - 11:59 PM,6:00 AM - 11:59 PM,6:00 AM - 11:59 PM,6:00 AM - 11:59 PM,6:00 AM - 11:59 PM,6:00 AM - 11:59 PM,6:00 AM - 11:59 PM,PST,Factual,http://www.food4less.com/
,Food 4 Less,8620 Whittier Blvd,,CA,90660,34.001852,-118.088506,(562) 948-3435,6:00 AM - 11:59 PM,6:00 AM - 11:59 PM,6:00 AM - 11:59 PM,6:00 AM - 11:59 PM,6:00 AM - 11:59 PM,6:00 AM - 11:59 PM,6:00 AM - 11:59 PM,PST,Factual,http://www.food4less.com/
,Food 4 Less,9635 Laurel Canyon Blvd,Arleta,CA,91331,34.243803,-118.417487,(818) 897-3545,6:00 AM - 11:59 PM,6:00 AM - 11:59 PM,6:00 AM - 11:59 PM,6:00 AM - 11:59 PM,6:00 AM - 11:59 PM,6:00 AM - 11:59 PM,6:00 AM - 11:59 PM,PST,Factual,http://www.food4less.com/
,Fresh & Easy,1000 W West Covina Pkwy,,CA,91790,34.068147,-117.931428,(626) 962-7500,12:00 AM - 11:59 PM,12:00 AM - 11:59 PM,12:00 AM - 11:59 PM,12:00 AM - 11:59 PM,12:00 AM - 11:59 PM,12:00 AM - 11:59 PM,12:00 AM - 11:59 PM,PST,Factual,http://www.freshandeasy.com/
,Fresh & Easy,1025 E Adams Blvd,,CA,90011,34.019036,-118.255956,(213) 765-0918,6:00 AM - 11:59 PM,6:00 AM - 11:59 PM,6:00 AM - 11:59 PM,6:00 AM - 11:59 PM,6:00 AM - 11:59 PM,6:00 AM - 11:59 PM,6:00 AM - 11:59 PM,PST,Factual,http://www.freshandeasy.com
,Fresh & Easy,10930 Rosecrans Ave,,CA,90650,33.901688,-118.101378,(562) 863-2152,12:00 AM - 11:59 PM,12:00 AM - 11:59 PM,12:00 AM - 11:59 PM,12:00 AM - 11:59 PM,12:00 AM - 11:59 PM,12:00 AM - 11:59 PM,12:00 AM - 11:59 PM,PST,Factual,http://www.freshandeasy.com/
,Fresh & Easy,11900 Balboa Blvd,Granada Hills,CA,91344,34.28669,-118.50152,(818) 831-4018,6:00 AM - 11:59 PM,6:00 AM - 11:59 PM,6:00 AM - 11:59 PM,6:00 AM - 11:59 PM,6:00 AM - 11:59 PM,6:00 AM - 11:59 PM,6:00 AM - 11:59 PM,PST,Factual,http://www.freshandeasy.com
,Fresh & Easy,12811 Sherman Way,,CA,91605,34.201711,-118.412569,(818) 982-0798,6:00 AM - 11:59 PM,6:00 AM - 11:59 PM,6:00 AM - 11:59 PM,6:00 AM - 11:59 PM,6:00 AM - 11:59 PM,6:00 AM - 11:59 PM,6:00 AM - 11:59 PM,PST,Factual,http://www.freshandeasy.com
,Fresh & Easy,13207 Gladstone Ave,,CA,91342,34.31057,-118.42854,(818) 833-9236,12:00 AM - 11:59 PM,12:00 AM - 11:59 PM,12:00 AM - 11:59 PM,12:00 AM - 11:59 PM,12:00 AM - 11:59 PM,12:00 AM - 11:59 PM,12:00 AM - 11:59 PM,PST,Factual,http://www.freshandeasy.com
,Fresh & Easy,1321 S Grand Ave,,CA,91740,34.115187,-117.872773,(626) 335-0956,,,,,,,,PST,Factual,http://freshandeasy.com
,Fresh & Easy,133 E Foothill Blvd,,CA,91006,34.151376,-118.027142,(626) 256-8800,6:00 AM - 11:59 PM,6:00 AM - 11:59 PM,6:00 AM - 11:59 PM,6:00 AM - 11:59 PM,6:00 AM - 11:59 PM,6:00 AM - 11:59 PM,6:00 AM - 11:59 PM,PST,Factual,http://www.freshandeasy.com/
,Fresh & Easy,13301 Whittier Blvd,Whittier,CA,90602,33.964113,-118.033283,(562) 907-2540,12:00 AM - 12:00 AM,12:00 AM - 12:00 AM,12:00 AM - 12:00 AM,12:00 AM - 12:00 AM,12:00 AM - 12:00 AM,12:00 AM - 12:00 AM,12:00 AM - 12:00 AM,PST,Factual,http://www.freshandeasy.com
,Fresh & Easy,1340 E 7Th St,Long Beach,CA,90813,33.77509,-118.174188,(562) 435-3606,12:00 AM - 12:00 AM,12:00 AM - 12:00 AM,12:00 AM - 12:00 AM,12:00 AM - 12:00 AM,12:00 AM - 12:00 AM,12:00 AM - 12:00 AM,12:00 AM - 12:00 AM,PST,Factual,http://www.freshandeasy.com
,Fresh & Easy,15230 Vanowen St,,CA,91405,34.193705,-118.465056,(818) 902-0635,12:00 AM - 11:59 PM,12:00 AM - 11:59 PM,12:00 AM - 11:59 PM,12:00 AM - 11:59 PM,12:00 AM - 11:59 PM,12:00 AM - 11:59 PM,12:00 AM - 11:59 PM,PST,Factual,http://www.freshandeasy.com
,Fresh & Easy,15630 Ventura Blvd,,CA,91436,34.154913,-118.474468,(818) 784-8870,6:00 AM - 11:59 PM,6:00 AM - 11:59 PM,6:00 AM - 11:59 PM,6:00 AM - 11:59 PM,6:00 AM - 11:59 PM,6:00 AM - 11:59 PM,6:00 AM - 11:59 PM,PST,Factual,http://www.freshandeasy.com
,Fresh & Easy,15745 Imperial Hwy,,CA,90638,33.918432,-117.995188,(562) 943-2203,6:00 AM - 11:59 PM,6:00 AM - 11:59 PM,6:00 AM - 11:59 PM,6:00 AM - 11:59 PM,6:00 AM - 11:59 PM,6:00 AM - 11:59 PM,6:00 AM - 11:59 PM,PST,Factual,http://www.freshandeasy.com
,Fresh & Easy,1615 W Verdugo Ave,,CA,91506,34.168148,-118.323188,(818) 845-0158,6:00 AM - 11:59 PM,6:00 AM - 11:59 PM,6:00 AM - 11:59 PM,6:00 AM - 11:59 PM,6:00 AM - 11:59 PM,6:00 AM - 11:59 PM,6:00 AM - 11:59 PM,PST,Factual,http://www.freshandeasy.com
,Fresh & Easy,1700 Rosecrans Ave,Manhattan Beach,CA,90266,33.901217,-118.382203,(310) 536-9807,8:00 AM - 10:00 PM,8:00 AM - 10:00 PM,8:00 AM - 10:00 PM,8:00 AM - 10:00 PM,8:00 AM - 10:00 PM,8:00 AM - 10:00 PM,8:00 AM - 10:00 PM,PST,Factual,http://www.freshandeasy.com
,Fresh & Easy,1788 S La Cienega Blvd,,CA,90035,34.044839,-118.376557,(310) 837-8920,6:00 AM - 11:59 PM,6:00 AM - 11:59 PM,6:00 AM - 11:59 PM,6:00 AM - 11:59 PM,6:00 AM - 11:59 PM,6:00 AM - 11:59 PM,6:00 AM - 11:59 PM,PST,Factual,http://www.freshandeasy.com
,Fresh & Easy,19350 Nordhoff St,,CA,91324,34.234285,-118.55602,(818) 882-8952,12:00 AM - 11:59 PM,12:00 AM - 11:59 PM,12:00 AM - 11:59 PM,12:00 AM - 11:59 PM,12:00 AM - 11:59 PM,12:00 AM - 11:59 PM,12:00 AM - 11:59 PM,PST,Factual,http://www.freshandeasy.com/
,Fresh & Easy,2001 W Whittier Blvd,,CA,90631,33.940256,-117.968803,(562) 690-8962,6:00 AM - 11:59 PM,6:00 AM - 11:59 PM,6:00 AM - 11:59 PM,6:00 AM - 11:59 PM,6:00 AM - 11:59 PM,6:00 AM - 11:59 PM,6:00 AM - 11:59 PM,PST,Factual,http://www.freshandeasy.com
,Fresh & Easy,205 N Grand Ave,Covina,CA,91724,34.087558,-117.87294,(626) 331-8409,12:00 AM - 12:00 AM,12:00 AM - 12:00 AM,12:00 AM - 12:00 AM,12:00 AM - 12:00 AM,12:00 AM - 12:00 AM,12:00 AM - 12:00 AM,12:00 AM - 12:00 AM,PST,Factual,http://www.freshandeasy.com/
,Fresh & Easy,2120 Park Pl,,CA,90245,33.904849,-118.387012,(310) 341-1200,10:00 AM - 9:00 PM,9:00 AM - 9:00 PM,9:00 AM - 9:00 PM,8:00 AM - 10:00 PM,8:00 AM - 9:00 PM,10:00 AM - 9:00 PM,10:00 AM - 9:00 PM,PST,Factual,http://www.freshandeasy.com/
,Fresh & Easy,2121 W Main St,,CA,91801,34.092244,-118.145871,(626) 284-1445,6:00 AM - 11:59 PM,6:00 AM - 11:59 PM,6:00 AM - 11:59 PM,6:00 AM - 11:59 PM,6:00 AM - 11:59 PM,6:00 AM - 11:59 PM,6:00 AM - 11:59 PM,PST,Factual,http://www.freshandeasy.com
,Fresh & Easy,21580 Valley Blvd,,CA,91789,34.026373,-117.835661,(909) 595-2643,12:00 AM - 12:00 AM,12:00 AM - 12:00 AM,12:00 AM - 12:00 AM,12:00 AM - 12:00 AM,12:00 AM - 12:00 AM,12:00 AM - 12:00 AM,12:00 AM - 12:00 AM,PST,Factual,http://www.freshandeasy.com
,Fresh & Easy,21815 Hawthorne Blvd,Torrance,CA,90503,33.830212,-118.352685,(310) 370-7942,7:00 AM - 10:00 PM,7:00 AM - 10:00 PM,7:00 AM - 10:00 PM,7:00 AM - 10:00 PM,7:00 AM - 10:00 PM,7:00 AM - 10:00 PM,7:00 AM - 10:00 PM,PST,Factual,http://www.freshandeasy.com/
,Fresh & Easy,2201 Palos Verdes Dr W,,CA,90274,33.775838,-118.417726,(310) 377-0294,6:00 AM - 10:00 PM,6:00 AM - 10:00 PM,6:00 AM - 10:00 PM,6:00 AM - 10:00 PM,6:00 AM - 10:00 PM,6:00 AM - 10:00 PM,6:00 AM - 10:00 PM,PST,Factual,http://www.freshandeasy.com
,Fresh & Easy,2215 Huntington Dr,,CA,91010,34.140021,-117.957042,(626) 303-5170,6:00 AM - 11:59 PM,6:00 AM - 11:59 PM,6:00 AM - 11:59 PM,6:00 AM - 11:59 PM,6:00 AM - 11:59 PM,6:00 AM - 11:59 PM,6:00 AM - 11:59 PM,PST,Factual,http://www.freshandeasy.com
,Fresh & Easy,2340 S Azusa Ave,,CA,91792,34.029514,-117.915113,(626) 839-3427,12:00 AM - 12:00 AM,12:00 AM - 12:00 AM,12:00 AM - 12:00 AM,12:00 AM - 12:00 AM,12:00 AM - 12:00 AM,12:00 AM - 12:00 AM,12:00 AM - 12:00 AM,PST,Factual,http://www.freshandeasy.com
,Fresh & Easy,2475 Cherry Ave,,CA,90755,33.80217,-118.167951,(562) 426-9501,12:00 AM - 11:59 PM,12:00 AM - 11:59 PM,12:00 AM - 11:59 PM,12:00 AM - 11:59 PM,12:00 AM - 11:59 PM,12:00 AM - 11:59 PM,12:00 AM - 11:59 PM,PST,Factual,http://www.freshandeasy.com/
,Fresh & Easy,2484 W Victory Blvd,,CA,91506,34.184367,-118.338216,(818) 567-2168,6:00 AM - 11:59 PM,6:00 AM - 11:59 PM,6:00 AM - 11:59 PM,6:00 AM - 11:59 PM,6:00 AM - 11:59 PM,6:00 AM - 11:59 PM,6:00 AM - 11:59 PM,PST,Factual,http://www.freshandeasy.com
,Fresh & Easy,26640 Western Ave,,CA,90710,33.77987,-118.309088,(310) 325-1546,7:00 AM - 10:00 PM,7:00 AM - 10:00 PM,7:00 AM - 10:00 PM,7:00 AM - 10:00 PM,7:00 AM - 10:00 PM,7:00 AM - 10:00 PM,7:00 AM - 10:00 PM,PST,Factual,http://www.freshandeasy.com
,Fresh & Easy,3300 Atlantic Ave,Long Beach,CA,90807,33.817664,-118.184652,(562) 595-9364,6:00 AM - 11:59 PM,6:00 AM - 11:59 PM,6:00 AM - 11:59 PM,6:00 AM - 11:59 PM,6:00 AM - 11:59 PM,6:00 AM - 11:59 PM,6:00 AM - 11:59 PM,PST,Factual,http://www.freshandeasy.com/
,Fresh & Easy,3335 S Figueroa St,,CA,90007,34.02282,-118.279938,(213) 742-9953,12:00 AM - 12:00 AM,12:00 AM - 12:00 AM,12:00 AM - 12:00 AM,12:00 AM - 12:00 AM,12:00 AM - 12:00 AM,12:00 AM - 12:00 AM,12:00 AM - 12:00 AM,PST,Factual,http://www.freshandeasy.com/
,Fresh & Easy,4211 Eagle Rock Blvd,,CA,90065,34.122779,-118.22509,(323) 255-1113,6:00 AM - 11:59 PM,6:00 AM - 11:59 PM,6:00 AM - 11:59 PM,6:00 AM - 11:59 PM,6:00 AM - 11:59 PM,6:00 AM - 11:59 PM,6:00 AM - 11:59 PM,PST,Factual,http://www.freshandeasy.com/
,Fresh & Easy,450 The Promenade N,,CA,90802,33.772347,-118.190402,(562) 901-4571,12:00 AM - 11:59 PM,12:00 AM - 11:59 PM,12:00 AM - 11:59 PM,12:00 AM - 11:59 PM,12:00 AM - 11:59 PM,12:00 AM - 11:59 PM,12:00 AM - 11:59 PM,PST,Factual,http://www.freshandeasy.com/
,Fresh & Easy,4930 Paramount Blvd,,CA,90712,33.847828,-118.159537,(562) 633-1160,12:00 AM - 11:59 PM,12:00 AM - 11:59 PM,12:00 AM - 11:59 PM,12:00 AM - 11:59 PM,12:00 AM - 11:59 PM,12:00 AM - 11:59 PM,12:00 AM - 11:59 PM,PST,Factual,http://www.freshandeasy.com
,Fresh & Easy,603 S Gaffey St,,CA,90731,33.738625,-118.29251,(310) 831-3502,6:00 AM - 11:00 PM,6:00 AM - 11:00 PM,6:00 AM - 11:00 PM,6:00 AM - 11:00 PM,6:00 AM - 11:00 PM,6:00 AM - 11:00 PM,6:00 AM - 11:00 PM,PST,Factual,http://www.freshandeasy.com/
,Fresh & Easy,6350 Foothill Blvd,,CA,91042,34.242437,-118.269903,(818) 352-8930,6:00 AM - 11:59 PM,6:00 AM - 11:59 PM,6:00 AM - 11:59 PM,6:00 AM - 11:59 PM,6:00 AM - 11:59 PM,6:00 AM - 11:59 PM,6:00 AM - 11:59 PM,PST,Factual,http://www.freshandeasy.com
,Fresh & Easy,6436 E Spring St,,CA,90815,33.810201,-118.106903,(562) 420-3728,6:00 AM - 11:59 PM,6:00 AM - 11:59 PM,6:00 AM - 11:59 PM,6:00 AM - 11:59 PM,6:00 AM - 11:59 PM,6:00 AM - 11:59 PM,6:00 AM - 11:59 PM,PST,Factual,http://www.freshandeasy.com
,Fresh & Easy,685 E Bonita Ave,,CA,91773,34.106792,-117.794739,(909) 592-5287,7:00 AM - 11:59 PM,7:00 AM - 11:59 PM,7:00 AM - 11:59 PM,7:00 AM - 11:59 PM,7:00 AM - 11:59 PM,7:00 AM - 11:59 PM,7:00 AM - 11:59 PM,PST,Factual,http://freshandeasy.com
,Fresh & Easy,7021 Hollywood Blvd,Los Angeles,CA,90028,34.101946,-118.342753,(323) 466-0097,8:00 AM - 10:00 PM,8:00 AM - 10:00 PM,8:00 AM - 10:00 PM,8:00 AM - 10:00 PM,8:00 AM - 10:00 PM,8:00 AM - 10:00 PM,8:00 AM - 10:00 PM,PST,Factual,http://www.freshandeasy.com
,Fresh & Easy,727 Pacific Coast Hwy,,CA,90254,33.860521,-118.39206,(310) 372-7965,6:00 AM - 10:00 PM,6:00 AM - 10:00 PM,6:00 AM - 10:00 PM,6:00 AM - 10:00 PM,6:00 AM - 10:00 PM,6:00 AM - 10:00 PM,6:00 AM - 10:00 PM,PST,Factual,http://www.freshandeasy.com/
,Fresh & Easy,7600 S Alameda St,,CA,90255,33.971775,-118.233976,(323) 581-4613,12:00 AM - 11:59 PM,12:00 AM - 11:59 PM,12:00 AM - 11:59 PM,12:00 AM - 11:59 PM,12:00 AM - 11:59 PM,12:00 AM - 11:59 PM,12:00 AM - 11:59 PM,PST,Factual,http://www.freshandeasy.com
,Fresh & Easy,8320 Firestone Blvd,,CA,90241,33.939296,-118.133152,(562) 862-5414,12:00 AM - 12:00 AM,12:00 AM - 12:00 AM,12:00 AM - 12:00 AM,12:00 AM - 12:00 AM,12:00 AM - 12:00 AM,12:00 AM - 12:00 AM,12:00 AM - 12:00 AM,PST,Factual,http://www.freshandeasy.com
,Fresh & Easy,8921 Washington Blvd,Pico Rivera,CA,90660,33.983967,-118.098159,(562) 942-1782,12:00 AM - 12:00 AM,12:00 AM - 12:00 AM,12:00 AM - 12:00 AM,12:00 AM - 12:00 AM,12:00 AM - 12:00 AM,12:00 AM - 12:00 AM,12:00 AM - 12:00 AM,PST,Factual,http://www.freshandeasy.com
,Fresh & Easy,9026 Valley Blvd,,CA,91770,34.080722,-118.072129,(626) 569-0954,6:00 AM - 11:59 PM,6:00 AM - 11:59 PM,6:00 AM - 11:59 PM,6:00 AM - 11:59 PM,6:00 AM - 11:59 PM,6:00 AM - 11:59 PM,6:00 AM - 11:59 PM,PST,Factual,http://www.freshandeasy.com
,Fresh & Easy,9937 Walker St,,CA,90630,33.817736,-118.036711,(714) 952-1840,,,,,,,,PST,Factual,http://freshandeasy.com/
,Gelson's,10250 Santa Monica Blvd,Los Angeles,CA,90067,34.057638,-118.418296,(310) 277-4288,7:00 AM - 11:00 PM,7:00 AM - 11:00 PM,7:00 AM - 11:00 PM,7:00 AM - 11:00 PM,7:00 AM - 11:00 PM,7:00 AM - 11:00 PM,7:00 AM - 11:00 PM,PST,Factual,http://gelsons.com
,Gelson's,13455 Maxella Ave,Marina Del Rey,CA,90292,33.987509,-118.441238,(310) 306-2952,7:00 AM - 10:00 PM,7:00 AM - 10:00 PM,7:00 AM - 10:00 PM,7:00 AM - 10:00 PM,7:00 AM - 10:00 PM,7:00 AM - 10:00 PM,7:00 AM - 10:00 PM,PST,Factual,http://gelsons.com/store-locations/marina-del-rey
,Gelson's,13833 Freeway Dr,,CA,90670,33.888767,-118.036705,(562) 404-1594,,,,,,,,PST,Factual,
,Gelson's,15424 Sunset Blvd,Pacific Palisades,CA,90272,34.04769,-118.528,(310) 459-4483,7:00 AM to 10:00 PM,7:00 AM to 10:00 PM,7:00 AM to 10:00 PM,7:00 AM to 10:00 PM,7:00 AM to 10:00 PM,7:00 AM to 10:00 PM,7:00 AM to 10:00 PM,PST,Yelp,https://www.yelp.com/biz/gelsons-market-pacific-palisades-2
,Gelson's,15424 W Sunset Blvd,,CA,90272,34.048013,-118.527967,(310) 459-4483,7:00 AM - 10:00 PM,7:00 AM - 10:00 PM,7:00 AM - 10:00 PM,7:00 AM - 10:00 PM,7:00 AM - 10:00 PM,7:00 AM - 10:00 PM,7:00 AM - 10:00 PM,PST,Factual,http://gelsons.com/store-locations/pacific-palisades
,Gelson's,16450 Ventura Blvd,Encino,CA,91436,34.156939,-118.491863,(818) 906-5780,7:00 AM - 10:00 PM,7:00 AM - 10:00 PM,7:00 AM - 10:00 PM,7:00 AM - 10:00 PM,7:00 AM - 10:00 PM,7:00 AM - 10:00 PM,7:00 AM - 10:00 PM,PST,Factual,http://gelsons.com/store-locations/encino
,Gelson's,1930 Century Park W,,CA,90067,34.057716,-118.418943,(310) 277-4288,9:00 AM - 9:00 PM,9:00 AM - 9:00 PM,9:00 AM - 9:00 PM,9:00 AM - 9:00 PM,9:00 AM - 9:00 PM,9:00 AM - 9:00 PM,9:00 AM - 9:00 PM,PST,Factual,http://www.gelsons.com/
,Gelson's,2020 S Central Ave,,CA,90220,33.882297,-118.248835,(310) 638-2842,,,,,,,,PST,Factual,http://www.gelsons.com
,Gelson's,22277 Mulholland Hwy,Calabasas,CA,91302,34.147142,-118.612907,(818) 906-6228,7:00 AM - 10:00 PM,7:00 AM - 10:00 PM,7:00 AM - 10:00 PM,7:00 AM - 10:00 PM,7:00 AM - 10:00 PM,7:00 AM - 10:00 PM,7:00 AM - 10:00 PM,PST,Factual,http://gelsons.com/store-locations/calabasas
,Gelson's,245 E Green St,,CA,91101,34.144659,-118.145158,(626) 535-0190,,,,,,,,PST,Factual,http://www.gelsons.com
,Gelson's,2725 Hyperion Ave,Los Angeles,CA,90027,34.107961,-118.272572,(323) 660-0387,7:00 AM - 11:59 PM,7:00 AM - 11:59 PM,7:00 AM - 11:59 PM,7:00 AM - 11:59 PM,7:00 AM - 11:59 PM,7:00 AM - 11:59 PM,7:00 AM - 11:59 PM,PST,Factual,http://gelsons.com
,Gelson's,2734 Townsgate Rd,Westlake Village,CA,91361,34.15269,-118.825229,(805) 496-0353,7:00 AM - 10:00 PM,7:00 AM - 10:00 PM,7:00 AM - 10:00 PM,7:00 AM - 10:00 PM,7:00 AM - 10:00 PM,7:00 AM - 10:00 PM,7:00 AM - 10:00 PM,PST,Factual,http://gelsons.com/store-locations/westlake-village
,Gelson's,4520 Van Nuys Blvd,Sherman Oaks,CA,91403,34.153895,-118.447801,(818) 377-4140,7:00 AM - 11:00 PM,7:00 AM - 11:00 PM,7:00 AM - 11:00 PM,7:00 AM - 11:00 PM,7:00 AM - 11:00 PM,7:00 AM - 11:00 PM,7:00 AM - 11:00 PM,PST,Factual,http://gelsons.com/store-locations/sherman-oaks
,Gelson's,4738 Laurel Canyon Blvd,Valley Village,CA,91607,34.156534,-118.396135,(818) 906-5743,7:00 AM - 11:00 PM,7:00 AM - 11:00 PM,7:00 AM - 11:00 PM,7:00 AM - 11:00 PM,7:00 AM - 11:00 PM,7:00 AM - 11:00 PM,7:00 AM - 11:00 PM,PST,Factual,http://gelsons.com/store-locations/valley-village/noho
,Gelson's,5500 Reseda Blvd,Tarzana,CA,91356,34.170372,-118.535148,(818) 906-5752,7:00 AM - 10:00 PM,7:00 AM - 10:00 PM,7:00 AM - 10:00 PM,7:00 AM - 10:00 PM,7:00 AM - 10:00 PM,7:00 AM - 10:00 PM,7:00 AM - 10:00 PM,PST,Factual,http://gelsons.com/store-locations/tarzana
,Gelson's,5500 Reseda Blvd,Tarzana,CA,91356,34.17012,-118.536,(818) 906-5752,7:00 AM to 10:00 PM,7:00 AM to 10:00 PM,7:00 AM to 10:00 PM,7:00 AM to 10:00 PM,7:00 AM to 10:00 PM,7:00 AM to 10:00 PM,7:00 AM to 10:00 PM,PST,Yelp,https://www.yelp.com/biz/gelsons-market-tarzana
,Gelson's,6255 E 2nd St,Long Beach,CA,90803,33.7584,-118.112941,(562) 430-6042,7:00 AM - 10:00 PM,7:00 AM - 10:00 PM,7:00 AM - 10:00 PM,7:00 AM - 10:00 PM,7:00 AM - 10:00 PM,7:00 AM - 10:00 PM,7:00 AM - 10:00 PM,PST,Factual,http://gelsons.com/store-locations/long-beach
,Gelson's,635 Foothill Blvd,La Canada Flintridge,CA,91011,34.201948,-118.192497,(818) 790-0563,7:00 AM - 10:00 PM,7:00 AM - 10:00 PM,7:00 AM - 10:00 PM,7:00 AM - 10:00 PM,7:00 AM - 10:00 PM,7:00 AM - 10:00 PM,7:00 AM - 10:00 PM,PST,Factual,http://gelsons.com
,Gelson's,707 N Sepulveda Blvd,,CA,90266,33.88324,-118.396584,(310) 807-3370,,,,,,,,PST,Factual,http://gelsonsmb.com
,Gelson's,8330 W Santa Monica Blvd,West Hollywood,CA,90069,34.090522,-118.371347,(323) 656-5580,7:00 AM - 11:59 PM,7:00 AM - 11:59 PM,7:00 AM - 11:59 PM,7:00 AM - 11:59 PM,7:00 AM - 11:59 PM,7:00 AM - 11:59 PM,7:00 AM - 11:59 PM,PST,Factual,http://gelsons.com/store-locations/west-hollywood
,Jons,12122 Magnolia Blvd,N Hollywood,CA,91607,34.164498,-118.397409,(818) 985-4780,7:00 AM - 11:00 PM,7:00 AM - 11:00 PM,7:00 AM - 11:00 PM,7:00 AM - 11:00 PM,7:00 AM - 11:00 PM,7:00 AM - 11:00 PM,7:00 AM - 11:00 PM,PST,Factual,http://www.jonsmarketplace.com/
,Jons,1234 N La Brea Ave,,CA,90038,34.093464,-118.343987,(323) 962-2429,,,,,,,,PST,Factual,http://www.jonsmarketplace.com
,Jons,1500 W 6Th St,,CA,90017,34.056343,-118.268402,(213) 483-5006,,,,,,,,PST,Factual,
,Jons,1601 N Vermont Ave,Los Angeles,CA,90027,34.10031,-118.293,(323) 660-0220,7:00 AM to 11:00 PM,7:00 AM to 11:00 PM,7:00 AM to 11:00 PM,7:00 AM to 11:00 PM,7:00 AM to 11:00 PM,7:00 AM to 11:00 PM,7:00 AM to 11:00 PM,PST,Yelp,https://www.yelp.com/biz/jons-marketplace-los-angeles
,Jons,1717 W Glenoaks Blvd,Glendale,CA,91201,34.171622,-118.290043,(818) 244-2575,7:00 AM - 11:00 PM,7:00 AM - 11:00 PM,7:00 AM - 11:00 PM,7:00 AM - 11:00 PM,7:00 AM - 11:00 PM,7:00 AM - 11:00 PM,7:00 AM - 11:00 PM,PST,Factual,http://www.jonsmarketplace.com/
,Jons,18135 Sherman Way,Los Angeles,CA,91335,34.201893,-118.52901,(818) 758-3422,7:00 AM - 11:00 PM,7:00 AM - 11:00 PM,7:00 AM - 11:00 PM,7:00 AM - 11:00 PM,7:00 AM - 11:00 PM,7:00 AM - 11:00 PM,7:00 AM - 11:00 PM,PST,Factual,http://www.jonsmarketplace.com/
,Jons,20151 Roscoe Blvd,Winnetka,CA,91306,34.220399,-118.572512,(818) 576-0477,7:00 AM - 11:00 PM,7:00 AM - 11:00 PM,7:00 AM - 11:00 PM,7:00 AM - 11:00 PM,7:00 AM - 11:00 PM,7:00 AM - 11:00 PM,7:00 AM - 11:00 PM,PST,Factual,http://www.jonsmarketplace.com
,Jons,3334 W 8Th St,Los Angeles,CA,90005,34.057532,-118.3014,(213) 383-6891,7:00 AM - 10:00 PM,7:00 AM - 10:00 PM,7:00 AM - 10:00 PM,7:00 AM - 10:00 PM,7:00 AM - 10:00 PM,7:00 AM - 9:30 PM,7:00 AM - 9:00 PM,PST,Factual,http://www.jonsmarketplace.com/
,Jons,3667 W 3Rd St,Los Angeles,CA,90020,34.069,-118.3,,,,,,,,,PST,LACity,
,Jons,4848 W 190Th St,Torrance,CA,90503,33.85772,-118.363,(424) 282-2034,7:00 AM to 11:00 PM,7:00 AM to 11:00 PM,7:00 AM to 11:00 PM,7:00 AM to 11:00 PM,7:00 AM to 11:00 PM,7:00 AM to 11:00 PM,7:00 AM to 11:00 PM,PST,Yelp,https://www.yelp.com/biz/jons-international-marketplace-torrance-3
,Jons,5311 Santa Monica Blvd,Los Angeles,CA,90029,34.0907,-118.31,(323) 461-9382,7:00 AM to 11:00 PM,7:00 AM to 11:00 PM,7:00 AM to 11:00 PM,7:00 AM to 11:00 PM,7:00 AM to 11:00 PM,7:00 AM to 11:00 PM,7:00 AM to 11:00 PM,PST,LACity,https://www.yelp.com/biz/jons-marketplace-los-angeles-3
,Jons,5315 Santa Monica Blvd,Los Angeles,CA,90029,34.091151,-118.305012,(323) 461-9382,7:00 AM - 11:00 PM,7:00 AM - 11:00 PM,7:00 AM - 11:00 PM,7:00 AM - 11:00 PM,7:00 AM - 11:00 PM,7:00 AM - 11:00 PM,7:00 AM - 11:00 PM,PST,Factual,http://www.jonsmarketplace.com
,Jons,600 E Colorado St,Glendale,CA,91205,34.142527,-118.248359,(818) 956-0999,11:00 AM - 2:00 PM,11:00 AM - 9:00 PM,8:00 AM - 9:00 AM,10:00 AM - 2:00 PM,7:00 AM - 8:00 AM,11:00 AM - 7:00 PM,11:00 AM - 10:00 PM,PST,Factual,http://www.jonsmarketplace.com/
,Jons,6099 Malburg Way,,CA,90058,33.985245,-118.205759,(323) 583-5118,,,,,,,,PST,Factual,
,Jons,6655 Van Nuys Blvd,Van Nuys,CA,91405,34.192232,-118.449549,(818) 781-1772,7:00 AM - 11:00 PM,7:00 AM - 11:00 PM,7:00 AM - 11:00 PM,7:00 AM - 11:00 PM,7:00 AM - 11:00 PM,7:00 AM - 11:00 PM,7:00 AM - 11:00 PM,PST,Factual,http://www.jonsmarketplace.com
,Jons,7134 Sepulveda Blvd,Van Nuys,CA,91405,34.19987,-118.466,(818) 455-4020,7:00 AM to 11:00 PM,7:00 AM to 11:00 PM,7:00 AM to 11:00 PM,7:00 AM to 11:00 PM,7:00 AM to 11:00 PM,7:00 AM to 11:00 PM,7:00 AM to 11:00 PM,PST,Yelp,https://www.yelp.com/biz/jons-marketplace-van-nuys-3
,Northgate Gonzalez Market,10801 Prairie Ave,Inglewood,CA,90303,33.93768,-118.345,(310) 419-4091,6:00 AM to 10:00 PM,6:00 AM to 10:00 PM,6:00 AM to 10:00 PM,6:00 AM to 10:00 PM,6:00 AM to 10:00 PM,6:00 AM to 10:00 PM,6:00 AM to 10:00 PM,PST,Yelp,https://www.yelp.com/biz/northgate-gonzalez-markets-inglewood
,Northgate Gonzalez Market,11660 Firestone Blvd,,CA,90650,33.913377,-118.084396,(562) 863-8203,6:00 AM - 10:30 PM,6:00 AM - 10:30 PM,6:00 AM - 10:30 PM,6:00 AM - 10:30 PM,6:00 AM - 10:30 PM,6:00 AM - 10:30 PM,6:00 AM - 10:30 PM,PST,Factual,http://www.northgatemarkets.com/
,Northgate Gonzalez Market,1320 W Francisquito Ave,West Covina,CA,91790,34.053003,-117.954059,(626) 919-5183,6:00 AM - 11:00 PM,6:00 AM - 11:00 PM,6:00 AM - 11:00 PM,6:00 AM - 11:00 PM,6:00 AM - 11:00 PM,6:00 AM - 11:00 PM,6:00 AM - 11:00 PM,PST,Factual,http://www.northgatemarkets.com
,Northgate Gonzalez Market,1425 N Hacienda Blvd,,CA,91744,34.046442,-117.948513,(626) 919-5183,,,,,,,,PST,Factual,
,Northgate Gonzalez Market,15107 S Atlantic Ave,Compton,CA,90221,33.896107,-118.19352,,,,,,,,,,LACounty,
,Northgate Gonzalez Market,16259 Paramount Blvd,Paramount,CA,90723,33.886613,-118.160793,(562) 259-9950,6:00 AM - 11:00 PM,6:00 AM - 11:00 PM,6:00 AM - 11:00 PM,6:00 AM - 11:00 PM,6:00 AM - 11:00 PM,6:00 AM - 11:00 PM,6:00 AM - 11:00 PM,PST,Factual,http://www.northgatemarkets.com
,Northgate Gonzalez Market,2038 E 10Th St,Long Beach,CA,90804,33.77899,-118.167,(562) 438-1062,7:00 AM to 10:00 PM,7:00 AM to 10:00 PM,7:00 AM to 10:00 PM,7:00 AM to 10:00 PM,7:00 AM to 10:00 PM,7:00 AM to 10:00 PM,7:00 AM to 10:00 PM,PST,Yelp,https://www.yelp.com/biz/northgate-gonzalez-markets-long-beach-4
,Northgate Gonzalez Market,2120 Pacific Ave,Long Beach,CA,90806,33.795871,-118.193324,(562) 599-5075,6:00 AM - 10:00 PM,6:00 AM - 10:00 PM,6:00 AM - 10:00 PM,6:00 AM - 10:00 PM,6:00 AM - 10:00 PM,6:00 AM - 10:00 PM,6:00 AM - 10:00 PM,PST,Factual,http://www.northgatemarkets.com/
,Northgate Gonzalez Market,2323 W Olympic Blvd,Los Angeles,CA,90006,34.052471,-118.282515,(213) 249-9173,6:00 AM - 11:00 PM,6:00 AM - 11:00 PM,6:00 AM - 11:00 PM,6:00 AM - 11:00 PM,6:00 AM - 11:00 PM,6:00 AM - 11:00 PM,6:00 AM - 11:00 PM,PST,Factual,http://www.northgatemarkets.com/
,Northgate Gonzalez Market,2633 Santa Ana St,Southgate,CA,90280,33.964734,-118.224032,(323) 277-3000,6:00 AM - 11:00 PM,6:00 AM - 11:00 PM,6:00 AM - 11:00 PM,6:00 AM - 11:00 PM,6:00 AM - 11:00 PM,6:00 AM - 11:00 PM,6:00 AM - 11:00 PM,PST,Factual,http://www.northgatemarkets.com/
,Northgate Gonzalez Market,307 W Pacific Coast Hwy,Wilmington,CA,90744,33.791027,-118.26636,,,,,,,,,,LACounty,
,Northgate Gonzalez Market,311 W Pacific Coast Hwy,Wilmington,CA,90744,33.791744,-118.266296,(310) 549-7389,6:00 AM - 10:00 PM,6:00 AM - 10:00 PM,6:00 AM - 10:00 PM,6:00 AM - 10:00 PM,6:00 AM - 10:00 PM,6:00 AM - 10:00 PM,6:00 AM - 10:00 PM,PST,Factual,http://www.northgatemarkets.com/
,Northgate Gonzalez Market,3828 Peck Rd,,CA,91732,34.075034,-118.021082,(626) 442-8200,6:00 AM - 10:00 PM,6:00 AM - 10:00 PM,6:00 AM - 10:00 PM,6:00 AM - 10:00 PM,6:00 AM - 10:00 PM,6:00 AM - 10:00 PM,6:00 AM - 10:00 PM,PST,Factual,http://www.northgatemarkets.com/
,Northgate Gonzalez Market,3930 W Rosecrans Ave,Hawthorne,CA,90250,33.90036,-118.343,(310) 973-1079,6:00 AM to 10:30 PM,6:00 AM to 10:30 PM,6:00 AM to 10:30 PM,6:00 AM to 10:30 PM,6:00 AM to 10:30 PM,6:00 AM to 10:30 PM,6:00 AM to 10:30 PM,PST,Yelp,https://www.yelp.com/biz/northgate-gonzalez-markets-hawthorne
,Northgate Gonzalez Market,425 S Soto St,Los Angeles,CA,90033,34.040185,-118.212898,(323) 262-0595,6:00 AM - 11:00 PM,6:00 AM - 11:00 PM,6:00 AM - 11:00 PM,6:00 AM - 11:00 PM,6:00 AM - 11:00 PM,6:00 AM - 11:00 PM,6:00 AM - 11:00 PM,PST,Factual,http://www.northgatemarkets.com/
,Northgate Gonzalez Market,4700 Cherry Ave,Long Beach,CA,90807,33.84475,-118.167,(562) 423-1300,6:00 AM to 10:30 PM,6:00 AM to 10:30 PM,6:00 AM to 10:30 PM,6:00 AM to 10:30 PM,6:00 AM to 10:30 PM,6:00 AM to 10:30 PM,6:00 AM to 10:30 PM,PST,Yelp,https://www.yelp.com/biz/northgate-gonzalez-markets-long-beach-3
,Northgate Gonzalez Market,4700 Inglewood Blvd,Culver City,CA,90230,33.99349,-118.414946,(310) 390-9639,6:00 AM - 10:00 PM,6:00 AM - 10:00 PM,6:00 AM - 10:00 PM,6:00 AM - 10:00 PM,6:00 AM - 10:00 PM,6:00 AM - 10:00 PM,6:00 AM - 10:00 PM,PST,Factual,http://www.northgatemarkets.com
,Northgate Gonzalez Market,4700 Inglewood Blvd,,CA,90230,33.99349,-118.414946,(310) 390-9639,6:00 AM - 10:00 PM,6:00 AM - 10:00 PM,6:00 AM - 10:00 PM,6:00 AM - 10:00 PM,6:00 AM - 10:00 PM,6:00 AM - 10:00 PM,6:00 AM - 10:00 PM,PST,Factual,http://www.northgatemarkets.com
,Northgate Gonzalez Market,580 W La Habra Blvd,La Habra,CA,90631,33.93135,-117.952,(562) 691-8032,6:30 AM to 10:30 PM,6:30 AM to 10:30 PM,6:30 AM to 10:30 PM,6:30 AM to 10:30 PM,6:30 AM to 10:30 PM,6:30 AM to 10:30 PM,6:30 AM to 10:30 PM,PST,Yelp,https://www.yelp.com/biz/northgate-gonzalez-markets-la-habra
,Northgate Gonzalez Market,6801 Atlantic Ave,,CA,90201,33.974098,-118.188008,(323) 562-2188,6:00 AM - 11:00 PM,6:00 AM - 11:00 PM,6:00 AM - 11:00 PM,6:00 AM - 11:00 PM,6:00 AM - 11:00 PM,6:00 AM - 11:00 PM,6:00 AM - 11:00 PM,PST,Factual,http://www.northgatemarkets.com
,Northgate Gonzalez Market,831 N Hacienda Blvd,La Puente,CA,91744,34.034285,-117.950113,(626) 435-1440,6:00 AM - 10:00 PM,6:00 AM - 10:00 PM,6:00 AM - 10:00 PM,6:00 AM - 10:00 PM,6:00 AM - 10:00 PM,6:00 AM - 10:00 PM,6:00 AM - 10:00 PM,PST,Factual,http://www.northgatemarkets.com/
,Northgate Gonzalez Market,9101 Telegraph Rd,Pico Rivera,CA,90660,33.96011,-118.107737,(562) 949-6143,6:00 AM - 10:00 PM,6:00 AM - 10:00 PM,6:00 AM - 10:00 PM,6:00 AM - 10:00 PM,6:00 AM - 10:00 PM,6:00 AM - 10:00 PM,6:00 AM - 10:00 PM,PST,Factual,http://www.northgatemarkets.com
,Northgate Gonzalez Market,944 E Slauson Ave,Los Angeles,CA,90011,33.988903,-118.258325,(323) 846-8804,6:00 AM - 10:00 PM,6:00 AM - 10:00 PM,6:00 AM - 10:00 PM,6:00 AM - 10:00 PM,6:00 AM - 10:00 PM,6:00 AM - 10:00 PM,6:00 AM - 10:00 PM,PST,Factual,http://www.northgatemarkets.com
,Ralphs,10900 Magnolia Blvd,North Hollywood,CA,91601,34.164353,-118.36782,(818) 760-4148,12:00 AM - 1:00 AM,12:00 AM - 1:00 AM,12:00 AM - 1:00 AM,12:00 AM - 1:00 AM,12:00 AM - 1:00 AM,12:00 AM - 1:00 AM,12:00 AM - 1:00 AM,PST,Factual,http://www.ralphs.com/
,Ralphs,10901 Ventura Blvd,Studio City,CA,91604,34.140093,-118.367857,(818) 760-7008,12:00 AM - 12:00 AM,12:00 AM - 12:00 AM,12:00 AM - 12:00 AM,12:00 AM - 12:00 AM,12:00 AM - 12:00 AM,12:00 AM - 12:00 AM,12:00 AM - 12:00 AM,PST,Factual,http://www.ralphs.com/
,Ralphs,1100 N San Fernando Blvd,Burbank,CA,91504,34.189009,-118.318217,(818) 845-6424,5:00 AM - 11:59 PM,12:00 AM - 1:00 AM,12:00 AM - 1:00 AM,12:00 AM - 1:00 AM,12:00 AM - 1:00 AM,12:00 AM - 1:00 AM,12:00 AM - 1:00 AM,PST,Factual,http://www.ralphs.com/
,Ralphs,1100 Pacific Coast Hwy,,CA,90254,33.863975,-118.391728,(310) 798-6800,12:00 AM - 11:59 PM,12:00 AM - 11:59 PM,12:00 AM - 11:59 PM,12:00 AM - 11:59 PM,12:00 AM - 11:59 PM,12:00 AM - 11:59 PM,12:00 AM - 11:59 PM,PST,Factual,http://www.ralphs.com/
,Ralphs,1100 W Artesia Blvd,Compton,CA,90220,33.87255,-118.241,(310) 884-9000,,,,,,,,PST,Yelp,https://www.yelp.com/biz/ralphs-compton
,Ralphs,1101 W Huntington Dr,,CA,91007,34.131629,-118.065758,(626) 447-3548,12:00 AM - 1:00 AM,12:00 AM - 1:00 AM,12:00 AM - 1:00 AM,12:00 AM - 1:00 AM,12:00 AM - 1:00 AM,12:00 AM - 1:00 AM,12:00 AM - 1:00 AM,PST,Factual,http://www.ralphs.com/
,Ralphs,1121 Harbor Blvd,Fullerton,CA,92832,33.88112,-117.925,(714) 992-2590,,,,,,,,PST,Yelp,https://www.yelp.com/biz/ralphs-fullerton
,Ralphs,11361 National Blvd,Los Angeles,CA,90064,34.026,-118.433433,(310) 479-4351,12:00 AM - 2:00 AM,12:00 AM - 2:00 AM,12:00 AM - 2:00 AM,12:00 AM - 2:00 AM,12:00 AM - 2:00 AM,12:00 AM - 2:00 AM,12:00 AM - 2:00 AM,PST,Factual,http://www.ralphs.com/
,Ralphs,11727 W Olympic Blvd,Los Angeles,CA,90064,34.034944,-118.449266,(310) 473-5238,12:00 AM - 11:59 PM,12:00 AM - 11:59 PM,12:00 AM - 11:59 PM,12:00 AM - 11:59 PM,12:00 AM - 11:59 PM,12:00 AM - 11:59 PM,12:00 AM - 11:59 PM,PST,Factual,http://www.ralphs.com/
,Ralphs,11825 Whittier Blvd,Whittier,CA,90601,33.982095,-118.049576,(562) 692-4565,12:00 AM - 1:00 AM,12:00 AM - 1:00 AM,12:00 AM - 1:00 AM,12:00 AM - 1:00 AM,12:00 AM - 1:00 AM,12:00 AM - 1:00 AM,12:00 AM - 1:00 AM,PST,Factual,http://www.ralphs.com/
,Ralphs,11870 Roscoe Blvd,Sun Valley,CA,91352,34.2216,-118.39,,,,,,,,,PST,LACity,
,Ralphs,11922 S Vermont Ave,Los Angeles,CA,90044,33.925029,-118.291019,(323) 757-4147,6:00 AM - 11:00 PM,6:00 AM - 11:00 PM,6:00 AM - 11:00 PM,6:00 AM - 11:00 PM,6:00 AM - 11:00 PM,6:00 AM - 11:00 PM,6:00 AM - 11:00 PM,PST,Factual,http://www.ralphs.com/
,Ralphs,1200 N Central Ave,Glendale,CA,91202,34.164426,-118.256305,(818) 246-1752,12:00 AM - 1:00 AM,12:00 AM - 1:00 AM,12:00 AM - 1:00 AM,12:00 AM - 1:00 AM,12:00 AM - 1:00 AM,12:00 AM - 1:00 AM,12:00 AM - 1:00 AM,PST,Factual,http://www.ralphs.com/
,Ralphs,12057 Wilshire Blvd,Los Angeles,CA,90025,34.044967,-118.467009,(310) 477-8746,12:00 AM - 2:00 AM,12:00 AM - 2:00 AM,12:00 AM - 2:00 AM,12:00 AM - 2:00 AM,12:00 AM - 2:00 AM,12:00 AM - 2:00 AM,12:00 AM - 2:00 AM,PST,Factual,http://www.ralphs.com/
,Ralphs,1233 N La Brea Ave,Los Angeles,CA,90038,34.093486,-118.344628,(323) 876-8790,12:00 AM - 2:00 AM,12:00 AM - 2:00 AM,12:00 AM - 2:00 AM,12:00 AM - 2:00 AM,12:00 AM - 2:00 AM,12:00 AM - 2:00 AM,12:00 AM - 2:00 AM,PST,Factual,http://www.ralphs.com/
,Ralphs,12842 Ventura Blvd,Studio City,CA,91604,34.144125,-118.413163,(818) 761-6196,12:00 AM - 1:00 AM,12:00 AM - 1:00 AM,12:00 AM - 1:00 AM,12:00 AM - 1:00 AM,12:00 AM - 1:00 AM,12:00 AM - 1:00 AM,12:00 AM - 1:00 AM,PST,Factual,http://www.ralphs.com/
,Ralphs,12921 Magnolia Blvd,Van Nuys,CA,91423,34.165646,-118.414477,(818) 986-2293,12:00 AM - 2:00 AM,12:00 AM - 2:00 AM,12:00 AM - 2:00 AM,12:00 AM - 2:00 AM,12:00 AM - 2:00 AM,12:00 AM - 2:00 AM,12:00 AM - 2:00 AM,PST,Factual,http://www.ralphs.com/
,Ralphs,13321 South St,Cerritos,CA,90703,33.859188,-118.047878,(562) 924-2838,6:00 AM - 11:59 PM,6:00 AM - 11:59 PM,6:00 AM - 11:59 PM,6:00 AM - 11:59 PM,6:00 AM - 11:59 PM,6:00 AM - 11:59 PM,6:00 AM - 11:59 PM,PST,Factual,http://www.ralphs.com/
,Ralphs,1403 W Adams Blvd,,CA,90007,34.03307,-118.291967,(310) 473-7538,,,,,,,,PST,Factual,
,Ralphs,14049 Ventura Blvd,Sherman Oaks,CA,91423,34.150054,-118.438907,(747) 233-6108,12:00 AM - 2:00 AM,12:00 AM - 2:00 AM,12:00 AM - 2:00 AM,12:00 AM - 2:00 AM,12:00 AM - 2:00 AM,12:00 AM - 2:00 AM,12:00 AM - 2:00 AM,PST,Factual,http://www.ralphs.com/
,Ralphs,1413 Hawthorne Blvd,Redondo Beach,CA,90278,33.866987,-118.353822,(310) 370-9446,6:00 AM - 11:59 PM,6:00 AM - 11:59 PM,6:00 AM - 11:59 PM,6:00 AM - 11:59 PM,6:00 AM - 11:59 PM,6:00 AM - 11:59 PM,6:00 AM - 11:59 PM,PST,Factual,http://www.ralphs.com/
,Ralphs,1416 E Colorado St,Glendale,CA,91205,34.141858,-118.233286,(818) 548-0945,12:00 AM - 1:00 AM,12:00 AM - 1:00 AM,12:00 AM - 1:00 AM,12:00 AM - 1:00 AM,12:00 AM - 1:00 AM,12:00 AM - 1:00 AM,12:00 AM - 1:00 AM,PST,Factual,http://www.ralphs.com/
,Ralphs,14440 Burbank Blvd,Sherman Oaks,CA,91401,34.171421,-118.447411,(818) 989-5640,12:00 AM - 12:00 AM,12:00 AM - 12:00 AM,12:00 AM - 12:00 AM,12:00 AM - 12:00 AM,12:00 AM - 12:00 AM,12:00 AM - 12:00 AM,12:00 AM - 12:00 AM,PST,Factual,http://www.ralphs.com/
,Ralphs,14919 Whittier Blvd,Whittier,CA,90605,33.949969,-118.007281,(562) 945-3779,6:00 AM - 11:59 PM,6:00 AM - 11:59 PM,6:00 AM - 11:59 PM,6:00 AM - 11:59 PM,6:00 AM - 11:59 PM,6:00 AM - 11:59 PM,6:00 AM - 11:59 PM,PST,Factual,http://www.ralphs.com/
,Ralphs,1500 N Moorpark Rd,Thousand Oaks,CA,91360,34.1983,-118.867,(805) 379-3100,,,,,,,,PST,Yelp,https://www.yelp.com/biz/ralphs-grocery-company-thousand-oaks
,Ralphs,15120 W Sunset Blvd,Pacific Palisades,CA,90272,34.045009,-118.524123,(310) 454-3001,12:00 AM - 2:00 AM,12:00 AM - 2:00 AM,12:00 AM - 2:00 AM,12:00 AM - 2:00 AM,12:00 AM - 2:00 AM,12:00 AM - 2:00 AM,12:00 AM - 2:00 AM,PST,Factual,http://www.ralphs.com/
,Ralphs,160 N Lake Ave,Pasadena,CA,91101,34.14896,-118.131261,(626) 793-7480,9:00 AM - 9:00 PM,9:00 AM - 9:00 PM,9:00 AM - 9:00 PM,9:00 AM - 9:00 PM,9:00 AM - 9:00 PM,10:00 AM - 5:30 PM,10:00 AM - 5:30 PM,PST,Factual,http://www.ralphs.com/
,Ralphs,16123 Bellflower Blvd,Bellflower,CA,90706,33.88766,-118.126391,(562) 925-5529,8:00 AM - 8:00 PM,8:00 AM - 8:00 PM,8:00 AM - 8:00 PM,8:00 AM - 8:00 PM,,,8:00 AM - 8:00 PM,PST,Factual,http://www.ralphs.com/
,Ralphs,16325 Ventura Blvd,Encino,CA,91436,34.157587,-118.489549,(818) 386-0118,12:00 AM - 1:00 AM,12:00 AM - 1:00 AM,12:00 AM - 1:00 AM,12:00 AM - 1:00 AM,12:00 AM - 1:00 AM,12:00 AM - 1:00 AM,12:00 AM - 1:00 AM,PST,Factual,http://www.ralphs.com/
,Ralphs,1644 Cloverfield Blvd,Santa Monica,CA,90404,34.027057,-118.473849,(310) 582-3900,12:00 AM - 1:00 AM,12:00 AM - 1:00 AM,12:00 AM - 1:00 AM,12:00 AM - 1:00 AM,12:00 AM - 1:00 AM,12:00 AM - 1:00 AM,12:00 AM - 1:00 AM,PST,Factual,http://www.ralphs.com/
,Ralphs,16940 Devonshire St,Granada Hills,CA,91344,34.256526,-118.501328,(818) 363-3173,#VALUE!,#VALUE!,#VALUE!,#VALUE!,#VALUE!,#VALUE!,#VALUE!,PST,Factual,http://www.ralphs.com/
,Ralphs,17250 Saticoy St,Van Nuys,CA,91406,34.206952,-118.508851,(818) 609-8425,#VALUE!,#VALUE!,#VALUE!,#VALUE!,#VALUE!,#VALUE!,#VALUE!,PST,Factual,http://www.ralphs.com/
,Ralphs,1745 Garfield Ave,South Pasadena,CA,91030,34.104961,-118.135196,(626) 403-0082,12:00 AM - 11:59 PM,12:00 AM - 11:59 PM,12:00 AM - 11:59 PM,12:00 AM - 11:59 PM,12:00 AM - 11:59 PM,12:00 AM - 11:59 PM,12:00 AM - 11:59 PM,PST,Factual,http://www.ralphs.com/
,Ralphs,17500 Crenshaw Blvd,Torrance,CA,90504,33.871876,-118.32568,(310) 327-3277,12:00 AM - 1:00 AM,12:00 AM - 1:00 AM,12:00 AM - 1:00 AM,12:00 AM - 1:00 AM,12:00 AM - 1:00 AM,12:00 AM - 1:00 AM,12:00 AM - 1:00 AM,PST,Factual,http://www.ralphs.com/
,Ralphs,1770 W Carson St,Torrance,CA,90501,33.830019,-118.311099,(310) 787-8786,6:00 AM - 11:59 PM,6:00 AM - 11:59 PM,6:00 AM - 11:59 PM,6:00 AM - 11:59 PM,6:00 AM - 11:59 PM,6:00 AM - 11:59 PM,6:00 AM - 11:59 PM,PST,Factual,http://www.ralphs.com/
,Ralphs,17840 Ventura Blvd,Encino,CA,91316,34.162581,-118.521439,(818) 345-6882,12:00 AM - 1:00 AM,12:00 AM - 1:00 AM,12:00 AM - 1:00 AM,12:00 AM - 1:00 AM,12:00 AM - 1:00 AM,12:00 AM - 1:00 AM,12:00 AM - 1:00 AM,PST,Factual,http://www.ralphs.com/
,Ralphs,18010 Chatsworth St,Granada Hills,CA,91344,34.263248,-118.524169,(818) 831-6556,12:00 AM - 1:00 AM,12:00 AM - 1:00 AM,12:00 AM - 1:00 AM,12:00 AM - 1:00 AM,12:00 AM - 1:00 AM,12:00 AM - 1:00 AM,12:00 AM - 1:00 AM,PST,Factual,http://www.ralphs.com/
,Ralphs,18318 Vanowen St,Reseda,CA,91335,34.19247,-118.532535,(818) 343-3492,8:00 AM - 8:00 PM,8:00 AM - 8:00 PM,8:00 AM - 8:00 PM,8:00 AM - 8:00 PM,,,8:00 AM - 8:00 PM,PST,Factual,http://www.ralphs.com/
,Ralphs,1930 N Lakewood Blvd,Long Beach,CA,90815,33.792145,-118.141393,(562) 494-4371,12:00 AM - 2:00 AM,12:00 AM - 2:00 AM,12:00 AM - 2:00 AM,12:00 AM - 2:00 AM,12:00 AM - 2:00 AM,12:00 AM - 2:00 AM,12:00 AM - 2:00 AM,PST,Factual,http://www.ralphs.com/
,Ralphs,19340 Soledad Canyon Rd,Canyon Cntry,CA,91351,34.414654,-118.473214,(661) 252-6226,6:00 AM - 11:59 PM,6:00 AM - 11:59 PM,6:00 AM - 11:59 PM,6:00 AM - 11:59 PM,6:00 AM - 11:59 PM,6:00 AM - 11:59 PM,6:00 AM - 11:59 PM,PST,Factual,http://www.ralphs.com/
,Ralphs,19781 Rinaldi St,Northridge,CA,91326,34.276242,-118.563629,(818) 832-5955,#VALUE!,#VALUE!,#VALUE!,#VALUE!,#VALUE!,#VALUE!,#VALUE!,PST,Factual,http://www.ralphs.com/
,Ralphs,20060 Ventura Blvd,Woodland Hills,CA,91364,34.170021,-118.570231,(818) 883-7552,#VALUE!,#VALUE!,#VALUE!,#VALUE!,#VALUE!,#VALUE!,#VALUE!,PST,Factual,http://www.ralphs.com/
,Ralphs,20137 Pioneer Blvd,,CA,90715,33.847072,-118.082848,(562) 860-5468,8:00 AM - 9:00 PM,8:00 AM - 9:00 PM,8:00 AM - 9:00 PM,8:00 AM - 9:00 PM,8:00 AM - 9:00 PM,10:00 AM - 5:30 PM,10:00 AM - 5:30 PM,PST,Factual,http://www.ralphs.com/
,Ralphs,211 E Foothill Blvd,Arcadia,CA,91006,34.151724,-118.024515,(626) 357-1942,12:00 AM - 1:00 AM,12:00 AM - 1:00 AM,12:00 AM - 1:00 AM,12:00 AM - 1:00 AM,12:00 AM - 1:00 AM,12:00 AM - 1:00 AM,12:00 AM - 1:00 AM,PST,Factual,http://www.ralphs.com/
,Ralphs,211 N Glendale Ave,Glendale,CA,91206,34.148454,-118.248423,(818) 549-0035,6:00 AM - 11:59 PM,6:00 AM - 11:59 PM,6:00 AM - 11:59 PM,6:00 AM - 11:59 PM,6:00 AM - 11:59 PM,6:00 AM - 11:59 PM,6:00 AM - 11:59 PM,PST,Factual,http://www.ralphs.com/
,Ralphs,21431 Devonshire St,Chatsworth,CA,91311,34.258115,-118.598391,(818) 341-0950,6:00 AM - 11:59 PM,6:00 AM - 11:59 PM,6:00 AM - 11:59 PM,6:00 AM - 11:59 PM,6:00 AM - 11:59 PM,6:00 AM - 11:59 PM,6:00 AM - 11:59 PM,PST,Factual,http://www.ralphs.com/
,Ralphs,21909 Ventura Blvd,Woodland Hills,CA,91364,34.169724,-118.604022,(818) 883-1907,#VALUE!,#VALUE!,#VALUE!,#VALUE!,#VALUE!,#VALUE!,#VALUE!,PST,Factual,http://www.ralphs.com/
,Ralphs,2201 W Redondo Beach Blvd,Gardena,CA,90247,33.88698,-118.318433,(310) 538-9008,#VALUE!,#VALUE!,#VALUE!,#VALUE!,#VALUE!,#VALUE!,#VALUE!,PST,Factual,http://www.ralphs.com/
,Ralphs,2230 S Atlantic Blvd,Monterey Park,CA,91754,34.037143,-118.1448,(323) 721-3367,12:00 AM - 1:00 AM,12:00 AM - 1:00 AM,12:00 AM - 1:00 AM,12:00 AM - 1:00 AM,12:00 AM - 1:00 AM,12:00 AM - 1:00 AM,12:00 AM - 1:00 AM,PST,Factual,http://www.ralphs.com/
,Ralphs,22333 Sherman Way,Canoga Park,CA,91303,34.201989,-118.613584,(818) 883-1230,12:00 AM - 1:00 AM,12:00 AM - 1:00 AM,12:00 AM - 1:00 AM,12:00 AM - 1:00 AM,12:00 AM - 1:00 AM,12:00 AM - 1:00 AM,12:00 AM - 1:00 AM,PST,Factual,http://www.ralphs.com/
,Ralphs,2250 E Carson St,Long Beach,CA,90807,33.830722,-118.165,(562) 424-2012,6:00 AM - 11:59 PM,#VALUE!,#VALUE!,#VALUE!,#VALUE!,#VALUE!,#VALUE!,PST,Factual,http://www.ralphs.com/
,Ralphs,2270 Lake Ave,Altadena,CA,91001,34.185106,-118.130915,(626) 794-1175,12:00 AM - 11:59 PM,12:00 AM - 11:59 PM,12:00 AM - 11:59 PM,12:00 AM - 11:59 PM,12:00 AM - 11:59 PM,12:00 AM - 11:59 PM,12:00 AM - 11:59 PM,PST,Factual,http://www.ralphs.com/
,Ralphs,22915 Victory Blvd,Canoga Park,CA,91307,34.187099,-118.626337,(818) 716-8199,12:00 AM - 1:00 AM,12:00 AM - 1:00 AM,12:00 AM - 1:00 AM,12:00 AM - 1:00 AM,12:00 AM - 1:00 AM,12:00 AM - 1:00 AM,12:00 AM - 1:00 AM,PST,Factual,http://www.ralphs.com/
,Ralphs,24975 Pico Canyon Rd,Stevenson Ranch,CA,91381,34.382487,-118.574293,(661) 253-0656,6:00 AM - 11:59 PM,6:00 AM - 11:59 PM,6:00 AM - 11:59 PM,6:00 AM - 11:59 PM,6:00 AM - 11:59 PM,6:00 AM - 11:59 PM,6:00 AM - 11:59 PM,PST,Factual,http://www.ralphs.com/
,Ralphs,25 E Alameda Ave,Burbank,CA,91502,34.17308,-118.302121,(818) 556-1558,12:00 AM - 1:00 AM,12:00 AM - 1:00 AM,12:00 AM - 1:00 AM,12:00 AM - 1:00 AM,12:00 AM - 1:00 AM,12:00 AM - 1:00 AM,12:00 AM - 1:00 AM,PST,Factual,http://www.ralphs.com/
,Ralphs,25930 Mcbean Pkwy,Valencia,CA,91355,34.404876,-118.551509,(661) 254-3440,6:00 AM - 11:59 PM,#VALUE!,#VALUE!,#VALUE!,#VALUE!,#VALUE!,#VALUE!,PST,Factual,http://www.ralphs.com/
,Ralphs,25930 Mcbean Pkwy,,CA,91355,34.404876,-118.551509,(661) 254-3440,6:00 AM - 11:59 PM,#VALUE!,#VALUE!,#VALUE!,#VALUE!,#VALUE!,#VALUE!,PST,Factual,http://www.ralphs.com/
,Ralphs,260 S La Brea Ave,Los Angeles,CA,90036,34.070031,-118.343586,(323) 937-3264,12:00 AM - 11:59 PM,12:00 AM - 11:59 PM,12:00 AM - 11:59 PM,12:00 AM - 11:59 PM,12:00 AM - 11:59 PM,12:00 AM - 11:59 PM,12:00 AM - 11:59 PM,PST,Factual,http://www.ralphs.com/
,Ralphs,2600 S Vermont Ave,Los Angeles,CA,90007,34.031761,-118.290854,(323) 732-3863,12:00 AM - 1:00 AM,12:00 AM - 1:00 AM,12:00 AM - 1:00 AM,12:00 AM - 1:00 AM,12:00 AM - 1:00 AM,12:00 AM - 1:00 AM,12:00 AM - 1:00 AM,PST,Factual,http://www.ralphs.com/
,Ralphs,2600 W Victory Blvd,Burbank,CA,91505,34.184049,-118.339599,(818) 845-5914,12:00 AM - 2:00 AM,12:00 AM - 2:00 AM,12:00 AM - 2:00 AM,12:00 AM - 2:00 AM,12:00 AM - 2:00 AM,12:00 AM - 2:00 AM,12:00 AM - 2:00 AM,PST,Factual,http://www.ralphs.com/
,Ralphs,2675 Foothill Blvd,La Crescenta,CA,91214,34.223437,-118.236675,(818) 249-5448,12:00 AM - 2:00 AM,12:00 AM - 2:00 AM,12:00 AM - 2:00 AM,12:00 AM - 2:00 AM,12:00 AM - 2:00 AM,12:00 AM - 2:00 AM,12:00 AM - 2:00 AM,PST,Factual,http://www.ralphs.com/
,Ralphs,2700 N Sepulveda Blvd,Manhattan Beach,CA,90266,33.896174,-118.394356,(310) 546-2472,12:00 AM - 11:59 PM,12:00 AM - 11:59 PM,12:00 AM - 11:59 PM,12:00 AM - 11:59 PM,12:00 AM - 11:59 PM,12:00 AM - 11:59 PM,12:00 AM - 11:59 PM,PST,Factual,http://www.ralphs.com/
,Ralphs,2700 Sepulveda Blvd,,CA,90505,33.828193,-118.345753,(310) 546-7762,9:00 AM - 9:00 PM,9:00 AM - 9:00 PM,9:00 AM - 9:00 PM,9:00 AM - 9:00 PM,9:00 AM - 9:00 PM,10:00 AM - 5:30 PM,10:00 AM - 5:30 PM,PST,Factual,
,Ralphs,27760 Mcbean Pkwy,Valencia,CA,91354,34.445817,-118.552015,(661) 263-7690,7:00 AM - 11:59 PM,7:00 AM - 11:59 PM,7:00 AM - 11:59 PM,7:00 AM - 11:59 PM,7:00 AM - 11:59 PM,7:00 AM - 11:59 PM,6:00 AM - 11:59 PM,PST,Factual,http://www.ralphs.com/
,Ralphs,2909 Rolling Hills Rd,Torrance,CA,90505,33.789379,-118.340407,(310) 325-0611,6:00 AM - 11:59 PM,12:00 AM - 1:00 AM,12:00 AM - 1:00 AM,12:00 AM - 1:00 AM,12:00 AM - 1:00 AM,12:00 AM - 1:00 AM,12:00 AM - 1:00 AM,PST,Factual,http://www.ralphs.com/
,Ralphs,2930 E 4Th St,Long Beach,CA,90814,33.771372,-118.157505,(562) 434-3899,12:00 AM - 1:00 AM,12:00 AM - 1:00 AM,12:00 AM - 1:00 AM,12:00 AM - 1:00 AM,12:00 AM - 1:00 AM,12:00 AM - 1:00 AM,12:00 AM - 1:00 AM,PST,Factual,http://www.ralphs.com/
,Ralphs,29675 The Old Rd,Castaic,CA,91384,34.456787,-118.619073,(661) 702-6911,12:00 AM - 11:59 PM,12:00 AM - 11:59 PM,12:00 AM - 11:59 PM,12:00 AM - 11:59 PM,12:00 AM - 11:59 PM,12:00 AM - 11:59 PM,12:00 AM - 11:59 PM,PST,Factual,http://www.ralphs.com/
,Ralphs,30019 Hawthorne Blvd,Rancho Palos Verdes,CA,90275,33.760471,-118.394703,(310) 377-6941,12:00 AM - 1:00 AM,12:00 AM - 1:00 AM,12:00 AM - 1:00 AM,12:00 AM - 1:00 AM,12:00 AM - 1:00 AM,12:00 AM - 1:00 AM,12:00 AM - 1:00 AM,PST,Factual,http://www.ralphs.com/
,Ralphs,305 W Imperial Hwy,Brea,CA,92821,33.918968,-117.902695,(714) 529-4505,12:00 AM - 1:00 AM,12:00 AM - 1:00 AM,12:00 AM - 1:00 AM,12:00 AM - 1:00 AM,12:00 AM - 1:00 AM,12:00 AM - 1:00 AM,12:00 AM - 1:00 AM,PST,Factual,http://www.ralphs.com/
,Ralphs,320 W Colorado Blvd,Pasadena,CA,91105,34.145199,-118.156945,(626) 793-4179,6:00 AM - 11:59 PM,6:00 AM - 11:59 PM,6:00 AM - 11:59 PM,6:00 AM - 11:59 PM,6:00 AM - 11:59 PM,6:00 AM - 11:59 PM,6:00 AM - 11:59 PM,PST,Factual,http://www.ralphs.com/
,Ralphs,3210 E Anaheim St,,CA,90804,33.781265,-118.154177,(562) 438-6978,,,,,,,,PST,Factual,http://www.ralphs.com/
,Ralphs,330 N Atlantic Blvd,Monterey Park,CA,91754,34.065263,-118.133468,(626) 289-0261,12:00 AM - 2:00 AM,12:00 AM - 2:00 AM,12:00 AM - 2:00 AM,12:00 AM - 2:00 AM,12:00 AM - 2:00 AM,12:00 AM - 2:00 AM,12:00 AM - 2:00 AM,PST,Factual,http://www.ralphs.com/
,Ralphs,3300 W Slauson Ave,Los Angeles,CA,90043,33.987469,-118.329784,(323) 293-0199,6:00 AM - 11:00 PM,6:00 AM - 11:00 PM,6:00 AM - 11:00 PM,6:00 AM - 11:00 PM,6:00 AM - 11:00 PM,6:00 AM - 11:00 PM,6:00 AM - 11:00 PM,PST,Factual,http://www.ralphs.com/
,Ralphs,3330 Yorba Linda Blvd,Fullerton,CA,92831,33.88812,-117.867,(714) 524-2041,6:00 AM to 1:00 AM,6:00 AM to 1:00 AM,6:00 AM to 1:00 AM,6:00 AM to 1:00 AM,6:00 AM to 1:00 AM,6:00 AM to 1:00 AM,6:00 AM to 1:00 AM,PST,Yelp,https://www.yelp.com/biz/ralphs-fullerton-2
,Ralphs,3380 N Los Coyotes Diagonal,,CA,90808,33.818123,-118.108786,(562) 421-0413,6:00 AM - 11:59 PM,6:00 AM - 11:59 PM,6:00 AM - 11:59 PM,6:00 AM - 11:59 PM,6:00 AM - 11:59 PM,6:00 AM - 11:59 PM,6:00 AM - 11:59 PM,PST,Factual,http://www.ralphs.com/
,Ralphs,3410 W 3Rd St,Los Angeles,CA,90020,34.068395,-118.29058,(213) 480-1421,12:00 AM - 11:59 PM,12:00 AM - 11:59 PM,12:00 AM - 11:59 PM,12:00 AM - 11:59 PM,12:00 AM - 11:59 PM,12:00 AM - 11:59 PM,12:00 AM - 11:59 PM,PST,Factual,http://www.ralphs.com/
,Ralphs,3455 Sepulveda Blvd,Torrance,CA,90505,33.828111,-118.34563,(310) 542-1639,7:00 AM - 11:59 PM,12:00 AM - 1:00 AM,12:00 AM - 1:00 AM,12:00 AM - 1:00 AM,12:00 AM - 1:00 AM,12:00 AM - 1:00 AM,12:00 AM - 1:00 AM,PST,Factual,http://www.ralphs.com/
,Ralphs,3601 E Foothill Blvd,Pasadena,CA,91107,34.151339,-118.075592,(626) 351-8806,12:00 AM - 2:00 AM,12:00 AM - 2:00 AM,12:00 AM - 2:00 AM,12:00 AM - 2:00 AM,12:00 AM - 2:00 AM,12:00 AM - 2:00 AM,12:00 AM - 2:00 AM,PST,Factual,http://www.ralphs.com/
,Ralphs,3827 Culver Ctr,Culver City,CA,90232,34.017302,-118.407743,(310) 558-4027,12:00 AM - 2:00 AM,12:00 AM - 2:00 AM,12:00 AM - 2:00 AM,12:00 AM - 2:00 AM,12:00 AM - 2:00 AM,12:00 AM - 2:00 AM,12:00 AM - 2:00 AM,PST,Factual,http://www.ralphs.com/
,Ralphs,3963 E Thousand Oaks Blvd,Westlake Village,CA,91362,34.163454,-118.823529,(805) 496-2469,8:00 AM - 8:00 PM,8:00 AM - 8:00 PM,8:00 AM - 8:00 PM,8:00 AM - 8:00 PM,,,8:00 AM - 8:00 PM,PST,Factual,http://www.ralphs.com/
,Ralphs,4033 Ball Rd,Cypress,CA,90630,33.818455,-118.062012,(714) 827-7947,6:00 AM - 11:59 PM,6:00 AM - 11:59 PM,6:00 AM - 11:59 PM,6:00 AM - 11:59 PM,6:00 AM - 11:59 PM,6:00 AM - 11:59 PM,6:00 AM - 11:59 PM,PST,Factual,http://www.ralphs.com/
,Ralphs,4311 Lincoln Blvd,Marina Del Rey,CA,90292,33.984216,-118.443246,(310) 574-0909,12:00 AM - 1:00 AM,12:00 AM - 1:00 AM,12:00 AM - 1:00 AM,12:00 AM - 1:00 AM,12:00 AM - 1:00 AM,12:00 AM - 1:00 AM,12:00 AM - 1:00 AM,PST,Factual,http://www.ralphs.com/
,Ralphs,4627 York Blvd,Los Angeles,CA,90041,34.123147,-118.215214,(323) 258-0311,7:00 AM - 10:00 PM,7:00 AM - 10:00 PM,7:00 AM - 10:00 PM,7:00 AM - 10:00 PM,7:00 AM - 11:00 PM,7:00 AM - 11:00 PM,7:00 AM - 10:00 PM,PST,Factual,https://www.yelp.com/biz/ralphs-country-store-los-angeles
,Ralphs,4700 Admiralty Way,Marina Del Rey,CA,90292,33.97981,-118.438946,(310) 823-4684,12:00 AM - 2:00 AM,12:00 AM - 2:00 AM,12:00 AM - 2:00 AM,12:00 AM - 2:00 AM,12:00 AM - 2:00 AM,12:00 AM - 2:00 AM,12:00 AM - 2:00 AM,PST,Factual,http://www.ralphs.com/
,Ralphs,4754 Commons Way,Calabasas,CA,91302,34.154208,-118.643107,(818) 223-0284,6:00 AM - 11:59 PM,6:00 AM - 11:59 PM,6:00 AM - 11:59 PM,6:00 AM - 11:59 PM,6:00 AM - 11:59 PM,6:00 AM - 11:59 PM,6:00 AM - 11:59 PM,PST,Factual,http://www.ralphs.com/
,Ralphs,4760 W Pico Blvd,Los Angeles,CA,90019,34.047846,-118.339391,(323) 937-4107,12:00 AM - 1:00 AM,12:00 AM - 1:00 AM,12:00 AM - 1:00 AM,12:00 AM - 1:00 AM,12:00 AM - 1:00 AM,12:00 AM - 1:00 AM,12:00 AM - 1:00 AM,PST,Factual,http://www.ralphs.com/
,Ralphs,500 N Sepulveda Blvd,El Segundo,CA,90245,33.922035,-118.395618,(310) 615-0537,12:00 AM - 11:59 PM,12:00 AM - 11:59 PM,12:00 AM - 11:59 PM,12:00 AM - 11:59 PM,12:00 AM - 11:59 PM,12:00 AM - 11:59 PM,12:00 AM - 11:59 PM,PST,Factual,http://www.ralphs.com/
,Ralphs,5035 Pacific Coast Hwy,Torrance,CA,90505,33.813652,-118.367638,(310) 378-0295,12:00 AM - 1:00 AM,12:00 AM - 1:00 AM,12:00 AM - 1:00 AM,12:00 AM - 1:00 AM,12:00 AM - 1:00 AM,12:00 AM - 1:00 AM,12:00 AM - 1:00 AM,PST,Factual,http://www.ralphs.com/
,Ralphs,5080 Rodeo Road,Los Angeles,CA,90016,34.0215,-118.36,,,,,,,,,PST,LACity,
,Ralphs,521 Foothill Blvd,La Canada Flintridge,CA,91011,34.200792,-118.189692,(818) 790-0584,12:00 AM - 11:59 PM,12:00 AM - 11:59 PM,12:00 AM - 11:59 PM,12:00 AM - 11:59 PM,12:00 AM - 11:59 PM,12:00 AM - 11:59 PM,12:00 AM - 11:59 PM,PST,Factual,http://www.ralphs.com/
,Ralphs,5245 W Centinela Ave,Los Angeles,CA,90045,33.979088,-118.371597,(310) 641-2813,12:00 AM - 1:00 AM,12:00 AM - 1:00 AM,12:00 AM - 1:00 AM,12:00 AM - 1:00 AM,12:00 AM - 1:00 AM,12:00 AM - 1:00 AM,12:00 AM - 1:00 AM,PST,Factual,http://www.ralphs.com/
,Ralphs,5429 Hollywood Blvd,Los Angeles,CA,90027,34.102369,-118.308172,(323) 957-9657,12:00 AM - 2:00 AM,12:00 AM - 2:00 AM,12:00 AM - 2:00 AM,12:00 AM - 2:00 AM,12:00 AM - 2:00 AM,12:00 AM - 2:00 AM,12:00 AM - 2:00 AM,PST,Factual,http://www.ralphs.com/
,Ralphs,5601 Wilshire Blvd,Los Angeles,CA,90036,34.062987,-118.350948,(323) 936-4954,12:00 AM - 1:00 AM,12:00 AM - 1:00 AM,12:00 AM - 1:00 AM,12:00 AM - 1:00 AM,12:00 AM - 1:00 AM,12:00 AM - 1:00 AM,12:00 AM - 1:00 AM,PST,Factual,http://www.ralphs.com/
,Ralphs,5727 Kanan Rd,Agoura Hills,CA,91301,34.154564,-118.75693,(818) 889-5429,,,,,,,,,LACounty,
,Ralphs,583 N Ventu Park Rd,Newbury Park,CA,91320,34.1874,-118.912,(805) 499-6743,,,,,,,,PST,Yelp,https://www.yelp.com/biz/ralphs-grocery-newbury-park
,Ralphs,5951 Del Amo Blvd,Lakewood,CA,90713,33.847942,-118.115628,(562) 867-7282,6:00 AM - 11:59 PM,6:00 AM - 11:59 PM,6:00 AM - 11:59 PM,6:00 AM - 11:59 PM,6:00 AM - 11:59 PM,6:00 AM - 11:59 PM,6:00 AM - 11:59 PM,PST,Factual,http://www.ralphs.com/
,Ralphs,6290 E Pacific Coast Hwy,Long Beach,CA,90803,33.760953,-118.115976,(562) 795-0167,12:00 AM - 1:00 AM,12:00 AM - 1:00 AM,12:00 AM - 1:00 AM,12:00 AM - 1:00 AM,12:00 AM - 1:00 AM,12:00 AM - 1:00 AM,12:00 AM - 1:00 AM,PST,Factual,http://www.ralphs.com/
,Ralphs,645 W 9Th St,Los Angeles,CA,90015,34.045584,-118.260819,(213) 452-0840,12:00 AM - 2:00 AM,12:00 AM - 2:00 AM,12:00 AM - 2:00 AM,12:00 AM - 2:00 AM,12:00 AM - 2:00 AM,12:00 AM - 2:00 AM,12:00 AM - 2:00 AM,PST,Factual,http://www.ralphs.com/
,Ralphs,650 E Carson St,Carson,CA,90745,33.830368,-118.264431,(310) 518-4191,#VALUE!,#VALUE!,#VALUE!,#VALUE!,#VALUE!,#VALUE!,#VALUE!,PST,Factual,http://www.ralphs.com/
,Ralphs,655 S Grand Ave,,CA,91740,34.127463,-117.874242,(626) 857-7700,6:00 AM - 11:00 PM,6:00 AM - 11:00 PM,6:00 AM - 11:00 PM,6:00 AM - 11:00 PM,6:00 AM - 11:00 PM,6:00 AM - 11:00 PM,6:00 AM - 11:00 PM,PST,Factual,http://www.ralphs.com/
,Ralphs,6657 Laurel Canyon Blvd,North Hollywood,CA,91606,34.191782,-118.397496,(818) 765-2770,7:00 AM - 11:59 PM,7:00 AM - 11:59 PM,7:00 AM - 11:59 PM,7:00 AM - 11:59 PM,7:00 AM - 11:59 PM,7:00 AM - 11:59 PM,7:00 AM - 11:59 PM,PST,Factual,http://www.ralphs.com/
,Ralphs,670 S Western Ave,Los Angeles,CA,90005,34.060042,-118.308513,(213) 383-5058,12:00 AM - 11:59 PM,12:00 AM - 11:59 PM,12:00 AM - 11:59 PM,12:00 AM - 11:59 PM,12:00 AM - 11:59 PM,12:00 AM - 11:59 PM,12:00 AM - 11:59 PM,PST,Factual,http://www.ralphs.com/
,Ralphs,710 N Rose Dr,Placentia,CA,92870,33.8774,-117.842,(714) 524-3984,5:00 AM to 1:00 AM,5:00 AM to 1:00 AM,5:00 AM to 1:00 AM,5:00 AM to 1:00 AM,5:00 AM to 1:00 AM,5:00 AM to 1:00 AM,5:00 AM to 1:00 AM,PST,Yelp,https://www.yelp.com/biz/ralphs-placentia
,Ralphs,7221 Woodman Ave,Van Nuys,CA,91405,34.201939,-118.432131,(818) 785-6136,12:00 AM - 2:00 AM,12:00 AM - 2:00 AM,12:00 AM - 2:00 AM,12:00 AM - 2:00 AM,12:00 AM - 2:00 AM,12:00 AM - 2:00 AM,12:00 AM - 2:00 AM,PST,Factual,http://www.ralphs.com/
,Ralphs,7257 W Sunset Blvd,Los Angeles,CA,90046,34.098725,-118.348432,(323) 512-8382,12:00 AM - 11:59 PM,12:00 AM - 11:59 PM,12:00 AM - 11:59 PM,12:00 AM - 11:59 PM,12:00 AM - 11:59 PM,12:00 AM - 11:59 PM,12:00 AM - 11:59 PM,PST,Factual,http://www.ralphs.com/
,Ralphs,7604 Louise Ave,Van Nuys,CA,91406,34.2085,-118.51,,,,,,,,,PST,LACity,
,Ralphs,8325 Laurel Canyon Blvd,Sun Valley,CA,91352,34.2225,-118.397811,(818) 768-0378,12:00 AM - 1:00 AM,12:00 AM - 1:00 AM,12:00 AM - 1:00 AM,12:00 AM - 1:00 AM,12:00 AM - 1:00 AM,12:00 AM - 1:00 AM,12:00 AM - 1:00 AM,PST,Factual,http://www.ralphs.com/
,Ralphs,8626 Firestone Blvd,,CA,90241,33.935993,-118.127089,(562) 869-2733,12:00 AM - 1:00 AM,12:00 AM - 1:00 AM,12:00 AM - 1:00 AM,12:00 AM - 1:00 AM,12:00 AM - 1:00 AM,12:00 AM - 1:00 AM,12:00 AM - 1:00 AM,PST,Factual,http://www.ralphs.com/
,Ralphs,8701 Lincoln Blvd,Los Angeles,CA,90045,33.958161,-118.41847,(310) 649-1526,12:00 AM - 2:00 AM,12:00 AM - 2:00 AM,12:00 AM - 2:00 AM,12:00 AM - 2:00 AM,12:00 AM - 2:00 AM,12:00 AM - 2:00 AM,12:00 AM - 2:00 AM,PST,Factual,http://www.ralphs.com/
,Ralphs,8824 S Sepulveda Blvd,Los Angeles,CA,90045,33.956359,-118.397788,(310) 645-2035,12:00 AM - 2:00 AM,12:00 AM - 2:00 AM,12:00 AM - 2:00 AM,12:00 AM - 2:00 AM,12:00 AM - 2:00 AM,12:00 AM - 2:00 AM,12:00 AM - 2:00 AM,PST,Factual,http://www.ralphs.com/
,Ralphs,9040 Beverly Blvd,West Hollywood,CA,90048,34.076629,-118.389114,(310) 278-1351,12:00 AM - 2:00 AM,12:00 AM - 2:00 AM,12:00 AM - 2:00 AM,12:00 AM - 2:00 AM,12:00 AM - 2:00 AM,12:00 AM - 2:00 AM,12:00 AM - 2:00 AM,PST,Factual,http://www.ralphs.com/
,Ralphs,910 Lincoln Blvd,Venice,CA,90291,33.999195,-118.461269,(310) 392-4854,12:00 AM - 2:00 AM,12:00 AM - 2:00 AM,12:00 AM - 2:00 AM,12:00 AM - 2:00 AM,12:00 AM - 2:00 AM,12:00 AM - 2:00 AM,12:00 AM - 2:00 AM,PST,Factual,http://www.ralphs.com/
,Ralphs,9200 Lakewood Blvd,Downey,CA,90240,33.955504,-118.112176,(562) 869-2042,12:00 AM - 1:00 AM,12:00 AM - 1:00 AM,12:00 AM - 1:00 AM,12:00 AM - 1:00 AM,12:00 AM - 1:00 AM,12:00 AM - 1:00 AM,12:00 AM - 1:00 AM,PST,Factual,http://www.ralphs.com/
,Ralphs,9320 Slauson Ave,,CA,90660,33.968272,-118.097899,(562) 948-4519,12:00 AM - 11:59 PM,12:00 AM - 11:59 PM,12:00 AM - 11:59 PM,12:00 AM - 11:59 PM,12:00 AM - 11:59 PM,12:00 AM - 11:59 PM,12:00 AM - 11:59 PM,PST,Factual,http://www.ralphs.com/
,Ralphs,9470 Las Tunas Dr,Temple City,CA,91780,34.105192,-118.064011,(626) 286-0898,12:00 AM - 1:00 AM,12:00 AM - 1:00 AM,12:00 AM - 1:00 AM,12:00 AM - 1:00 AM,12:00 AM - 1:00 AM,12:00 AM - 1:00 AM,12:00 AM - 1:00 AM,PST,Factual,http://www.ralphs.com/
,Ralphs,950 N La Brea Ave,Inglewood,CA,90302,33.975426,-118.356994,(310) 673-6365,6:00 AM - 11:59 PM,6:00 AM - 11:59 PM,6:00 AM - 11:59 PM,6:00 AM - 11:59 PM,6:00 AM - 11:59 PM,6:00 AM - 11:59 PM,7:00 AM - 11:59 PM,PST,Factual,http://www.ralphs.com/
,Ralphs,9616 W Pico Blvd,Los Angeles,CA,90035,34.05482,-118.398,(310) 271-2672,5:00 AM to 1:00 AM,6:00 AM to 1:00 AM,5:00 AM to 1:00 AM,5:00 AM to 1:00 AM,5:00 AM to 1:00 AM,5:00 AM to 1:00 AM,5:00 AM to 1:00 AM,PST,Yelp,https://www.yelp.com/biz/ralphs-los-angeles-55
,Ralphs,Long Beach Blvd,Los Angeles,CA,90814,33.77164,-118.16,n/a,,,,,,,,PST,Yelp,https://www.yelp.com/biz/ralphs-los-angeles-6
,Ralphs,Ventura Blvd,Los Angeles,CA,91367,34.17126,-118.602,n/a,,,,,,,,PST,Yelp,https://www.yelp.com/biz/ralphs-grocery-los-angeles-11
,Smart & Final,1005 W Arrow Hwy,San Dimas,CA,91773,34.10788,-117.827266,(909) 592-2190,6:00 AM - 10:00 PM,6:00 AM - 10:00 PM,6:00 AM - 10:00 PM,6:00 AM - 10:00 PM,6:00 AM - 10:00 PM,6:00 AM - 10:00 PM,6:00 AM - 10:00 PM,PST,Factual,http://locations.smartandfinal.com/CA/SAN-DIMAS/305/
,Smart & Final,10100 Crenshaw Blvd,Inglewood,CA,90303,33.944425,-118.326077,(323) 779-9966,6:00 AM - 10:00 PM,6:00 AM - 10:00 PM,6:00 AM - 10:00 PM,6:00 AM - 10:00 PM,6:00 AM - 10:00 PM,6:00 AM - 10:00 PM,6:00 AM - 10:00 PM,PST,Factual,http://locations.smartandfinal.com/CA/INGLEWOOD/366/
,Smart & Final,10113 Venice Blvd,Los Angeles,CA,90034,34.022189,-118.401318,(310) 559-1722,6:00 AM - 11:00 PM,6:00 AM - 11:00 PM,6:00 AM - 11:00 PM,6:00 AM - 11:00 PM,6:00 AM - 11:00 PM,6:00 AM - 11:00 PM,6:00 AM - 11:00 PM,PST,Factual,http://locations.smartandfinal.com/CA/LOS-ANGELES/330/
,Smart & Final,10340 Mason Ave,Chatsworth,CA,91311,34.258231,-118.579587,(818) 772-2021,6:00 AM - 10:00 PM,6:00 AM - 10:00 PM,6:00 AM - 10:00 PM,6:00 AM - 10:00 PM,6:00 AM - 10:00 PM,6:00 AM - 10:00 PM,6:00 AM - 10:00 PM,PST,Factual,http://locations.smartandfinal.com/CA/CHATSWORTH/528/
,Smart & Final,1041 N Fuller Ave,West Hollywood,CA,90046,34.090059,-118.350004,(323) 876-0421,6:00 AM - 10:00 PM,6:00 AM - 10:00 PM,6:00 AM - 10:00 PM,6:00 AM - 10:00 PM,6:00 AM - 10:00 PM,6:00 AM - 10:00 PM,6:00 AM - 10:00 PM,PST,Factual,http://locations.smartandfinal.com/CA/W.-HOLLYWOOD/474/
,Smart & Final,10833 Long Beach Blvd,Lynwood,CA,90262,33.933886,-118.212104,(310) 631-8639,6:00 AM - 10:00 PM,6:00 AM - 10:00 PM,6:00 AM - 10:00 PM,6:00 AM - 10:00 PM,6:00 AM - 10:00 PM,6:00 AM - 10:00 PM,6:00 AM - 10:00 PM,PST,Factual,http://locations.smartandfinal.com/CA/LYNWOOD/333/
,Smart & Final,10893 San Fernando Rd,Pacoima,CA,91331,34.268051,-118.42468,(818) 896-6212,7:00 AM - 9:00 PM,7:00 AM - 9:00 PM,7:00 AM - 9:00 PM,7:00 AM - 9:00 PM,7:00 AM - 9:00 PM,7:00 AM - 9:00 PM,7:00 AM - 9:00 PM,PST,Factual,http://locations.smartandfinal.com/CA/PACOIMA/372/
,Smart & Final,10935 Firestone Blvd,,CA,90650,33.923274,-118.100298,(562) 863-7057,7:00 AM - 9:00 PM,7:00 AM - 9:00 PM,7:00 AM - 9:00 PM,7:00 AM - 9:00 PM,7:00 AM - 9:00 PM,7:00 AM - 9:00 PM,7:00 AM - 9:00 PM,PST,Factual,http://locations.smartandfinal.com/CA/NORWALK/325/
,Smart & Final,11110 Ramona Blvd,,CA,91731,34.072374,-118.031776,(626) 443-1381,6:00 AM - 10:00 PM,6:00 AM - 10:00 PM,6:00 AM - 10:00 PM,6:00 AM - 10:00 PM,6:00 AM - 10:00 PM,6:00 AM - 10:00 PM,6:00 AM - 10:00 PM,PST,Factual,http://locations.smartandfinal.com/CA/EL-MONTE/373/
,Smart & Final,11221 W Pico Blvd,Los Angeles,CA,90064,34.036079,-118.437293,(310) 473-0344,6:00 AM - 10:00 PM,6:00 AM - 10:00 PM,6:00 AM - 10:00 PM,6:00 AM - 10:00 PM,6:00 AM - 10:00 PM,6:00 AM - 10:00 PM,6:00 AM - 10:00 PM,PST,Factual,http://locations.smartandfinal.com/CA/LOS-ANGELES/395/
,Smart & Final,1125 E El Segundo Blvd,Los Angeles,CA,90059,33.916495,-118.255138,(323) 569-7148,6:00 AM - 10:00 PM,6:00 AM - 10:00 PM,6:00 AM - 10:00 PM,6:00 AM - 10:00 PM,6:00 AM - 10:00 PM,6:00 AM - 10:00 PM,6:00 AM - 10:00 PM,PST,Factual,http://locations.smartandfinal.com/CA/LOS-ANGELES/341/
,Smart & Final,114 N Azusa Ave,Covina,CA,91722,34.086819,-117.906491,(626) 915-6619,6:00 AM - 10:00 PM,6:00 AM - 10:00 PM,6:00 AM - 10:00 PM,6:00 AM - 10:00 PM,6:00 AM - 10:00 PM,6:00 AM - 10:00 PM,6:00 AM - 10:00 PM,PST,Factual,http://locations.smartandfinal.com/CA/COVINA/367/
,Smart & Final,11460 Washington Blvd,,CA,90606,33.970661,-118.067075,(562) 695-1093,6:00 AM - 10:00 PM,6:00 AM - 10:00 PM,6:00 AM - 10:00 PM,6:00 AM - 10:00 PM,6:00 AM - 10:00 PM,6:00 AM - 10:00 PM,6:00 AM - 10:00 PM,PST,Factual,http://www.smartandfinal.com
,Smart & Final,1193 Huntington Dr,Duarte,CA,91016,34.14067,-117.979,(626) 256-0108,6:00 AM to 10:00 PM,6:00 AM to 10:00 PM,6:00 AM to 10:00 PM,6:00 AM to 10:00 PM,6:00 AM to 10:00 PM,6:00 AM to 10:00 PM,6:00 AM to 10:00 PM,PST,Yelp,https://www.yelp.com/biz/smart-and-final-duarte-4
,Smart & Final,1216 Compton Ave,Los Angeles,CA,90021,34.027643,-118.241916,(213) 747-6697,5:00 AM - 9:00 PM,5:00 AM - 9:00 PM,5:00 AM - 9:00 PM,5:00 AM - 9:00 PM,5:00 AM - 9:00 PM,5:00 AM - 9:00 PM,6:00 AM - 9:00 PM,PST,Factual,http://locations.smartandfinal.com/CA/LOS-ANGELES/310/
,Smart & Final,12164 Central Ave,,CA,91710,34.032238,-117.690889,(909) 627-7687,6:00 AM - 10:00 PM,6:00 AM - 10:00 PM,6:00 AM - 10:00 PM,6:00 AM - 10:00 PM,6:00 AM - 10:00 PM,6:00 AM - 10:00 PM,6:00 AM - 10:00 PM,PST,Factual,http://locations.smartandfinal.com/CA/CHINO/494/
,Smart & Final,12210 Santa Monica Blvd,Los Angeles,CA,90025,34.039734,-118.464506,(310) 207-8688,6:00 AM - 10:00 PM,6:00 AM - 10:00 PM,6:00 AM - 10:00 PM,6:00 AM - 10:00 PM,6:00 AM - 10:00 PM,6:00 AM - 10:00 PM,6:00 AM - 10:00 PM,PST,Factual,http://locations.smartandfinal.com/CA/W.-LOS-ANGELES/315/
,Smart & Final,13003 Whittier Blvd,Whittier,CA,90602,33.965768,-118.036999,(562) 907-7037,6:00 AM - 10:00 PM,6:00 AM - 10:00 PM,6:00 AM - 10:00 PM,6:00 AM - 10:00 PM,6:00 AM - 10:00 PM,6:00 AM - 10:00 PM,6:00 AM - 10:00 PM,PST,Factual,http://locations.smartandfinal.com/CA/WHITTIER/716/
,Smart & Final,1320 Atlantic Ave,Long Beach,CA,90813,33.783189,-118.184692,(562) 218-0991,6:00 AM - 10:00 PM,6:00 AM - 10:00 PM,6:00 AM - 10:00 PM,6:00 AM - 10:00 PM,6:00 AM - 10:00 PM,6:00 AM - 10:00 PM,6:00 AM - 10:00 PM,PST,Factual,http://locations.smartandfinal.com/CA/LONG-BEACH/440/
,Smart & Final,1433 W Carson St,,CA,90501,33.831882,-118.302846,(310) 328-3025,,,,,,,,PST,Factual,
,Smart & Final,15055 Mulberry Dr,Whittier,CA,90604,33.935381,-118.010867,(562) 941-7282,6:00 AM - 10:00 PM,6:00 AM - 10:00 PM,6:00 AM - 10:00 PM,6:00 AM - 10:00 PM,6:00 AM - 10:00 PM,6:00 AM - 10:00 PM,6:00 AM - 10:00 PM,PST,Factual,http://locations.smartandfinal.com/CA/WHITTIER/482/
,Smart & Final,1516 S Pacific Coast Highway,Redondo Beach,CA,90277,33.8209,-118.384,(310) 540-6157,6:00 AM to 10:00 PM,6:00 AM to 10:00 PM,6:00 AM to 10:00 PM,6:00 AM to 10:00 PM,6:00 AM to 10:00 PM,6:00 AM to 10:00 PM,6:00 AM to 10:00 PM,PST,Yelp,https://www.yelp.com/biz/smart-and-final-redondo-beach-6
,Smart & Final,15205 Hawthorne Blvd,Lawndale,CA,90260,33.893325,-118.3529,(310) 973-2355,6:00 AM - 10:00 PM,6:00 AM - 10:00 PM,6:00 AM - 10:00 PM,6:00 AM - 10:00 PM,6:00 AM - 10:00 PM,6:00 AM - 10:00 PM,6:00 AM - 10:00 PM,PST,Factual,http://locations.smartandfinal.com/CA/LAWNDALE/529/
,Smart & Final,15214 Whittier Blvd,,CA,90603,33.946839,-118.002572,(562) 945-7769,8:00 AM - 5:00 PM,8:00 AM - 5:00 PM,8:00 AM - 5:00 PM,8:00 AM - 5:00 PM,8:00 AM - 5:00 PM,,,PST,Factual,http://www.smartandfinal.com
,Smart & Final,15427 Amar Rd,La Puente,CA,91744,34.037279,-117.948812,(626) 330-2495,6:00 AM - 10:00 PM,6:00 AM - 10:00 PM,6:00 AM - 10:00 PM,6:00 AM - 10:00 PM,6:00 AM - 10:00 PM,6:00 AM - 10:00 PM,6:00 AM - 10:00 PM,PST,Factual,http://locations.smartandfinal.com/CA/LA-PUENTE/317/
,Smart & Final,1550 W Redondo Beach Blvd,Gardena,CA,90247,33.88998,-118.303633,(310) 324-8991,6:00 AM - 10:00 PM,6:00 AM - 10:00 PM,6:00 AM - 10:00 PM,6:00 AM - 10:00 PM,6:00 AM - 10:00 PM,6:00 AM - 10:00 PM,6:00 AM - 10:00 PM,PST,Factual,http://locations.smartandfinal.com/CA/GARDENA/487/
,Smart & Final,1575 Centinela Ave,Inglewood,CA,90302,33.976644,-118.366402,(310) 673-4997,6:00 AM - 10:00 PM,6:00 AM - 10:00 PM,6:00 AM - 10:00 PM,6:00 AM - 10:00 PM,6:00 AM - 10:00 PM,6:00 AM - 10:00 PM,6:00 AM - 10:00 PM,PST,Factual,http://locations.smartandfinal.com/CA/INGLEWOOD/457/
,Smart & Final,15930 Bellflower Blvd,Bellflower,CA,90706,33.888601,-118.124946,(562) 920-6268,6:00 AM - 10:00 PM,6:00 AM - 10:00 PM,6:00 AM - 10:00 PM,6:00 AM - 10:00 PM,6:00 AM - 10:00 PM,6:00 AM - 10:00 PM,6:00 AM - 10:00 PM,PST,Factual,http://locations.smartandfinal.com/CA/BELLFLOWER/311/
,Smart & Final,160 W Willow St,,CA,91768,34.078523,-117.753446,(909) 622-3321,6:00 AM - 10:00 PM,6:00 AM - 10:00 PM,6:00 AM - 10:00 PM,6:00 AM - 10:00 PM,6:00 AM - 10:00 PM,6:00 AM - 10:00 PM,6:00 AM - 10:00 PM,PST,Factual,http://locations.smartandfinal.com/CA/POMONA/308/
,Smart & Final,16210 Devonshire St,Granada Hills,CA,91344,34.257279,-118.485353,(818) 892-3338,6:00 AM - 10:00 PM,6:00 AM - 10:00 PM,6:00 AM - 10:00 PM,6:00 AM - 10:00 PM,6:00 AM - 10:00 PM,6:00 AM - 10:00 PM,6:00 AM - 10:00 PM,PST,Factual,http://locations.smartandfinal.com/CA/GRANADA-HILLS/460/
,Smart & Final,1636 W 25Th St,San Pedro,CA,90732,33.723206,-118.31323,(310) 519-1046,6:00 AM - 11:00 PM,6:00 AM - 11:00 PM,6:00 AM - 11:00 PM,6:00 AM - 11:00 PM,6:00 AM - 11:00 PM,6:00 AM - 11:00 PM,6:00 AM - 11:00 PM,PST,Factual,http://www.albertsons.com/
,Smart & Final,16847 Ventura Blvd,Encino,CA,91436,34.15958,-118.500258,(818) 789-0242,6:00 AM - 10:00 PM,6:00 AM - 10:00 PM,6:00 AM - 10:00 PM,6:00 AM - 10:00 PM,6:00 AM - 10:00 PM,6:00 AM - 10:00 PM,6:00 AM - 10:00 PM,PST,Factual,http://locations.smartandfinal.com/CA/ENCINO/477/
,Smart & Final,1755 Ximeno Ave,Long Beach,CA,90815,33.788887,-118.139084,(562) 494-6208,6:00 AM - 10:00 PM,6:00 AM - 10:00 PM,6:00 AM - 10:00 PM,6:00 AM - 10:00 PM,6:00 AM - 10:00 PM,6:00 AM - 10:00 PM,6:00 AM - 10:00 PM,PST,Factual,http://locations.smartandfinal.com/CA/LONG-BEACH/301/
,Smart & Final,18204 E Gale Ave,City Industry,CA,91748,33.9949,-117.908,(626) 965-0483,7:00 AM to 9:00 PM,7:00 AM to 9:00 PM,7:00 AM to 9:00 PM,7:00 AM to 9:00 PM,7:00 AM to 9:00 PM,7:00 AM to 9:00 PM,7:00 AM to 9:00 PM,PST,Yelp,https://www.yelp.com/biz/smart-and-final-city-industry
,Smart & Final,1835 S La Cienega Blvd,Los Angeles,CA,90035,34.043553,-118.379166,(310) 558-0576,6:00 AM - 10:00 PM,6:00 AM - 10:00 PM,6:00 AM - 10:00 PM,6:00 AM - 10:00 PM,6:00 AM - 10:00 PM,6:00 AM - 10:00 PM,6:00 AM - 10:00 PM,PST,Factual,http://locations.smartandfinal.com/CA/LOS-ANGELES/478/
,Smart & Final,1855 W Glenoaks Blvd,Glendale,CA,91201,34.17426,-118.293,(818) 242-2486,6:00 AM to 10:00 PM,6:00 AM to 10:00 PM,6:00 AM to 10:00 PM,6:00 AM to 10:00 PM,6:00 AM to 10:00 PM,6:00 AM to 10:00 PM,6:00 AM to 10:00 PM,PST,Yelp,https://www.yelp.com/biz/smart-and-final-glendale-11
,Smart & Final,18555 Devonshire St,Northridge,CA,91324,34.258418,-118.537763,(818) 368-6409,6:00 AM - 10:00 PM,6:00 AM - 10:00 PM,6:00 AM - 10:00 PM,6:00 AM - 10:00 PM,6:00 AM - 10:00 PM,6:00 AM - 10:00 PM,6:00 AM - 10:00 PM,PST,Factual,http://locations.smartandfinal.com/CA/NORTHRIDGE/420/
,Smart & Final,1941 W Imperial Hwy,La Habra,CA,90631,33.91846,-117.966741,(562) 690-4516,6:00 AM - 10:00 PM,6:00 AM - 10:00 PM,6:00 AM - 10:00 PM,6:00 AM - 10:00 PM,6:00 AM - 10:00 PM,6:00 AM - 10:00 PM,6:00 AM - 10:00 PM,PST,Factual,http://locations.smartandfinal.com/CA/LA-HABRA/422/
,Smart & Final,19718 Sherman Way,,CA,91306,34.200926,-118.562392,(818) 996-1331,,,,,,,,PST,Factual,http://www.smartandfinal.com
,Smart & Final,2019 Pasadena Ave,Los Angeles,CA,90031,34.074606,-118.220738,(323) 223-6252,6:00 AM - 10:00 PM,6:00 AM - 10:00 PM,6:00 AM - 10:00 PM,6:00 AM - 10:00 PM,6:00 AM - 10:00 PM,6:00 AM - 10:00 PM,6:00 AM - 10:00 PM,PST,Factual,http://www.smartandfinal.com/
,Smart & Final,2040 Glenoaks Blvd,San Fernando,CA,91340,34.298597,-118.439208,(818) 838-9187,6:00 AM - 10:00 PM,6:00 AM - 10:00 PM,6:00 AM - 10:00 PM,6:00 AM - 10:00 PM,6:00 AM - 10:00 PM,6:00 AM - 10:00 PM,6:00 AM - 10:00 PM,PST,Factual,http://locations.smartandfinal.com/CA/SAN-FERNANDO/323/
,Smart & Final,20410 S Susana Rd,Carson,CA,90810,33.846369,-118.206426,(310) 762-2536,7:00 AM - 9:00 PM,7:00 AM - 9:00 PM,7:00 AM - 9:00 PM,7:00 AM - 9:00 PM,7:00 AM - 9:00 PM,7:00 AM - 9:00 PM,7:00 AM - 9:00 PM,PST,Factual,http://locations.smartandfinal.com/CA/CARSON/369/
,Smart & Final,210 N Verdugo Rd,Glendale,CA,91206,34.148584,-118.235083,(818) 243-4239,6:00 AM - 10:00 PM,6:00 AM - 10:00 PM,6:00 AM - 10:00 PM,6:00 AM - 10:00 PM,6:00 AM - 10:00 PM,6:00 AM - 10:00 PM,6:00 AM - 10:00 PM,PST,Factual,http://locations.smartandfinal.com/CA/GLENDALE/304/
,Smart & Final,2100 Newbury Rd,Thousand Oaks,CA,91320,34.18274,-118.924,(805) 375-0400,6:00 AM to 10:00 PM,6:00 AM to 10:00 PM,6:00 AM to 10:00 PM,6:00 AM to 10:00 PM,6:00 AM to 10:00 PM,6:00 AM to 10:00 PM,6:00 AM to 10:00 PM,PST,Yelp,https://www.yelp.com/biz/smart-and-final-extra-thousand-oaks
,Smart & Final,21035 Hawthorne Blvd,Torrance,CA,90503,33.83844,-118.35387,,,,,,,,,,LACounty,
,Smart & Final,21600 S Vermont Ave,Torrance,CA,90502,33.832694,-118.289896,(310) 328-3023,6:00 AM - 10:00 PM,6:00 AM - 10:00 PM,6:00 AM - 10:00 PM,6:00 AM - 10:00 PM,6:00 AM - 10:00 PM,6:00 AM - 10:00 PM,6:00 AM - 10:00 PM,PST,Factual,http://locations.smartandfinal.com/CA/TORRANCE/348/
,Smart & Final,2222 W Hillcrest Dr,Thousand Oaks,CA,91320,34.18647,-118.926,(805) 375-1358,6:00 AM to 10:00 PM,6:00 AM to 10:00 PM,6:00 AM to 10:00 PM,6:00 AM to 10:00 PM,6:00 AM to 10:00 PM,6:00 AM to 10:00 PM,6:00 AM to 10:00 PM,PST,Yelp,https://www.yelp.com/biz/smart-and-final-thousand-oaks
,Smart & Final,22631 Ventura Blvd,Woodland Hills,CA,91364,34.16742,-118.619747,(818) 225-9590,6:00 AM - 10:00 PM,6:00 AM - 10:00 PM,6:00 AM - 10:00 PM,6:00 AM - 10:00 PM,6:00 AM - 10:00 PM,6:00 AM - 10:00 PM,6:00 AM - 10:00 PM,PST,Factual,http://locations.smartandfinal.com/CA/WOODLAND-HILLS/324/
,Smart & Final,2308 E 4Th St,Los Angeles,CA,90033,34.041046,-118.212924,(323) 268-9179,7:00 AM - 9:00 PM,7:00 AM - 9:00 PM,7:00 AM - 9:00 PM,7:00 AM - 9:00 PM,7:00 AM - 9:00 PM,7:00 AM - 9:00 PM,7:00 AM - 9:00 PM,PST,Factual,http://locations.smartandfinal.com/CA/LOS-ANGELES/345/
,Smart & Final,23640 Lyons Ave,Newhall,CA,91321,34.37927,-118.548,(661) 255-9822,7:00 AM to 9:00 PM,7:00 AM to 9:00 PM,7:00 AM to 9:00 PM,7:00 AM to 9:00 PM,7:00 AM to 9:00 PM,7:00 AM to 9:00 PM,7:00 AM to 9:00 PM,PST,Yelp,https://www.yelp.com/biz/smart-and-final-newhall
,Smart & Final,2511 Daly St,Los Angeles,CA,90031,34.075539,-118.216238,(323) 539-2400,6:00 AM - 10:00 PM,6:00 AM - 10:00 PM,6:00 AM - 10:00 PM,6:00 AM - 10:00 PM,6:00 AM - 10:00 PM,6:00 AM - 10:00 PM,6:00 AM - 10:00 PM,PST,Factual,http://locations.smartandfinal.com/CA/LINCOLN-HEIGHTS/511/
,Smart & Final,266 E Huntington Dr,,CA,91016,34.140274,-117.995941,(626) 358-3261,6:00 AM - 10:00 PM,6:00 AM - 10:00 PM,6:00 AM - 10:00 PM,6:00 AM - 10:00 PM,6:00 AM - 10:00 PM,6:00 AM - 10:00 PM,6:00 AM - 10:00 PM,PST,Factual,http://locations.smartandfinal.com/CA/MONROVIA/314/
,Smart & Final,2720 Beverly Blvd,Los Angeles,CA,90057,34.069821,-118.278205,(213) 382-6434,6:00 AM - 10:00 PM,6:00 AM - 10:00 PM,6:00 AM - 10:00 PM,6:00 AM - 10:00 PM,6:00 AM - 10:00 PM,6:00 AM - 10:00 PM,6:00 AM - 10:00 PM,PST,Factual,http://locations.smartandfinal.com/CA/LOS-ANGELES/459/
,Smart & Final,2775 Pacific Coast Hwy,Torrance,CA,90505,33.793626,-118.334807,(310) 539-3526,6:00 AM - 10:00 PM,6:00 AM - 10:00 PM,6:00 AM - 10:00 PM,6:00 AM - 10:00 PM,6:00 AM - 10:00 PM,6:00 AM - 10:00 PM,6:00 AM - 10:00 PM,PST,Factual,http://locations.smartandfinal.com/CA/TORRANCE/458/
,Smart & Final,280 E Compton Blvd,Compton,CA,90220,33.895954,-118.22095,,,,,,,,,,LACounty,
,Smart & Final,28207 Newhall Ranch Rd,Santa Clarita,CA,91355,34.442287,-118.577347,(661) 775-1416,6:00 AM - 10:00 PM,6:00 AM - 10:00 PM,6:00 AM - 10:00 PM,6:00 AM - 10:00 PM,6:00 AM - 10:00 PM,6:00 AM - 10:00 PM,6:00 AM - 10:00 PM,PST,Factual,http://locations.smartandfinal.com/CA/VALENCIA/483/
,Smart & Final,28500 S Western Ave,Rancho Palos Verdes,CA,90275,33.76112,-118.311794,(310) 832-4179,6:00 AM - 10:00 PM,6:00 AM - 10:00 PM,6:00 AM - 10:00 PM,6:00 AM - 10:00 PM,6:00 AM - 10:00 PM,6:00 AM - 10:00 PM,6:00 AM - 10:00 PM,PST,Factual,http://locations.smartandfinal.com/CA/RANCHO-PALOS-VERDES/306/
,Smart & Final,2929 Crenshaw Blvd,Los Angeles,CA,90016,34.028475,-118.335288,(323) 730-8300,6:00 AM - 10:00 PM,6:00 AM - 10:00 PM,6:00 AM - 10:00 PM,6:00 AM - 10:00 PM,6:00 AM - 10:00 PM,6:00 AM - 10:00 PM,6:00 AM - 10:00 PM,PST,Factual,http://locations.smartandfinal.com/CA/LOS-ANGELES/470/
,Smart & Final,2949 W Pico Blvd,Los Angeles,CA,90006,34.047376,-118.304926,(323) 732-9101,6:00 AM - 10:00 PM,6:00 AM - 10:00 PM,6:00 AM - 10:00 PM,6:00 AM - 10:00 PM,6:00 AM - 10:00 PM,6:00 AM - 10:00 PM,6:00 AM - 10:00 PM,PST,Factual,http://locations.smartandfinal.com/CA/LOS-ANGELES/364/
,Smart & Final,3123 Baldwin Park Blvd,Baldwin Park,CA,91706,34.07014,-117.979596,(626) 337-1434,6:00 AM - 10:00 PM,6:00 AM - 10:00 PM,6:00 AM - 10:00 PM,6:00 AM - 10:00 PM,6:00 AM - 10:00 PM,6:00 AM - 10:00 PM,6:00 AM - 10:00 PM,PST,Factual,http://locations.smartandfinal.com/CA/BALDWIN-PARK/481/
,Smart & Final,3299 E Colorado Blvd,Pasadena,CA,91107,34.146595,-118.083363,(626) 396-9677,6:00 AM - 10:00 PM,6:00 AM - 10:00 PM,6:00 AM - 10:00 PM,6:00 AM - 10:00 PM,6:00 AM - 10:00 PM,6:00 AM - 10:00 PM,6:00 AM - 10:00 PM,PST,Factual,http://locations.smartandfinal.com/CA/PASADENA/485/
,Smart & Final,332 S Pacific Coast Hwy,,CA,90277,33.836938,-118.385195,(310) 540-7344,7:00 AM - 9:00 PM,7:00 AM - 9:00 PM,7:00 AM - 9:00 PM,7:00 AM - 9:00 PM,7:00 AM - 9:00 PM,7:00 AM - 9:00 PM,7:00 AM - 9:00 PM,PST,Factual,http://locations.smartandfinal.com/CA/REDONDO-BEACH/322/
,Smart & Final,3607 S Vermont Ave,Los Angeles,CA,90007,34.02278,-118.29187,(323) 733-5875,6:00 AM - 10:00 PM,6:00 AM - 10:00 PM,6:00 AM - 10:00 PM,6:00 AM - 10:00 PM,6:00 AM - 10:00 PM,6:00 AM - 10:00 PM,6:00 AM - 10:00 PM,PST,Factual,http://locations.smartandfinal.com/CA/LOS-ANGELES/456/
,Smart & Final,3708 W Burbank Blvd,Burbank,CA,91505,34.174345,-118.350639,(818) 562-3234,6:00 AM - 10:00 PM,6:00 AM - 10:00 PM,6:00 AM - 10:00 PM,6:00 AM - 10:00 PM,6:00 AM - 10:00 PM,6:00 AM - 10:00 PM,6:00 AM - 10:00 PM,PST,Factual,http://locations.smartandfinal.com/CA/BURBANK/471/
,Smart & Final,3838 W Verdugo Ave,Burbank,CA,91505,34.160473,-118.34515,,,,,,,,,,LACounty,
,Smart & Final,39212 10Th St W,Palmdale,CA,93551,34.596225,-118.145485,(661) 947-2121,6:00 AM - 10:00 PM,6:00 AM - 10:00 PM,6:00 AM - 10:00 PM,6:00 AM - 10:00 PM,6:00 AM - 10:00 PM,6:00 AM - 10:00 PM,6:00 AM - 10:00 PM,PST,Factual,http://locations.smartandfinal.com/CA/PALMDALE/437/
,Smart & Final,401 N Fair,Pasadena,CA,91103,34.152622,-118.150911,(626) 568-8446,6:00 AM - 10:00 PM,6:00 AM - 10:00 PM,6:00 AM - 10:00 PM,6:00 AM - 10:00 PM,6:00 AM - 10:00 PM,6:00 AM - 10:00 PM,6:00 AM - 10:00 PM,PST,Factual,http://locations.smartandfinal.com/CA/PASADENA/370/
,Smart & Final,4237 Woodruff Ave,Lakewood,CA,90713,33.835237,-118.116617,(562) 429-0500,6:00 AM - 10:00 PM,6:00 AM - 10:00 PM,6:00 AM - 10:00 PM,6:00 AM - 10:00 PM,6:00 AM - 10:00 PM,6:00 AM - 10:00 PM,6:00 AM - 10:00 PM,PST,Factual,http://locations.smartandfinal.com/CA/LAKEWOOD/598/
,Smart & Final,4310 W 190Th St,,CA,90504,33.858214,-118.348521,(310) 793-9809,,,,,,,,PST,Factual,http://smartandfinal.com
,Smart & Final,4550 W Pico Blvd,Los Angeles,CA,90019,34.047584,-118.335996,(323) 549-9586,6:00 AM - 10:00 PM,6:00 AM - 10:00 PM,6:00 AM - 10:00 PM,6:00 AM - 10:00 PM,6:00 AM - 10:00 PM,6:00 AM - 10:00 PM,6:00 AM - 10:00 PM,PST,Factual,http://locations.smartandfinal.com/CA/LOS-ANGELES/444/
,Smart & Final,5029 Florence Ave,Bell,CA,90201,33.970201,-118.176981,(323) 562-3421,6:00 AM - 10:00 PM,6:00 AM - 10:00 PM,6:00 AM - 10:00 PM,6:00 AM - 10:00 PM,6:00 AM - 10:00 PM,6:00 AM - 10:00 PM,6:00 AM - 10:00 PM,PST,Factual,http://locations.smartandfinal.com/CA/BELL/319/
,Smart & Final,5038 W Ave N,Quartz Hill,CA,93536,34.63014,-118.221,(661) 722-6210,6:00 AM to 10:00 PM,6:00 AM to 10:00 PM,6:00 AM to 10:00 PM,6:00 AM to 10:00 PM,6:00 AM to 10:00 PM,6:00 AM to 10:00 PM,6:00 AM to 10:00 PM,PST,Yelp,https://www.yelp.com/biz/smart-and-final-extra-quartz-hill
,Smart & Final,5500 Sheila St,,CA,90040,33.999759,-118.161353,(323) 725-0791,7:00 AM - 9:00 PM,7:00 AM - 9:00 PM,7:00 AM - 9:00 PM,7:00 AM - 9:00 PM,7:00 AM - 9:00 PM,7:00 AM - 9:00 PM,7:00 AM - 9:00 PM,PST,Factual,http://smartandfinal.com
,Smart & Final,5555 Wilshire Blvd,Los Angeles,CA,90036,34.062732,-118.349608,(323) 939-0946,7:00 AM - 10:00 PM,7:00 AM - 10:00 PM,7:00 AM - 10:00 PM,7:00 AM - 10:00 PM,7:00 AM - 10:00 PM,7:00 AM - 10:00 PM,7:00 AM - 10:00 PM,PST,Factual,http://locations.smartandfinal.com/CA/LOS-ANGELES/371/
,Smart & Final,5700 E Olympic Blvd,,CA,90022,34.013946,-118.14825,(323) 888-4204,7:00 AM - 9:00 PM,7:00 AM - 9:00 PM,7:00 AM - 9:00 PM,7:00 AM - 9:00 PM,7:00 AM - 9:00 PM,7:00 AM - 9:00 PM,7:00 AM - 9:00 PM,PST,Factual,http://www.smartandfinal.com/
,Smart & Final,5925 Carson St,,CA,90713,33.832439,-118.11589,(562) 425-0666,8:00 AM - 5:00 PM,8:00 AM - 5:00 PM,8:00 AM - 5:00 PM,8:00 AM - 5:00 PM,8:00 AM - 5:00 PM,,,PST,Factual,http://www.smartandfinal.com/
,Smart & Final,604 Lincoln Blvd,Venice,CA,90291,34.000244,-118.464869,(310) 392-4954,6:00 AM - 10:00 PM,6:00 AM - 10:00 PM,6:00 AM - 10:00 PM,6:00 AM - 10:00 PM,6:00 AM - 10:00 PM,6:00 AM - 10:00 PM,6:00 AM - 10:00 PM,PST,Factual,http://locations.smartandfinal.com/CA/VENICE/332/
,Smart & Final,6060 N Figueroa St,Highland Park,CA,90042,34.111519,-118.188089,(323) 258-2199,7:00 AM - 9:00 PM,7:00 AM - 9:00 PM,7:00 AM - 9:00 PM,7:00 AM - 9:00 PM,7:00 AM - 9:00 PM,7:00 AM - 9:00 PM,7:00 AM - 9:00 PM,PST,Factual,http://locations.smartandfinal.com/CA/HIGHLAND-PARK/413/
,Smart & Final,6555 Foothill Blvd,Tujunga,CA,91042,34.245962,-118.27467,(818) 352-9399,6:00 AM - 10:00 PM,6:00 AM - 10:00 PM,6:00 AM - 10:00 PM,6:00 AM - 10:00 PM,6:00 AM - 10:00 PM,6:00 AM - 10:00 PM,6:00 AM - 10:00 PM,PST,Factual,http://locations.smartandfinal.com/CA/TUJUNGA/414/
,Smart & Final,6601 Laurel Canyon Blvd,N Hollywood,CA,91606,34.190585,-118.397188,(818) 982-6202,6:00 AM - 10:00 PM,6:00 AM - 10:00 PM,6:00 AM - 10:00 PM,6:00 AM - 10:00 PM,6:00 AM - 10:00 PM,6:00 AM - 10:00 PM,6:00 AM - 10:00 PM,PST,Factual,http://locations.smartandfinal.com/CA/NORTH-HOLLYWOOD/374/
,Smart & Final,6850 San Fernando Rd,,CA,91201,34.172866,-118.297533,(818) 238-0223,,,,,,,,PST,Factual,http://www.smartandfinal.com
,Smart & Final,7224 Mason Ave,Canoga Park,CA,91306,34.20195,-118.579,(818) 274-0111,6:00 AM to 10:00 PM,6:00 AM to 10:00 PM,6:00 AM to 10:00 PM,6:00 AM to 10:00 PM,6:00 AM to 10:00 PM,6:00 AM to 10:00 PM,6:00 AM to 10:00 PM,PST,Yelp,https://www.yelp.com/biz/smart-and-final-canoga-park-4
,Smart & Final,725 E Main St,Alhambra,CA,91801,34.098869,-118.119635,(626) 281-2049,6:00 AM - 10:00 PM,6:00 AM - 10:00 PM,6:00 AM - 10:00 PM,6:00 AM - 10:00 PM,6:00 AM - 10:00 PM,6:00 AM - 10:00 PM,6:00 AM - 10:00 PM,PST,Factual,http://locations.smartandfinal.com/CA/ALHAMBRA/321/
,Smart & Final,7635 Sepulveda Blvd,,CA,91405,34.209247,-118.46658,(818) 782-3049,,,,,,,,PST,Factual,http://www.smartandfinal.com
,Smart & Final,7815 Van Nuys Blvd,Van Nuys,CA,91402,34.212681,-118.449484,(818) 780-7222,6:00 AM - 10:00 PM,6:00 AM - 10:00 PM,6:00 AM - 10:00 PM,6:00 AM - 10:00 PM,6:00 AM - 10:00 PM,6:00 AM - 10:00 PM,6:00 AM - 10:00 PM,PST,Factual,http://locations.smartandfinal.com/CA/VAN-NUYS/349/
,Smart & Final,7930 Valley View St,Buena Park,CA,90620,33.84707,-118.027,(714) 521-3680,6:00 AM to 10:00 PM,6:00 AM to 10:00 PM,6:00 AM to 10:00 PM,6:00 AM to 10:00 PM,6:00 AM to 10:00 PM,6:00 AM to 10:00 PM,6:00 AM to 10:00 PM,PST,Yelp,https://www.yelp.com/biz/smart-and-final-buena-park-4
,Smart & Final,8137 S Vermont Ave,Los Angeles,CA,90044,33.964738,-118.291955,(323) 758-5734,6:00 AM - 10:00 PM,6:00 AM - 10:00 PM,6:00 AM - 10:00 PM,6:00 AM - 10:00 PM,6:00 AM - 10:00 PM,6:00 AM - 10:00 PM,6:00 AM - 10:00 PM,PST,Factual,http://locations.smartandfinal.com/CA/LOS-ANGELES/337/
,Smart & Final,820 N Western Ave,San Pedro,CA,90732,33.750414,-118.30861,(310) 831-7836,6:00 AM - 11:59 PM,6:00 AM - 11:59 PM,6:00 AM - 11:59 PM,6:00 AM - 11:59 PM,6:00 AM - 11:59 PM,6:00 AM - 11:59 PM,6:00 AM - 11:59 PM,PST,Factual,http://www.smartandfinal.com/
,Smart & Final,845 S Figueroa St,Los Angeles,CA,90017,34.047071,-118.262182,(213) 629-0039,6:00 AM - 10:00 PM,6:00 AM - 10:00 PM,6:00 AM - 10:00 PM,6:00 AM - 10:00 PM,6:00 AM - 10:00 PM,6:00 AM - 10:00 PM,6:00 AM - 10:00 PM,PST,Factual,http://locations.smartandfinal.com/CA/LOS-ANGELES/484/
,Smart & Final,939 N Western Ave,Los Angeles,CA,90029,34.087928,-118.30939,(323) 466-9289,6:00 AM - 10:00 PM,6:00 AM - 10:00 PM,6:00 AM - 10:00 PM,6:00 AM - 10:00 PM,6:00 AM - 10:00 PM,6:00 AM - 10:00 PM,6:00 AM - 10:00 PM,PST,Factual,http://locations.smartandfinal.com/CA/LOS-ANGELES/363/
,Sprouts Farmers Market,1011 N San Fernando Blvd,Burbank,CA,91504,34.187162,-118.318639,(818) 566-4089,7:00 AM - 10:00 PM,7:00 AM - 10:00 PM,7:00 AM - 10:00 PM,7:00 AM - 10:00 PM,7:00 AM - 10:00 PM,7:00 AM - 10:00 PM,7:00 AM - 10:00 PM,PST,Factual,http://www.sprouts.com
,Sprouts Farmers Market,1012 S Westlake Blvd,Thousand Oaks,CA,91361,34.152235,-118.827136,(805) 917-4200,7:00 AM - 10:00 PM,7:00 AM - 10:00 PM,7:00 AM - 10:00 PM,7:00 AM - 10:00 PM,7:00 AM - 10:00 PM,7:00 AM - 10:00 PM,7:00 AM - 10:00 PM,PST,Factual,http://www.sprouts.com
,Sprouts Farmers Market,10821 N Zelzah Ave,Granada Hills,CA,91344,34.26682,-118.524,(818) 366-0717,7:00 AM to 11:00 PM,7:00 AM to 11:00 PM,7:00 AM to 11:00 PM,7:00 AM to 11:00 PM,7:00 AM to 11:00 PM,7:00 AM to 11:00 PM,7:00 AM to 11:00 PM,PST,Yelp,https://www.yelp.com/biz/sprouts-farmers-market-granada-hills
,Sprouts Farmers Market,1431 W Imperial Hwy,La Habra,CA,90631,33.9175,-117.962,(562) 265-2151,7:00 AM to 11:00 PM,7:00 AM to 11:00 PM,7:00 AM to 11:00 PM,7:00 AM to 11:00 PM,7:00 AM to 11:00 PM,7:00 AM to 11:00 PM,7:00 AM to 11:00 PM,PST,Yelp,https://www.yelp.com/biz/sprouts-farmers-market-la-habra-6
,Sprouts Farmers Market,150 E Main St,Alhambra,CA,91801,34.09548,-118.125,(626) 863-1096,7:00 AM to 10:00 PM,7:00 AM to 10:00 PM,7:00 AM to 10:00 PM,7:00 AM to 10:00 PM,7:00 AM to 10:00 PM,7:00 AM to 10:00 PM,7:00 AM to 10:00 PM,PST,Yelp,https://www.yelp.com/biz/sprouts-farmers-market-alhambra
,Sprouts Farmers Market,1515 Hawthorne Blvd,Redondo Beach,CA,90278,33.86838,-118.354,(424) 903-7028,7:00 AM to 10:00 PM,7:00 AM to 10:00 PM,7:00 AM to 10:00 PM,7:00 AM to 10:00 PM,7:00 AM to 10:00 PM,7:00 AM to 10:00 PM,7:00 AM to 10:00 PM,PST,Yelp,https://www.yelp.com/biz/sprouts-farmers-market-redondo-beach
,Sprouts Farmers Market,15801 Whittier Blvd,Whittier,CA,90603,33.94433,-117.992,(562) 265-2109,7:00 AM to 10:00 PM,7:00 AM to 10:00 PM,7:00 AM to 10:00 PM,7:00 AM to 10:00 PM,7:00 AM to 10:00 PM,7:00 AM to 10:00 PM,7:00 AM to 10:00 PM,PST,Yelp,https://www.yelp.com/biz/sprouts-farmers-market-whittier
,Sprouts Farmers Market,1751 Westwood Blvd,Los Angeles,CA,90024,34.0508,-118.44,(310) 500-1192,7:00 AM to 10:00 PM,7:00 AM to 10:00 PM,7:00 AM to 10:00 PM,7:00 AM to 10:00 PM,7:00 AM to 10:00 PM,7:00 AM to 10:00 PM,7:00 AM to 10:00 PM,PST,LACity,https://www.yelp.com/biz/sprouts-farmers-market-los-angeles-2
,Sprouts Farmers Market,21821 Ventura Blvd,Woodland Hills,CA,91364,34.16967,-118.603,(818) 887-6473,7:00 AM to 10:00 PM,7:00 AM to 10:00 PM,7:00 AM to 10:00 PM,7:00 AM to 10:00 PM,7:00 AM to 10:00 PM,7:00 AM to 10:00 PM,7:00 AM to 10:00 PM,PST,LACity,https://www.yelp.com/biz/sprouts-farmers-market-woodland-hills
,Sprouts Farmers Market,24285 Magic Mountain Pkwy,Santa Clarita,CA,91355,34.41987,-118.559,(661) 414-1109,7:00 AM to 10:00 PM,7:00 AM to 10:00 PM,7:00 AM to 10:00 PM,7:00 AM to 10:00 PM,7:00 AM to 10:00 PM,7:00 AM to 10:00 PM,7:00 AM to 10:00 PM,PST,Yelp,https://www.yelp.com/biz/sprouts-farmers-market-santa-clarita-2
,Sprouts Farmers Market,3630 Grand Ave,Chino Hills,CA,91709,34.00303,-117.727,(909) 548-0440,7:00 AM to 10:00 PM,7:00 AM to 10:00 PM,7:00 AM to 10:00 PM,7:00 AM to 10:00 PM,7:00 AM to 10:00 PM,7:00 AM to 10:00 PM,7:00 AM to 10:00 PM,PST,Yelp,https://www.yelp.com/biz/sprouts-farmers-market-chino-hills
,Sprouts Farmers Market,39 North Rosemead Blvd,Pasadena,CA,91107,34.14724,-118.074,(626) 696-1290,7:00 AM to 10:00 PM,7:00 AM to 10:00 PM,7:00 AM to 10:00 PM,7:00 AM to 10:00 PM,7:00 AM to 10:00 PM,7:00 AM to 10:00 PM,7:00 AM to 10:00 PM,PST,Yelp,https://www.yelp.com/biz/sprouts-farmers-market-pasadena
,Sprouts Farmers Market,400 W Huntington Dr,Monrovia,CA,91016,34.140251,-118.00802,,,,,,,,,,LACounty,
,Sprouts Farmers Market,4230 Pacific Coast Hwy,Torrance,CA,90505,33.806655,-118.358995,(424) 903-7062,7:00 AM - 10:00 PM,7:00 AM - 10:00 PM,7:00 AM - 10:00 PM,7:00 AM - 10:00 PM,7:00 AM - 10:00 PM,7:00 AM - 10:00 PM,7:00 AM - 10:00 PM,PST,Factual,http://www.sprouts.com
,Sprouts Farmers Market,432 W Huntington Dr,,CA,91007,34.13132,-118.047243,(626) 358-6845,,,,,,,,PST,Factual,http://www.sprouts.com/
,Sprouts Farmers Market,5660 Sepulveda Blvd.,Culver City,CA,90230,33.98911,-118.395,(310) 591-1028,7:00 AM to 11:00 PM,7:00 AM to 11:00 PM,7:00 AM to 11:00 PM,7:00 AM to 11:00 PM,7:00 AM to 11:00 PM,7:00 AM to 11:00 PM,7:00 AM to 11:00 PM,PST,Yelp,https://www.yelp.com/biz/sprouts-farmers-market-culver-city
,Sprouts Farmers Market,600 W Hillcrest Dr,Thousand Oaks,CA,91360,34.1849,-118.892,(805) 716-4373,7:00 AM to 10:00 PM,7:00 AM to 10:00 PM,7:00 AM to 10:00 PM,7:00 AM to 10:00 PM,7:00 AM to 10:00 PM,7:00 AM to 10:00 PM,7:00 AM to 10:00 PM,PST,Yelp,https://www.yelp.com/biz/sprouts-farmers-market-thousand-oaks
,Sprouts Farmers Market,6605 Fallbrook Ave,West Hills,CA,91307,34.19078,-118.623,(818) 867-2104,7:00 AM to 10:00 PM,7:00 AM to 10:00 PM,7:00 AM to 10:00 PM,7:00 AM to 10:00 PM,7:00 AM to 10:00 PM,7:00 AM to 10:00 PM,7:00 AM to 10:00 PM,PST,Yelp,https://www.yelp.com/biz/sprouts-farmers-market-west-hills
,Sprouts Farmers Market,735 E Birch St,Brea,CA,92821,33.918837,-117.889324,(714) 482-1000,7:00 AM - 10:00 PM,7:00 AM - 10:00 PM,7:00 AM - 10:00 PM,7:00 AM - 10:00 PM,7:00 AM - 10:00 PM,7:00 AM - 10:00 PM,7:00 AM - 10:00 PM,PST,Factual,http://www.sprouts.com
,Sprouts Farmers Market,820 N Western Ave,San Pedro,CA,90732,33.75153,-118.309,(310) 831-7836,7:00 AM to 10:00 PM,7:00 AM to 10:00 PM,7:00 AM to 10:00 PM,7:00 AM to 10:00 PM,7:00 AM to 10:00 PM,7:00 AM to 10:00 PM,7:00 AM to 10:00 PM,PST,Yelp,https://www.yelp.com/biz/sprouts-farmers-market-san-pedro
,Sprouts Farmers Market,835 West Foothill Blvd,Claremont,CA,91711,34.10775,-117.73,(909) 267-1049,7:00 AM to 10:00 PM,7:00 AM to 10:00 PM,7:00 AM to 10:00 PM,7:00 AM to 10:00 PM,7:00 AM to 10:00 PM,7:00 AM to 10:00 PM,7:00 AM to 10:00 PM,PST,Yelp,https://www.yelp.com/biz/sprouts-farmers-market-claremont
,Sprouts Farmers Market,915 N La Brea Ave,Los Angeles,CA,90046,34.08726,-118.344,(323) 217-1642,7:00 AM to 10:00 PM,7:00 AM to 10:00 PM,7:00 AM to 10:00 PM,7:00 AM to 10:00 PM,7:00 AM to 10:00 PM,7:00 AM to 10:00 PM,7:00 AM to 10:00 PM,PST,Yelp,https://www.yelp.com/biz/sprouts-farmers-market-los-angeles-4
,Stater Bros. Markets,1023 North Grand Ave,Covina,CA,91724,34.098,-117.874,(626) 543-1104,,,,,,,,PST,Yelp,https://www.yelp.com/biz/stater-bros-covina
,Stater Bros. Markets,1740 E Ave J,Lancaster,CA,93535,34.68859,-118.096,n/a,,,,,,,,PST,Yelp,https://www.yelp.com/biz/stater-bros-lancaster-2
,Stater Bros. Markets,10051 Valley View St,,CA,90630,33.816074,-118.029489,(714) 761-1662,6:00 AM - 11:00 PM,6:00 AM - 11:00 PM,6:00 AM - 11:00 PM,6:00 AM - 11:00 PM,6:00 AM - 11:00 PM,6:00 AM - 11:00 PM,6:00 AM - 11:00 PM,PST,Factual,http://www.staterbros.com/
,Stater Bros. Markets,1025 E Amar Rd,West Covina,CA,91792,34.036455,-117.924966,(626) 968-6005,6:00 AM - 11:00 PM,6:00 AM - 11:00 PM,6:00 AM - 11:00 PM,6:00 AM - 11:00 PM,6:00 AM - 11:00 PM,6:00 AM - 11:00 PM,6:00 AM - 11:00 PM,PST,Factual,http://www.staterbros.com/
,Stater Bros. Markets,1040 E Bastanchury Rd,Fullerton,CA,92835,33.89828,-117.911,(714) 257-0460,6:00 AM to 11:00 PM,6:00 AM to 11:00 PM,6:00 AM to 11:00 PM,6:00 AM to 11:00 PM,6:00 AM to 11:00 PM,6:00 AM to 11:00 PM,6:00 AM to 11:00 PM,PST,Yelp,https://www.yelp.com/biz/stater-bros-markets-fullerton-5
,Stater Bros. Markets,1045 N Garey Ave,Pomona,CA,91767,34.068219,-117.753266,(909) 629-9244,6:00 AM - 11:00 PM,6:00 AM - 11:00 PM,6:00 AM - 11:00 PM,6:00 AM - 11:00 PM,6:00 AM - 11:00 PM,6:00 AM - 11:00 PM,6:00 AM - 11:00 PM,PST,Factual,http://www.staterbros.com/
,Stater Bros. Markets,1055 W Foothill Blvd,Claremont,CA,91711,34.107953,-117.73531,(909) 624-0619,6:00 AM - 11:00 PM,6:00 AM - 11:00 PM,6:00 AM - 11:00 PM,6:00 AM - 11:00 PM,6:00 AM - 11:00 PM,6:00 AM - 11:00 PM,6:00 AM - 11:00 PM,PST,Factual,http://www.staterbros.com/
,Stater Bros. Markets,1111 E Imperial Hwy,Placentia,CA,92870,33.90567,-117.843,(714) 528-6997,6:00 AM to 11:00 PM,6:00 AM to 11:00 PM,6:00 AM to 11:00 PM,6:00 AM to 11:00 PM,6:00 AM to 11:00 PM,6:00 AM to 11:00 PM,6:00 AM to 11:00 PM,PST,Yelp,https://www.yelp.com/biz/stater-bros-markets-placentia-2
,Stater Bros. Markets,11300 Firestone Blvd,,CA,90650,33.917938,-118.093138,(562) 929-1878,6:00 AM - 11:00 PM,6:00 AM - 11:00 PM,6:00 AM - 11:00 PM,6:00 AM - 11:00 PM,6:00 AM - 11:00 PM,6:00 AM - 11:00 PM,6:00 AM - 11:00 PM,PST,Factual,http://www.staterbros.com/
,Stater Bros. Markets,1145 E Alosta Ave,Azusa,CA,91702,34.129703,-117.882753,(626) 335-2310,6:00 AM - 11:00 PM,6:00 AM - 11:00 PM,6:00 AM - 11:00 PM,6:00 AM - 11:00 PM,6:00 AM - 11:00 PM,6:00 AM - 11:00 PM,6:00 AM - 11:00 PM,PST,Factual,http://www.staterbros.com/
,Stater Bros. Markets,11750 Whittier Blvd,Whittier,CA,90601,33.980157,-118.051515,(562) 696-3212,6:00 AM - 11:00 PM,6:00 AM - 11:00 PM,6:00 AM - 11:00 PM,6:00 AM - 11:00 PM,6:00 AM - 11:00 PM,6:00 AM - 11:00 PM,6:00 AM - 11:00 PM,PST,Factual,http://www.staterbros.com/
,Stater Bros. Markets,11815 Artesia Blvd,Artesia,CA,90701,33.87484,-118.08143,(562) 924-9429,6:00 AM - 11:59 PM,6:00 AM - 11:59 PM,6:00 AM - 11:59 PM,6:00 AM - 11:59 PM,6:00 AM - 11:59 PM,6:00 AM - 11:59 PM,6:00 AM - 11:59 PM,PST,Factual,http://www.staterbros.com/
,Stater Bros. Markets,12523 Alondra Blvd,,CA,90650,33.888437,-118.06556,(562) 921-3908,6:00 AM - 11:00 PM,6:00 AM - 11:00 PM,6:00 AM - 11:00 PM,6:00 AM - 11:00 PM,6:00 AM - 11:00 PM,6:00 AM - 11:00 PM,6:00 AM - 11:00 PM,PST,Factual,http://www.staterbros.com/
,Stater Bros. Markets,12800 La Mirada Blvd,La Mirada,CA,90638,33.915658,-118.010703,(562) 943-3783,6:00 AM - 11:00 PM,6:00 AM - 11:00 PM,6:00 AM - 11:00 PM,6:00 AM - 11:00 PM,6:00 AM - 11:00 PM,6:00 AM - 11:00 PM,6:00 AM - 11:00 PM,PST,Factual,http://www.staterbros.com/
,Stater Bros. Markets,14212 Mulberry Dr,Whittier,CA,90604,33.941326,-118.027877,(562) 941-7711,6:00 AM - 11:00 PM,6:00 AM - 11:00 PM,6:00 AM - 11:00 PM,6:00 AM - 11:00 PM,6:00 AM - 11:00 PM,6:00 AM - 11:00 PM,6:00 AM - 11:00 PM,PST,Factual,http://www.staterbros.com/
,Stater Bros. Markets,1425 W Arrow Hwy,San Dimas,CA,91773,34.107587,-117.836402,(909) 599-1374,6:00 AM - 11:00 PM,6:00 AM - 11:00 PM,6:00 AM - 11:00 PM,6:00 AM - 11:00 PM,6:00 AM - 11:00 PM,6:00 AM - 11:00 PM,6:00 AM - 11:00 PM,PST,Factual,http://www.staterbros.com/
,Stater Bros. Markets,16920 State Hwy 14,Mojave,CA,93501,35.06731,-118.177,(661) 824-2719,7:00 AM to 11:00 PM,7:00 AM to 11:00 PM,7:00 AM to 11:00 PM,7:00 AM to 11:00 PM,7:00 AM to 11:00 PM,7:00 AM to 11:00 PM,7:00 AM to 11:00 PM,PST,Yelp,https://www.yelp.com/biz/stater-bros-markets-mojave
,Stater Bros. Markets,17220 Lakewood Blvd,Bellflower,CA,90706,33.876019,-118.140457,(562) 866-2474,6:00 AM - 11:00 PM,6:00 AM - 11:00 PM,6:00 AM - 11:00 PM,6:00 AM - 11:00 PM,6:00 AM - 11:00 PM,6:00 AM - 11:00 PM,6:00 AM - 11:00 PM,PST,Factual,http://www.staterbros.com/
,Stater Bros. Markets,1830 E Route 66,Glendora,CA,91740,34.127,-117.83019,(626) 963-0513,6:00 AM - 11:00 PM,6:00 AM - 11:00 PM,6:00 AM - 11:00 PM,6:00 AM - 11:00 PM,6:00 AM - 11:00 PM,6:00 AM - 11:00 PM,6:00 AM - 11:00 PM,PST,Factual,http://www.staterbros.com/
,Stater Bros. Markets,1850 E Ave,Lancaster,CA,93535,34.688218,-118.095841,(661) 948-1885,6:00 AM - 11:00 PM,6:00 AM - 11:00 PM,6:00 AM - 11:00 PM,6:00 AM - 11:00 PM,6:00 AM - 11:00 PM,6:00 AM - 11:00 PM,6:00 AM - 11:00 PM,PST,Factual,http://www.staterbros.com/
,Stater Bros. Markets,19756 Colima Rd,Rowland Heights,CA,91748,33.985639,-117.870691,(909) 598-6619,6:00 AM - 11:00 PM,6:00 AM - 11:00 PM,6:00 AM - 11:00 PM,6:00 AM - 11:00 PM,6:00 AM - 11:00 PM,6:00 AM - 11:00 PM,6:00 AM - 11:00 PM,PST,Factual,http://www.staterbros.com/
,Stater Bros. Markets,20677 Amar Rd,Walnut,CA,91789,34.043046,-117.8517,(909) 598-6534,6:00 AM - 11:00 PM,6:00 AM - 11:00 PM,6:00 AM - 11:00 PM,6:00 AM - 11:00 PM,6:00 AM - 11:00 PM,6:00 AM - 11:00 PM,6:00 AM - 11:00 PM,PST,Factual,http://www.staterbros.com/
,Stater Bros. Markets,2090 Foothill Blvd,,CA,91750,34.112305,-117.766139,(909) 593-1591,6:00 AM - 11:00 PM,6:00 AM - 11:00 PM,6:00 AM - 11:00 PM,6:00 AM - 11:00 PM,6:00 AM - 11:00 PM,6:00 AM - 11:00 PM,6:00 AM - 11:00 PM,PST,Factual,http://www.staterbros.com/
,Stater Bros. Markets,2535 E Ave S,Palmdale,CA,93550,34.55946,-118.083,(661) 266-1076,6:00 AM - 11:59 PM,6:00 AM - 11:59 PM,6:00 AM - 11:59 PM,6:00 AM - 11:59 PM,6:00 AM - 11:59 PM,6:00 AM - 11:59 PM,6:00 AM - 11:59 PM,PST,Yelp,https://www.yelp.com/biz/stater-bros-markets-palmdale-3
,Stater Bros. Markets,26900 Sierra Hwy,Santa Clarita,CA,91321,34.403889,-118.464816,(661) 298-7988,6:00 AM - 11:59 PM,6:00 AM - 11:59 PM,6:00 AM - 11:59 PM,6:00 AM - 11:59 PM,6:00 AM - 11:59 PM,6:00 AM - 11:59 PM,6:00 AM - 11:59 PM,PST,Factual,http://www.staterbros.com/
,Stater Bros. Markets,2845 W Ave,Lancaster,CA,93536,34.661588,-118.182398,(661) 943-2545,6:00 AM - 11:00 PM,6:00 AM - 11:00 PM,6:00 AM - 11:00 PM,6:00 AM - 11:00 PM,6:00 AM - 11:00 PM,6:00 AM - 11:00 PM,6:00 AM - 11:00 PM,PST,Factual,http://www.staterbros.com/
,Stater Bros. Markets,37218 47Th St E,Palmdale,CA,93552,34.559231,-118.04349,(661) 285-9184,6:00 AM - 11:59 PM,6:00 AM - 11:59 PM,6:00 AM - 11:59 PM,6:00 AM - 11:59 PM,6:00 AM - 11:59 PM,6:00 AM - 11:59 PM,6:00 AM - 11:59 PM,PST,Factual,http://www.staterbros.com/
,Stater Bros. Markets,375 N Azusa Ave,West Covina,CA,91791,34.07714,-117.909591,(626) 915-4951,6:00 AM - 11:00 PM,6:00 AM - 11:00 PM,6:00 AM - 11:00 PM,6:00 AM - 11:00 PM,6:00 AM - 11:00 PM,6:00 AM - 11:00 PM,6:00 AM - 11:00 PM,PST,Factual,http://www.staterbros.com/
,Stater Bros. Markets,4059 Phelan Rd,Phelan,CA,92371,34.42537,-117.574,(760) 868-2315,6:00 AM to 11:00 PM,6:00 AM to 11:00 PM,6:00 AM to 11:00 PM,6:00 AM to 11:00 PM,6:00 AM to 11:00 PM,6:00 AM to 11:00 PM,6:00 AM to 11:00 PM,PST,Yelp,https://www.yelp.com/biz/stater-bros-markets-phelan
,Stater Bros. Markets,4721 Riverside Dr,Chino,CA,91710,34.018253,-117.701818,(909) 627-3015,6:00 AM - 11:00 PM,6:00 AM - 11:00 PM,6:00 AM - 11:00 PM,6:00 AM - 11:00 PM,6:00 AM - 11:00 PM,6:00 AM - 11:00 PM,6:00 AM - 11:00 PM,PST,Factual,http://www.staterbros.com/
,Stater Bros. Markets,6501 E Spring St,,CA,90808,33.811347,-118.105608,(562) 429-5611,6:00 AM - 11:00 PM,6:00 AM - 11:00 PM,6:00 AM - 11:00 PM,6:00 AM - 11:00 PM,6:00 AM - 11:00 PM,6:00 AM - 11:00 PM,6:00 AM - 11:00 PM,PST,Factual,http://www.staterbros.com/
,Stater Bros. Markets,6989 Schaefer Ave,,CA,91710,34.003549,-117.652535,(909) 627-6665,6:00 AM - 11:00 PM,6:00 AM - 11:00 PM,6:00 AM - 11:00 PM,6:00 AM - 11:00 PM,6:00 AM - 11:00 PM,6:00 AM - 11:00 PM,6:00 AM - 11:00 PM,PST,Factual,http://www.staterbros.com/
,Stater Bros. Markets,7814 Firestone Blvd,Downey,CA,90241,33.944035,-118.14197,(562) 923-0394,6:00 AM - 11:00 PM,6:00 AM - 11:00 PM,6:00 AM - 11:00 PM,6:00 AM - 11:00 PM,6:00 AM - 11:00 PM,6:00 AM - 11:00 PM,6:00 AM - 11:00 PM,PST,Factual,http://www.staterbros.com/
,Stater Bros. Markets,851 N Harbor Blvd,La Habra,CA,90631,33.939924,-117.934279,(562) 694-3896,6:00 AM - 11:00 PM,6:00 AM - 11:00 PM,6:00 AM - 11:00 PM,6:00 AM - 11:00 PM,6:00 AM - 11:00 PM,6:00 AM - 11:00 PM,6:00 AM - 11:00 PM,PST,Factual,http://www.staterbros.com/
,Stater Bros. Markets,8640 Alondra Blvd,Paramount,CA,90723,33.888763,-118.148354,(562) 633-5721,6:00 AM - 11:00 PM,6:00 AM - 11:00 PM,6:00 AM - 11:00 PM,6:00 AM - 11:00 PM,6:00 AM - 11:00 PM,6:00 AM - 11:00 PM,6:00 AM - 11:00 PM,PST,Factual,http://www.staterbros.com/
,Stater Bros. Markets,37218 47Th St E,Palmdale,CA,93550,34.55843,-118.04516,,,,,,,,,,LACounty,
,Stater Bros. Markets,1025 E Amar Rd,West Covina,CA,91792,34.035667,-117.92525,,,,,,,,,,LACounty,
,Stater Bros. Markets,14250 Chino Hills Pkwy,Chino Hills,CA,91709,33.993963,-117.758865,(909) 628-3400,9:00 AM - 9:00 PM,9:00 AM - 9:00 PM,9:00 AM - 9:00 PM,9:00 AM - 9:00 PM,9:00 AM - 9:00 PM,9:00 AM - 5:00 PM,9:00 AM - 5:00 PM,PST,Factual,http://www.staterbros.com/TopMenu/Pharmacy/Pharmacy.aspx
,Stater Bros. Markets,6989 Schaefer Ave,,CA,91710,34.003323,-117.652539,(909) 627-1472,9:00 AM - 9:00 PM,9:00 AM - 9:00 PM,9:00 AM - 9:00 PM,9:00 AM - 9:00 PM,9:00 AM - 9:00 PM,9:00 AM - 5:00 PM,9:00 AM - 5:00 PM,PST,Factual,http://www.staterbros.com/TopMenu/Pharmacy/Pharmacy.aspx
,Superior Grocers,12721 Valley View Ave,La Mirada,CA,90638,33.916175,-118.02999,(562) 802-3230,7:00 AM - 10:00 PM,7:00 AM - 10:00 PM,7:00 AM - 10:00 PM,7:00 AM - 10:00 PM,7:00 AM - 10:00 PM,7:00 AM - 10:00 PM,7:00 AM - 10:00 PM,PST,Factual,http://www.superiorgrocers.com/
,Superior Grocers,133 W Ave 45,Los Angeles,CA,90065,34.09674,-118.208,(323) 223-3878,7:00 AM to 10:00 PM,7:00 AM to 10:00 PM,7:00 AM to 10:00 PM,7:00 AM to 10:00 PM,7:00 AM to 10:00 PM,7:00 AM to 10:00 PM,7:00 AM to 10:00 PM,PST,Yelp,https://www.yelp.com/biz/superior-los-angeles-2
,Superior Grocers,1010 E Ave,Lancaster,CA,93535,34.688296,-118.111811,(661) 802-0063,12:00 AM - 11:59 PM,12:00 AM - 11:59 PM,12:00 AM - 11:59 PM,12:00 AM - 11:59 PM,12:00 AM - 11:59 PM,12:00 AM - 11:59 PM,12:00 AM - 11:59 PM,PST,Factual,http://superiorgrocers.com/
,Superior Grocers,10211 Avalon Blvd,Los Angeles,CA,90003,33.9436,-118.27,,,,,,,,,PST,LACity,
,Superior Grocers,10683 Valley Blvd,,CA,91731,34.07631,-118.0403,(626) 401-2469,7:00 AM - 10:00 PM,7:00 AM - 10:00 PM,7:00 AM - 10:00 PM,7:00 AM - 10:00 PM,7:00 AM - 10:00 PM,7:00 AM - 10:00 PM,7:00 AM - 10:00 PM,PST,Factual,http://www.superiorgrocers.com
,Superior Grocers,11202 Crenshaw Blvd,Inglewood,CA,90303,33.931926,-118.325334,(323) 757-6012,7:00 AM - 10:00 PM,7:00 AM - 10:00 PM,7:00 AM - 10:00 PM,7:00 AM - 10:00 PM,7:00 AM - 10:00 PM,7:00 AM - 10:00 PM,7:00 AM - 10:00 PM,PST,Factual,http://www.superiorgrocers.com/
,Superior Grocers,12375 Central Ave,,CA,91710,34.028364,-117.687973,(909) 590-5415,7:00 AM - 10:00 PM,7:00 AM - 10:00 PM,7:00 AM - 10:00 PM,7:00 AM - 10:00 PM,7:00 AM - 10:00 PM,7:00 AM - 10:00 PM,7:00 AM - 10:00 PM,PST,Factual,http://www.superiorsuperwarehouse.com/
,Superior Grocers,12600 Hawthorne Blvd,,CA,90250,33.917935,-118.352025,(310) 219-3345,,,,,,,,PST,Factual,
,Superior Grocers,133 W Ave 45,,CA,90065,34.096816,-118.207835,(323) 223-3878,7:00 AM - 10:00 PM,7:00 AM - 10:00 PM,7:00 AM - 10:00 PM,7:00 AM - 10:00 PM,7:00 AM - 10:00 PM,7:00 AM - 10:00 PM,7:00 AM - 10:00 PM,PST,Factual,http://www.superiorgrocers.com
,Superior Grocers,1420 S Redondo Blvd,Los Angeles,CA,90019,34.04726,-118.349,n/a,,,,,,,,PST,Yelp,https://www.yelp.com/biz/superior-grocers-los-angeles-6
,Superior Grocers,14433 Ramona Blvd,,CA,91706,34.088391,-117.959111,(626) 646-1835,7:00 AM - 10:00 PM,7:00 AM - 10:00 PM,7:00 AM - 10:00 PM,7:00 AM - 10:00 PM,7:00 AM - 10:00 PM,7:00 AM - 10:00 PM,7:00 AM - 10:00 PM,PST,Factual,http://www.superiorgrocers.com
,Superior Grocers,15000 Crenshaw Blvd,,CA,90249,33.894977,-118.325939,(310) 538-5411,,,,,,,,PST,Factual,http://www.superiorgrocers.com
,Superior Grocers,151 S Hacienda Blvd,City Of Industry,CA,91745,34.021904,-117.958668,(626) 855-4432,7:00 AM - 10:00 PM,7:00 AM - 10:00 PM,7:00 AM - 10:00 PM,7:00 AM - 10:00 PM,7:00 AM - 10:00 PM,7:00 AM - 10:00 PM,7:00 AM - 10:00 PM,PST,Factual,http://www.superiorgrocers.com/
,Superior Grocers,16100 Lakewood Blvd,Bellflower,CA,90706,33.888157,-118.141731,(562) 202-9066,7:00 AM - 10:00 PM,7:00 AM - 10:00 PM,7:00 AM - 10:00 PM,7:00 AM - 10:00 PM,7:00 AM - 10:00 PM,7:00 AM - 10:00 PM,7:00 AM - 10:00 PM,PST,Factual,http://www.superiorgrocers.com/
,Superior Grocers,3180 N Garey Ave,,CA,91767,34.105888,-117.747931,(909) 392-4695,6:00 AM - 10:30 PM,6:00 AM - 10:30 PM,6:00 AM - 10:30 PM,6:00 AM - 10:30 PM,6:00 AM - 10:30 PM,6:00 AM - 10:00 PM,6:00 AM - 10:00 PM,PST,Factual,http://www.superiorgrocers.com/
,Superior Grocers,3480 S La Brea Ave,Los Angeles,CA,90016,34.022595,-118.354655,(323) 294-4309,7:00 AM - 10:00 PM,7:00 AM - 10:00 PM,7:00 AM - 10:00 PM,7:00 AM - 10:00 PM,7:00 AM - 10:00 PM,7:00 AM - 10:00 PM,7:00 AM - 10:00 PM,PST,Factual,http://www.superiorgrocers.com/
,Superior Grocers,3600 E Cesar E Chavez Ave,Los Angeles,CA,90063,34.039854,-118.186442,(323) 269-1790,,,,,,,,PST,Factual,http://www.superiorgrocers.com/
,Superior Grocers,3831 Martin Luther King J Blvd,Lynwood,CA,90262,33.92802,-118.198,(310) 637-9415,7:00 AM - 10:00 PM,7:00 AM - 10:00 PM,7:00 AM - 10:00 PM,7:00 AM - 10:00 PM,7:00 AM - 10:00 PM,7:00 AM - 10:00 PM,7:00 AM - 10:00 PM,PST,Yelp,https://www.yelp.com/biz/superior-grocers-lynwood
,Superior Grocers,38360 20Th St E,Palmdale,CA,93550,34.57905,-118.092024,(661) 538-2260,7:00 AM - 10:00 PM,7:00 AM - 10:00 PM,7:00 AM - 10:00 PM,7:00 AM - 10:00 PM,7:00 AM - 10:00 PM,7:00 AM - 10:00 PM,7:00 AM - 10:00 PM,PST,Factual,http://www.superiorgrocers.com
,Superior Grocers,4308 E Slauson Ave,Maywood,CA,90270,33.98742,-118.19,(323) 560-1501,7:00 AM to 10:00 PM,7:00 AM to 10:00 PM,7:00 AM to 10:00 PM,7:00 AM to 10:00 PM,7:00 AM to 10:00 PM,7:00 AM to 10:00 PM,7:00 AM to 10:00 PM,PST,Yelp,https://www.yelp.com/biz/superior-grocers-maywood-2
,Superior Grocers,5824 S Vermont Ave,Los Angeles,CA,90044,33.988864,-118.291362,(323) 541-0107,6:00 AM - 7:00 AM,9:00 AM - 10:00 PM,9:00 AM - 10:00 PM,9:00 AM - 10:00 PM,9:00 AM - 10:00 PM,9:00 AM - 10:00 PM,9:00 AM - 10:00 PM,PST,Factual,http://www.superiorgrocers.com/
,Superior Grocers,6140 Lankershim Blvd,N Hollywood,CA,91606,34.182327,-118.384291,(818) 763-1235,7:00 AM - 10:00 PM,7:00 AM - 10:00 PM,7:00 AM - 10:00 PM,7:00 AM - 10:00 PM,7:00 AM - 10:00 PM,7:00 AM - 10:00 PM,7:00 AM - 10:00 PM,PST,Factual,http://www.superiorgrocers.com/
,Superior Grocers,7316 Compton Ave,Los Angeles,CA,90001,33.973323,-118.247031,(323) 589-6411,,,,,,,,PST,Factual,http://www.superiorgrocers.com/
,Superior Grocers,9801 Laurel Canyon Blvd,,CA,91331,34.247658,-118.420957,(818) 897-2604,6:00 AM - 10:00 PM,6:00 AM - 10:00 PM,6:00 AM - 10:00 PM,6:00 AM - 10:00 PM,6:00 AM - 10:00 PM,6:00 AM - 10:00 PM,6:00 AM - 10:00 PM,PST,Factual,http://www.superiorgrocers.com
,Superior Grocers,7300 Atlantic Ave,Cudahy,CA,90201,33.969479,-118.18781,,,,,,,,,,LACounty,
,Superior Grocers,1375 N Citrus Ave,Covina,CA,91722,34.104527,-117.8903,,,,,,,,,,LACounty,
,Superior Grocers,5450 Cherry Ave,Long Beach,CA,90805,33.855267,-118.16811,,,,,,,,,,LACounty,
,Superior Grocers,3480 S La Brea Ave,Los Angeles,CA,90016,34.02338,-118.35554,,,,,,,,,,LACounty,
,Superior Grocers,12721 Valley View Ave,La Mirada,CA,90638,33.916267,-118.02941,,,,,,,,,,LACounty,
,Trader Joe's,7260 N Rosemead Blvd,San Gabriel,CA,91775,34.12958,-118.072,(626) 285-5862,8:00 AM to 9:00 PM,8:00 AM to 9:00 PM,8:00 AM to 9:00 PM,8:00 AM to 9:00 PM,8:00 AM to 9:00 PM,8:00 AM to 9:00 PM,8:00 AM to 9:00 PM,PST,Yelp,https://www.yelp.com/biz/trader-joes-san-gabriel
,Trader Joe's,8000 W Sunset Blvd,Los Angeles,CA,90046,34.097557,-118.365364,(323) 822-7663,8:00 AM - 10:00 PM,8:00 AM - 10:00 PM,8:00 AM - 10:00 PM,8:00 AM - 10:00 PM,8:00 AM - 10:00 PM,8:00 AM - 10:00 PM,8:00 AM - 10:00 PM,PST,Factual,http://www.traderjoes.com/
,Trader Joe's,8500 Burton Way,Los Angeles,CA,90048,34.071342,-118.377044,(310) 248-2984,9:00 AM - 10:00 PM,9:00 AM - 10:00 PM,9:00 AM - 10:00 PM,9:00 AM - 10:00 PM,9:00 AM - 10:00 PM,9:00 AM - 10:00 PM,9:00 AM - 10:00 PM,PST,Factual,http://www.traderjoes.com/
,Trader Joe's,856 W Arrow Hwy,San Dimas,CA,91773,34.103763,-117.822111,(909) 305-4757,8:00 AM - 9:00 PM,8:00 AM - 9:00 PM,8:00 AM - 9:00 PM,8:00 AM - 9:00 PM,8:00 AM - 9:00 PM,8:00 AM - 9:00 PM,8:00 AM - 9:00 PM,PST,Factual,http://www.traderjoes.com/
,Trader Joe's,8611 Santa Monica Blvd,West Hollywood,CA,90069,34.088055,-118.3792,,,,,,,,,,LACounty,
,Trader Joe's,8645 S Sepulveda Blvd,Los Angeles,CA,90045,33.958673,-118.396658,(310) 338-9238,8:00 AM - 10:00 PM,8:00 AM - 10:00 PM,8:00 AM - 10:00 PM,8:00 AM - 10:00 PM,8:00 AM - 10:00 PM,8:00 AM - 10:00 PM,8:00 AM - 10:00 PM,PST,Factual,http://www.traderjoes.com/
,Trader Joe's,9290 Culver Blvd,Culver City,CA,90232,34.025133,-118.392904,(310) 202-1108,8:00 AM - 10:00 PM,8:00 AM - 10:00 PM,8:00 AM - 10:00 PM,8:00 AM - 10:00 PM,8:00 AM - 10:00 PM,8:00 AM - 10:00 PM,8:00 AM - 10:00 PM,PST,Factual,http://www.traderjoes.com/
,Vallarta Supermarket,10859 Oxnard St,North Hollywood,CA,91606,34.180154,-118.367732,(818) 509-2932,6:30 AM - 11:00 PM,6:30 AM - 11:00 PM,6:30 AM - 11:00 PM,6:30 AM - 11:00 PM,6:30 AM - 11:00 PM,6:30 AM - 11:00 PM,6:30 AM - 11:00 PM,PST,Factual,http://www.vallartasupermarkets.com/
,Vallarta Supermarket,10950 Sherman Way,,CA,91505,34.200509,-118.368698,(818) 846-1717,6:30 AM - 11:00 PM,6:30 AM - 11:00 PM,6:30 AM - 11:00 PM,6:30 AM - 11:00 PM,6:30 AM - 11:00 PM,6:30 AM - 11:00 PM,6:30 AM - 11:00 PM,PST,Factual,http://www.vallartasupermarkets.com/
,Vallarta Supermarket,1111 W Ave,,CA,93534,34.704057,-118.149777,(661) 951-0233,7:00 AM - 10:00 PM,7:00 AM - 10:00 PM,7:00 AM - 10:00 PM,7:00 AM - 10:00 PM,7:00 AM - 10:00 PM,7:00 AM - 10:00 PM,7:00 AM - 10:00 PM,PST,Factual,
,Vallarta Supermarket,13051 Victory Blvd,North Hollywood,CA,91606,34.188643,-118.417369,(818) 760-7021,6:30 AM - 11:00 PM,6:30 AM - 11:00 PM,6:30 AM - 11:00 PM,6:30 AM - 11:00 PM,6:30 AM - 11:00 PM,6:30 AM - 11:00 PM,6:30 AM - 11:00 PM,PST,Factual,http://www.vallartasupermarkets.com/
,Vallarta Supermarket,13715 Vanowen St,Van Nuys,CA,91405,34.194276,-118.432298,(818) 782-8266,7:00 AM - 10:00 PM,7:00 AM - 10:00 PM,7:00 AM - 10:00 PM,7:00 AM - 10:00 PM,7:00 AM - 10:00 PM,7:00 AM - 10:00 PM,7:00 AM - 10:00 PM,PST,Factual,http://www.vallartasupermarkets.com/
,Vallarta Supermarket,13820 Foothill Blvd,,CA,91342,34.310376,-118.434979,(818) 362-7577,6:30 AM - 11:00 PM,6:30 AM - 11:00 PM,6:30 AM - 11:00 PM,6:30 AM - 11:00 PM,6:30 AM - 11:00 PM,6:30 AM - 11:00 PM,6:30 AM - 11:00 PM,PST,Factual,http://www.vallartasupermarkets.com
,Vallarta Supermarket,13940 Ramona Blvd,Baldwin Park,CA,91706,34.083578,-117.968737,(626) 480-8960,7:00 AM - 11:00 PM,7:00 AM - 11:00 PM,7:00 AM - 11:00 PM,7:00 AM - 11:00 PM,7:00 AM - 11:00 PM,7:00 AM - 11:00 PM,7:00 AM - 11:00 PM,PST,Factual,http://www.vallartasupermarkets.com/
,Vallarta Supermarket,1801 W Ave,,CA,93534,34.704437,-118.163766,(661) 945-3034,7:00 AM - 10:00 PM,7:00 AM - 10:00 PM,7:00 AM - 10:00 PM,7:00 AM - 10:00 PM,7:00 AM - 10:00 PM,7:00 AM - 10:00 PM,7:00 AM - 10:00 PM,PST,Factual,http://www.vallartasupermarkets.com/
,Vallarta Supermarket,19725 Vanowen St,Winnetka,CA,91306,34.194184,-118.563063,(818) 716-5704,7:00 AM - 11:00 PM,7:00 AM - 11:00 PM,7:00 AM - 11:00 PM,7:00 AM - 11:00 PM,7:00 AM - 11:00 PM,7:00 AM - 11:00 PM,7:00 AM - 11:00 PM,PST,Factual,http://www.vallartasupermarkets.com/
,Vallarta Supermarket,21208 Sherman Way,Canoga Park,CA,91303,34.200625,-118.594901,(818) 346-1665,7:00 AM - 11:00 PM,7:00 AM - 11:00 PM,7:00 AM - 11:00 PM,7:00 AM - 11:00 PM,7:00 AM - 11:00 PM,7:00 AM - 11:00 PM,7:00 AM - 11:00 PM,PST,Factual,http://www.vallartasupermarkets.com/
,Vallarta Supermarket,21555 Roscoe Blvd,Canoga Park,CA,91304,34.220141,-118.600617,(818) 704-1717,12:00 AM - 11:59 PM,12:00 AM - 11:59 PM,12:00 AM - 11:59 PM,12:00 AM - 11:59 PM,12:00 AM - 11:59 PM,12:00 AM - 11:59 PM,12:00 AM - 11:59 PM,PST,Factual,http://www.vallartasupermarkets.com
,Vallarta Supermarket,23449 Lyons Ave,,CA,91355,34.380193,-118.543309,(661) 260-1110,6:30 AM - 11:00 PM,6:30 AM - 11:00 PM,6:30 AM - 11:00 PM,6:30 AM - 11:00 PM,6:30 AM - 11:00 PM,6:30 AM - 11:00 PM,6:30 AM - 11:00 PM,PST,Factual,http://www.vallartasupermarkets.com/
,Vallarta Supermarket,8453 Reseda Blvd,Northridge,CA,91324,34.224166,-118.536322,(818) 576-1280,7:00 AM - 11:00 PM,7:00 AM - 11:00 PM,7:00 AM - 11:00 PM,7:00 AM - 11:00 PM,7:00 AM - 11:00 PM,7:00 AM - 11:00 PM,7:00 AM - 11:00 PM,PST,Factual,http://www.vallartasupermarkets.com/
,Vallarta Supermarket,8510 Painter Ave,Whittier,CA,90602,33.960987,-118.034528,(562) 758-6464,10:00 AM - 9:00 PM,10:00 AM - 10:00 PM,9:00 AM - 10:00 PM,9:00 AM - 10:00 PM,9:00 AM - 10:00 PM,9:00 AM - 9:00 PM,10:00 AM - 9:00 PM,PST,Factual,http://www.vallartasupermarkets.com/
,Vallarta Supermarket,21208 Sherman Way,Canoga Park,CA,91303,34.201,-118.59,,,,,,,,,PST,LACity,
,Vallarta Supermarket,13820 Foothill Blvd,Sylmar,CA,91342,34.3105,-118.43,,,,,,,,,PST,LACity,
,Vallarta Supermarket,21555 Roscoe Blvd,Canoga Park,CA,91304,34.219776,-118.6003,,,,,,,,,,LACounty,
,Vallarta Supermarket,1803 E Palmdale Blvd,Palmdale,CA,93550,34.580138,-118.096104,(661) 273-1120,7:00 AM - 10:00 PM,7:00 AM - 10:00 PM,7:00 AM - 10:00 PM,7:00 AM - 10:00 PM,7:00 AM - 10:00 PM,7:00 AM - 10:00 PM,7:00 AM - 10:00 PM,PST,Factual,http://www.vallartasupermarkets.com/
,Vallarta Supermarket,3425 Whittier Blvd,Los Angeles,CA,90023,34.027386,-118.2,,,,,,,,,,LACounty,
,Vallarta Supermarket,8510 Painter Ave,Whittier,CA,90602,33.961197,-118.03477,,,,,,,,,,LACounty,
,Vallarta Supermarket,10147 San Fernando Rd,,CA,91331,34.254683,-118.410107,(818) 890-5975,7:00 AM - 10:00 PM,7:00 AM - 10:00 PM,7:00 AM - 10:00 PM,7:00 AM - 10:00 PM,7:00 AM - 10:00 PM,7:00 AM - 10:00 PM,7:00 AM - 10:00 PM,PST,Factual,
,Vallarta Supermarket,10175 San Fernando Rd,,CA,91331,34.255126,-118.410788,(818) 897-9700,7:00 AM - 10:00 PM,7:00 AM - 10:00 PM,7:00 AM - 10:00 PM,7:00 AM - 10:00 PM,7:00 AM - 10:00 PM,7:00 AM - 10:00 PM,7:00 AM - 10:00 PM,PST,Factual,http://www.vallartasupermarkets.com/
,Vallarta Supermarket,12881 Bradley Ave,Sylmar,CA,91342,34.303401,-118.458613,(818) 898-0088,6:00 AM - 11:00 PM,6:00 AM - 11:00 PM,6:00 AM - 11:00 PM,6:00 AM - 11:00 PM,6:00 AM - 11:00 PM,6:00 AM - 11:00 PM,6:00 AM - 11:00 PM,PST,Factual,http://www.vallartasupermarkets.com/
,Vallarta Supermarket,13051 Victory Blvd,Valley Glen,CA,91606,34.18881,-118.417,(818) 760-7021,6:30 AM to 11:00 PM,6:30 AM to 11:00 PM,6:30 AM to 11:00 PM,6:30 AM to 11:00 PM,6:30 AM to 11:00 PM,6:30 AM to 11:00 PM,6:30 AM to 11:00 PM,PST,Yelp,https://www.yelp.com/biz/vallarta-supermarkets-valley-glen
,Vallarta Supermarket,1801 West Ave I,Lancaster,CA,93534,34.70473,-118.164,(661) 951-0233,7:00 AM to 11:00 PM,7:00 AM to 11:00 PM,7:00 AM to 11:00 PM,7:00 AM to 11:00 PM,7:00 AM to 11:00 PM,7:00 AM to 11:00 PM,7:00 AM to 11:00 PM,PST,Yelp,https://www.yelp.com/biz/vallarta-supermarkets-lancaster-2
,Vallarta Supermarket,1803 E Palmdale Blvd,Palmdale,CA,93550,34.57921,-118.122,(661) 273-1120,7:00 AM to 11:00 PM,7:00 AM to 11:00 PM,7:00 AM to 11:00 PM,7:00 AM to 11:00 PM,7:00 AM to 11:00 PM,7:00 AM to 11:00 PM,7:00 AM to 11:00 PM,PST,Yelp,https://www.yelp.com/biz/vallarta-supermarkets-palmdale-2
,Vallarta Supermarket,18571 Soledad Canyon,Canyon Country,CA,91351,34.41672,-118.457,(661) 347-7390,7:00 AM to 11:00 PM,7:00 AM to 11:00 PM,7:00 AM to 11:00 PM,7:00 AM to 11:00 PM,7:00 AM to 11:00 PM,7:00 AM to 11:00 PM,7:00 AM to 11:00 PM,PST,Yelp,https://www.yelp.com/biz/vallarta-supermarkets-canyon-country
,Vallarta Supermarket,23449 Lyons Ave,Valencia,CA,91355,34.38047,-118.544,(661) 260-1110,7:00 AM to 11:00 PM,7:00 AM to 11:00 PM,7:00 AM to 11:00 PM,7:00 AM to 11:00 PM,7:00 AM to 11:00 PM,7:00 AM to 11:00 PM,7:00 AM to 11:00 PM,PST,Yelp,https://www.yelp.com/biz/vallarta-supermarkets-valencia
,Vallarta Supermarket,3425 Whittier Blvd,Los Angeles,CA,90023,34.027731,-118.199958,(323) 980-4400,7:00 AM - 11:00 PM,7:00 AM - 11:00 PM,7:00 AM - 11:00 PM,7:00 AM - 11:00 PM,7:00 AM - 11:00 PM,7:00 AM - 11:00 PM,7:00 AM - 11:00 PM,PST,Factual,http://www.vallartasupermarkets.com/
,Vallarta Supermarket,38118 47Th St E,Palmdale,CA,93552,34.5745,-118.043714,(661) 208-4276,7:00 AM - 10:00 PM,7:00 AM - 10:00 PM,7:00 AM - 10:00 PM,7:00 AM - 10:00 PM,7:00 AM - 10:00 PM,7:00 AM - 10:00 PM,7:00 AM - 10:00 PM,PST,Factual,http://www.vallartasupermarkets.com/
,Vallarta Supermarket,757 South Workman St,San Fernando,CA,91340,34.28247,-118.453,(818) 365-8603,6:30 AM to 11:00 PM,6:30 AM to 11:00 PM,6:30 AM to 11:00 PM,6:30 AM to 11:00 PM,6:30 AM to 11:00 PM,6:30 AM to 11:00 PM,6:30 AM to 11:00 PM,PST,Yelp,https://www.yelp.com/biz/vallarta-supermarkets-san-fernando
,Vallarta Supermarket,815 E Ave,Lancaster,CA,93535,34.676215,-118.113782,(661) 974-7002,7:00 AM - 11:00 PM,7:00 AM - 11:00 PM,7:00 AM - 11:00 PM,7:00 AM - 11:00 PM,7:00 AM - 11:00 PM,7:00 AM - 11:00 PM,7:00 AM - 11:00 PM,PST,Factual,http://www.vallartasupermarkets.com/
,Vallarta Supermarket,9011 Woodman Ave,Arleta,CA,91331,34.233305,-118.439403,(818) 920-2700,7:00 AM - 11:00 PM,7:00 AM - 11:00 PM,7:00 AM - 11:00 PM,7:00 AM - 11:00 PM,7:00 AM - 11:00 PM,7:00 AM - 11:00 PM,7:00 AM - 11:00 PM,PST,Factual,http://www.vallartasupermarkets.com/
,Vallarta Supermarket,9136 Sepulveda Bl,North Hills,CA,91343,34.23657,-118.467,(818) 892-0923,7:00 AM to 11:00 PM,7:00 AM to 11:00 PM,7:00 AM to 11:00 PM,7:00 AM to 11:00 PM,7:00 AM to 11:00 PM,7:00 AM to 11:00 PM,7:00 AM to 11:00 PM,PST,Yelp,https://www.yelp.com/biz/vallarta-supermarkets-north-hills
,Vallarta Supermarket,8453 Reseda Blvd,Northridge,CA,91324,34.224369,-118.53612,,,,,,,,,,LACounty,
,Vons,24160 Lyons Ave,Newhall,CA,91321,34.377424,-118.557071,(661) 259-9214,6:00 AM - 11:59 PM,6:00 AM - 11:59 PM,6:00 AM - 11:59 PM,6:00 AM - 11:59 PM,6:00 AM - 11:59 PM,6:00 AM - 11:59 PM,6:00 AM - 11:59 PM,PST,Factual,http://www.vons.com/
,Vons,24325 Crenshaw Blvd,Torrance,CA,90505,33.805163,-118.330448,(310) 784-1020,12:00 AM - 1:00 AM,12:00 AM - 1:00 AM,12:00 AM - 1:00 AM,12:00 AM - 1:00 AM,12:00 AM - 1:00 AM,12:00 AM - 1:00 AM,12:00 AM - 1:00 AM,PST,Factual,http://www.vons.com/
,Vons,245 Palos Verdes Blvd,Redondo Beach,CA,90277,33.816355,-118.385968,(310) 378-7434,6:00 AM - 11:59 PM,6:00 AM - 11:59 PM,6:00 AM - 11:59 PM,6:00 AM - 11:59 PM,6:00 AM - 11:59 PM,6:00 AM - 11:59 PM,6:00 AM - 11:59 PM,PST,Factual,http://www.vons.com/
,Vons,25850 The Old Rd,Valencia,CA,91381,34.391116,-118.572104,(661) 254-3570,5:00 AM - 11:59 PM,5:00 AM - 11:59 PM,5:00 AM - 11:59 PM,5:00 AM - 11:59 PM,5:00 AM - 11:59 PM,5:00 AM - 11:59 PM,5:00 AM - 11:59 PM,PST,Factual,http://www.vons.com/
,Vons,26518 Bouquet Canyon Rd,Santa Clarita,CA,91350,34.426954,-118.535219,(661) 296-0031,6:00 AM - 11:59 PM,6:00 AM - 11:59 PM,6:00 AM - 11:59 PM,6:00 AM - 11:59 PM,6:00 AM - 11:59 PM,6:00 AM - 11:59 PM,6:00 AM - 11:59 PM,PST,Factual,http://www.vons.com/
,Vons,2725 Agoura Rd,Westlake Village,CA,91361,34.152016,-118.825855,(805) 497-1921,6:00 AM - 11:00 PM,6:00 AM - 11:00 PM,6:00 AM - 11:00 PM,6:00 AM - 11:00 PM,6:00 AM - 11:00 PM,6:00 AM - 11:00 PM,6:00 AM - 11:00 PM,PST,Factual,http://www.vons.com/
,Vons,301 N Pass Ave,Burbank,CA,91505,34.154786,-118.346548,(818) 848-9542,12:00 AM - 11:59 PM,12:00 AM - 11:59 PM,12:00 AM - 11:59 PM,12:00 AM - 11:59 PM,12:00 AM - 11:59 PM,12:00 AM - 11:59 PM,12:00 AM - 11:59 PM,PST,Factual,http://www.vons.com/
,Vons,3027 Rancho Vista Blvd,Palmdale,CA,93551,34.603388,-118.184269,(661) 265-9285,5:00 AM - 11:59 PM,5:00 AM - 11:59 PM,5:00 AM - 11:59 PM,5:00 AM - 11:59 PM,5:00 AM - 11:59 PM,5:00 AM - 11:59 PM,5:00 AM - 11:59 PM,PST,Factual,http://www.vons.com/
,Vons,311 W Los Feliz Rd,Glendale,CA,91204,34.129469,-118.258562,(818) 246-7161,6:00 AM - 11:59 PM,6:00 AM - 11:59 PM,6:00 AM - 11:59 PM,6:00 AM - 11:59 PM,6:00 AM - 11:59 PM,6:00 AM - 11:59 PM,6:00 AM - 11:59 PM,PST,Factual,http://www.vons.com/
,Vons,3118 S Sepulveda Blvd,Los Angeles,CA,90034,34.026604,-118.426917,(310) 477-8717,12:00 AM - 1:00 AM,12:00 AM - 1:00 AM,12:00 AM - 1:00 AM,12:00 AM - 1:00 AM,12:00 AM - 1:00 AM,12:00 AM - 1:00 AM,12:00 AM - 1:00 AM,PST,Factual,http://www.vons.com/
,Vons,3233 Foothill Blvd,La Crescenta,CA,91214,34.231175,-118.250165,(818) 658-1018,5:00 AM - 11:59 PM,5:00 AM - 11:59 PM,5:00 AM - 11:59 PM,5:00 AM - 11:59 PM,5:00 AM - 11:59 PM,5:00 AM - 11:59 PM,5:00 AM - 11:59 PM,PST,Factual,http://www.vons.com/
,Vons,3415 Boxford Ave,,CA,90040,33.985671,-118.151232,(323) 889-4240,6:00 AM - 11:59 PM,6:00 AM - 11:59 PM,6:00 AM - 11:59 PM,6:00 AM - 11:59 PM,6:00 AM - 11:59 PM,6:00 AM - 11:59 PM,6:00 AM - 11:59 PM,PST,Factual,
,Vons,3461 W 3Rd St,Los Angeles,CA,90020,34.069933,-118.290906,(213) 384-6552,12:00 AM - 11:59 PM,12:00 AM - 11:59 PM,12:00 AM - 11:59 PM,12:00 AM - 11:59 PM,12:00 AM - 11:59 PM,12:00 AM - 11:59 PM,12:00 AM - 11:59 PM,PST,Factual,http://www.vons.com/
,Vons,350 N Lemon Ave,Walnut,CA,91789,34.019572,-117.863948,(909) 595-6465,6:00 AM - 11:59 PM,6:00 AM - 11:59 PM,6:00 AM - 11:59 PM,6:00 AM - 11:59 PM,6:00 AM - 11:59 PM,6:00 AM - 11:59 PM,6:00 AM - 11:59 PM,PST,Factual,http://www.vons.com/
,Vons,3900 E Ocean Blvd,Long Beach,CA,90803,33.759913,-118.147335,(562) 987-3122,6:00 AM - 11:59 PM,6:00 AM - 11:59 PM,6:00 AM - 11:59 PM,6:00 AM - 11:59 PM,6:00 AM - 11:59 PM,6:00 AM - 11:59 PM,6:00 AM - 11:59 PM,PST,Factual,http://www.vons.com/
,Vons,4001 Inglewood Ave,Redondo Beach,CA,90278,33.892887,-118.362456,(310) 349-0860,6:00 AM - 11:59 PM,6:00 AM - 11:59 PM,6:00 AM - 11:59 PM,6:00 AM - 11:59 PM,6:00 AM - 11:59 PM,6:00 AM - 11:59 PM,6:00 AM - 11:59 PM,PST,Factual,http://www.vons.com/
,Vons,4030 Centinela Ave,Los Angeles,CA,90066,33.99872,-118.429,(310) 391-1503,12:00 AM - 1:00 AM,12:00 AM - 1:00 AM,12:00 AM - 1:00 AM,12:00 AM - 1:00 AM,12:00 AM - 1:00 AM,12:00 AM - 1:00 AM,12:00 AM - 1:00 AM,PST,Yelp,https://www.yelp.com/biz/vons-los-angeles-14
,Vons,4033 Laurel Canyon Blvd,Studio City,CA,91604,34.144562,-118.396149,(818) 985-5401,12:00 AM - 12:00 AM,12:00 AM - 12:00 AM,12:00 AM - 12:00 AM,12:00 AM - 12:00 AM,12:00 AM - 12:00 AM,12:00 AM - 12:00 AM,12:00 AM - 12:00 AM,PST,Factual,http://www.vons.com/
,Vons,4033 W Ave,Lancaster,CA,93536,34.6616,-118.202394,(661) 722-7291,5:00 AM - 11:59 PM,5:00 AM - 11:59 PM,5:00 AM - 11:59 PM,5:00 AM - 11:59 PM,5:00 AM - 11:59 PM,5:00 AM - 11:59 PM,5:00 AM - 11:59 PM,PST,Factual,http://www.vons.com/
,Vons,410 Manhattan Beach Blvd,Manhattan Beach,CA,90266,33.885062,-118.407903,(310) 379-3051,6:00 AM - 10:00 PM,6:00 AM - 10:00 PM,6:00 AM - 10:00 PM,6:00 AM - 10:00 PM,6:00 AM - 10:00 PM,6:00 AM - 10:00 PM,6:00 AM - 10:00 PM,PST,Factual,http://www.vons.com/
,Vons,4226 Woodruff Ave,Lakewood,CA,90713,33.835049,-118.115154,(562) 496-4144,5:00 AM - 11:59 PM,5:00 AM - 11:59 PM,5:00 AM - 11:59 PM,5:00 AM - 11:59 PM,5:00 AM - 11:59 PM,5:00 AM - 11:59 PM,5:00 AM - 11:59 PM,PST,Factual,http://www.vons.com/
,Vons,431 E Arrow Hwy,Glendora,CA,91740,34.107856,-117.856481,(626) 914-6015,6:00 AM - 11:00 PM,6:00 AM - 11:00 PM,6:00 AM - 11:00 PM,6:00 AM - 11:00 PM,6:00 AM - 11:00 PM,6:00 AM - 11:00 PM,6:00 AM - 11:00 PM,PST,Factual,http://www.vons.com/
,Vons,435 W Foothill Blvd,Glendora,CA,91740,34.137553,-117.871593,(626) 963-2913,5:00 AM - 11:59 PM,5:00 AM - 11:59 PM,5:00 AM - 11:59 PM,5:00 AM - 11:59 PM,5:00 AM - 11:59 PM,5:00 AM - 11:59 PM,5:00 AM - 11:59 PM,PST,Factual,http://www.vons.com/
,Vons,4520 W Sunset Blvd,Los Angeles,CA,90027,34.097042,-118.28801,(323) 662-8107,12:00 AM - 12:00 AM,12:00 AM - 12:00 AM,12:00 AM - 12:00 AM,12:00 AM - 12:00 AM,12:00 AM - 12:00 AM,12:00 AM - 12:00 AM,12:00 AM - 12:00 AM,PST,Factual,http://www.vons.com/
,Vons,4550 Atlantic Ave,Long Beach,CA,90807,33.840971,-118.182753,(562) 984-1421,6:00 AM - 11:59 PM,6:00 AM - 11:59 PM,6:00 AM - 11:59 PM,6:00 AM - 11:59 PM,6:00 AM - 11:59 PM,6:00 AM - 11:59 PM,6:00 AM - 11:59 PM,PST,Factual,http://www.vons.com/
,Vons,4705 Torrance Blvd,Torrance,CA,90503,33.83837,-118.363514,(310) 371-1172,6:00 AM - 11:59 PM,6:00 AM - 11:59 PM,6:00 AM - 11:59 PM,6:00 AM - 11:59 PM,6:00 AM - 11:59 PM,6:00 AM - 11:59 PM,6:00 AM - 11:59 PM,PST,Factual,http://www.vons.com/
,Vons,500 E Manchester Blvd,Inglewood,CA,90301,33.960248,-118.349158,(310) 677-0286,12:00 AM - 1:00 AM,12:00 AM - 1:00 AM,12:00 AM - 1:00 AM,12:00 AM - 1:00 AM,12:00 AM - 1:00 AM,12:00 AM - 1:00 AM,12:00 AM - 1:00 AM,PST,Factual,http://www.vons.com/
,Vons,550 E Baseline Rd,Claremont,CA,91711,34.120575,-117.70601,(909) 621-4644,5:00 AM - 11:59 PM,5:00 AM - 11:59 PM,5:00 AM - 11:59 PM,5:00 AM - 11:59 PM,5:00 AM - 11:59 PM,5:00 AM - 11:59 PM,5:00 AM - 11:59 PM,PST,Factual,http://www.vons.com/
,Vons,5500 Woodruff Ave,Lakewood,CA,90713,33.85696,-118.117,,,,,,,,,,LACounty,
,Vons,561 N Glendale Ave,Glendale,CA,91206,34.154952,-118.244768,(818) 242-5926,6:00 AM - 11:59 PM,6:00 AM - 11:59 PM,6:00 AM - 11:59 PM,6:00 AM - 11:59 PM,6:00 AM - 11:59 PM,6:00 AM - 11:59 PM,6:00 AM - 11:59 PM,PST,Factual,http://www.vons.com/
,Vons,5671 Kanan Rd,Agoura Hills,CA,91301,34.153604,-118.759179,(818) 991-2857,6:00 AM - 11:59 PM,6:00 AM - 11:59 PM,6:00 AM - 11:59 PM,6:00 AM - 11:59 PM,6:00 AM - 11:59 PM,6:00 AM - 11:59 PM,6:00 AM - 11:59 PM,PST,Factual,http://www.vons.com/
,Vons,600 E Broadway,,CA,90802,33.768928,-118.184349,(562) 491-1210,6:00 AM - 11:59 PM,6:00 AM - 11:59 PM,6:00 AM - 11:59 PM,6:00 AM - 11:59 PM,6:00 AM - 11:59 PM,6:00 AM - 11:59 PM,6:00 AM - 11:59 PM,PST,Factual,http://www.vons.com/
,Vons,655 N Fair Oaks Ave,Pasadena,CA,91103,34.156718,-118.152178,(626) 578-1233,6:00 AM - 11:59 PM,6:00 AM - 11:59 PM,6:00 AM - 11:59 PM,6:00 AM - 11:59 PM,6:00 AM - 11:59 PM,6:00 AM - 11:59 PM,6:00 AM - 11:59 PM,PST,Factual,http://www.vons.com/
,Vons,6571 W 80Th St,Los Angeles,CA,90045,33.969341,-118.405548,(310) 641-9423,6:00 AM - 10:00 PM,6:00 AM - 10:00 PM,6:00 AM - 10:00 PM,6:00 AM - 10:00 PM,6:00 AM - 10:00 PM,6:00 AM - 10:00 PM,6:00 AM - 10:00 PM,PST,Factual,http://www.vons.com/
,Vons,710 Broadway,Santa Monica,CA,90401,34.017245,-118.490096,(310) 260-0260,12:00 AM - 1:00 AM,12:00 AM - 1:00 AM,12:00 AM - 1:00 AM,12:00 AM - 1:00 AM,12:00 AM - 1:00 AM,12:00 AM - 1:00 AM,12:00 AM - 1:00 AM,PST,Factual,http://www.vons.com/
,Vons,715 Pier Ave,Hermosa Beach,CA,90254,33.865976,-118.394504,(310) 374-4484,12:00 AM - 11:59 PM,12:00 AM - 11:59 PM,12:00 AM - 11:59 PM,12:00 AM - 11:59 PM,12:00 AM - 11:59 PM,12:00 AM - 11:59 PM,12:00 AM - 11:59 PM,PST,Factual,http://www.vons.com/
,Vons,7311 N Figueroa St,Los Angeles,CA,90041,34.136164,-118.189497,(323) 254-5716,5:00 AM - 11:59 PM,5:00 AM - 11:59 PM,5:00 AM - 11:59 PM,5:00 AM - 11:59 PM,5:00 AM - 11:59 PM,5:00 AM - 11:59 PM,5:00 AM - 11:59 PM,PST,Factual,http://www.vons.com/
,Vons,745 E Naomi Ave,Arcadia,CA,91007,34.12499,-118.058,(626) 446-9483,,,,,,,,PST,Yelp,https://www.yelp.com/biz/vons-arcadia-4
,Vons,777 S Glendora Ave,West Covina,CA,91790,34.06226,-117.931898,(626) 337-5615,6:00 AM - 11:00 PM,6:00 AM - 11:00 PM,6:00 AM - 11:00 PM,6:00 AM - 11:00 PM,6:00 AM - 11:00 PM,6:00 AM - 11:00 PM,6:00 AM - 11:00 PM,PST,Factual,http://www.vons.com/
,Vons,7789 Foothill Blvd,Tujunga,CA,91042,34.259133,-118.301436,(818) 353-4917,6:00 AM - 11:59 PM,6:00 AM - 11:59 PM,6:00 AM - 11:59 PM,6:00 AM - 11:59 PM,6:00 AM - 11:59 PM,6:00 AM - 11:59 PM,6:00 AM - 11:59 PM,PST,Factual,http://www.vons.com/
,Vons,780 N Brea Blvd,Brea,CA,92821,33.930582,-117.893086,(714) 529-4941,6:00 AM - 11:59 PM,6:00 AM - 11:59 PM,6:00 AM - 11:59 PM,6:00 AM - 11:59 PM,6:00 AM - 11:59 PM,6:00 AM - 11:59 PM,6:00 AM - 11:59 PM,PST,Factual,http://www.vons.com/
,Vons,804 W Beverly Blvd,,CA,90640,34.020262,-118.106007,(323) 722-1706,6:00 AM - 11:59 PM,6:00 AM - 11:59 PM,6:00 AM - 11:59 PM,6:00 AM - 11:59 PM,6:00 AM - 11:59 PM,6:00 AM - 11:59 PM,6:00 AM - 11:59 PM,PST,Factual,http://www.vons.com/
,Vons,8201 Topanga Canyon Blvd,Canoga Park,CA,91304,34.217954,-118.607293,(818) 703-5959,6:00 AM - 11:59 PM,6:00 AM - 11:59 PM,6:00 AM - 11:59 PM,6:00 AM - 11:59 PM,6:00 AM - 11:59 PM,6:00 AM - 11:59 PM,6:00 AM - 11:59 PM,PST,Factual,http://www.vons.com/
,Vons,845 E California Blvd,Pasadena,CA,91106,34.135906,-118.13291,,,,,,,,,,LACounty,
,Vons,9119 Reseda Blvd,Northridge,CA,91324,34.236026,-118.537727,(818) 349-2494,6:00 AM - 11:59 PM,6:00 AM - 11:59 PM,6:00 AM - 11:59 PM,6:00 AM - 11:59 PM,6:00 AM - 11:59 PM,6:00 AM - 11:59 PM,6:00 AM - 11:59 PM,PST,Factual,http://www.vons.com/
,Vons,932 E Badillo St,Covina,CA,91724,34.085141,-117.871443,(626) 967-0072,6:00 AM - 11:59 PM,6:00 AM - 11:59 PM,6:00 AM - 11:59 PM,6:00 AM - 11:59 PM,6:00 AM - 11:59 PM,6:00 AM - 11:59 PM,6:00 AM - 11:59 PM,PST,Factual,http://www.vons.com/
,Vons,9860 National Blvd,Los Angeles,CA,90034,34.03016,-118.401463,(310) 836-4161,6:00 AM - 11:59 PM,6:00 AM - 11:59 PM,6:00 AM - 11:59 PM,6:00 AM - 11:59 PM,6:00 AM - 11:59 PM,6:00 AM - 11:59 PM,6:00 AM - 11:59 PM,PST,Factual,http://www.vons.com/
,Walmart,1000 E Imperial Hwy,La Habra,CA,90631,33.91617,-117.935,(714) 869-0530,8:00 AM to 10:00 PM,8:00 AM to 10:00 PM,8:00 AM to 10:00 PM,8:00 AM to 10:00 PM,8:00 AM to 10:00 PM,8:00 AM to 10:00 PM,8:00 AM to 10:00 PM,PST,Yelp,https://www.yelp.com/biz/walmart-la-habra-4
,Walmart,1180 S Diamond Bar Blvd,Diamond Bar,CA,91765,34.00151,-117.811,(909) 378-4055,6:00 AM to 11:00 PM,6:00 AM to 11:00 PM,6:00 AM to 11:00 PM,6:00 AM to 11:00 PM,6:00 AM to 11:00 PM,6:00 AM to 11:00 PM,6:00 AM to 11:00 PM,PST,Yelp,https://www.yelp.com/biz/walmart-neighborhood-market-diamond-bar
,Walmart,12270 Paramount Blvd,Downey,CA,90242,33.92861,-118.148,(800) 881-9180,,,,,,,,PST,Yelp,https://www.yelp.com/biz/walmart-neighborhood-market-downey-3
,Walmart,12701 Towne Center Dr,Cerritos,CA,90703,33.87214,-118.062,(562) 924-1468,6:00 AM to 11:00 PM,6:00 AM to 11:00 PM,6:00 AM to 11:00 PM,6:00 AM to 11:00 PM,6:00 AM to 11:00 PM,6:00 AM to 11:00 PM,6:00 AM to 11:00 PM,PST,Yelp,https://www.yelp.com/biz/walmart-supercenter-cerritos-2
,Walmart,1275 N Azusa Ave,Covina,CA,91722,34.10332,-117.909,(626) 339-4161,,,,,,,,PST,Yelp,https://www.yelp.com/biz/walmart-supercenter-covina-2
,Walmart,1301 N Victory Pl,Burbank,CA,91502,34.18838,-118.326,(747) 261-7243,,,,,,,,PST,Yelp,https://www.yelp.com/biz/walmart-supercenter-burbank-3
,Walmart,13310 Telegraph Rd,Santa Fe Springs,CA,90670,33.94027,-118.049,(562) 946-6343,6:00 AM to 11:00 PM,6:00 AM to 11:00 PM,6:00 AM to 11:00 PM,6:00 AM to 11:00 PM,6:00 AM to 11:00 PM,6:00 AM to 11:00 PM,6:00 AM to 11:00 PM,PST,Yelp,https://www.yelp.com/biz/walmart-supercenter-santa-fe-springs
,Walmart,1340 S Beach Blvd,La Habra,CA,90631,33.91529,-117.967,(562) 694-2707,,,,,,,,PST,Yelp,https://www.yelp.com/biz/walmart-supercenter-la-habra-2
,Walmart,1425 N Hacienda Blvd,La Puente,CA,91744,34.0472,-117.95,(626) 917-0549,8:00 AM to 10:00 PM,8:00 AM to 10:00 PM,8:00 AM to 10:00 PM,8:00 AM to 10:00 PM,8:00 AM to 10:00 PM,8:00 AM to 10:00 PM,8:00 AM to 10:00 PM,PST,Yelp,https://www.yelp.com/biz/walmart-neighborhood-market-la-puente-3
,Walmart,14501 Lakewood Blvd,Paramount,CA,90723,33.90209,-118.145,(562) 531-8240,,,,,,,,PST,Yelp,https://www.yelp.com/biz/walmart-paramount-2
,Walmart,14865 Telegraph Road,La Mirada,CA,90638,33.9185,-118.013,(562) 567-6488,8:00 AM to 11:00 PM,8:00 AM to 11:00 PM,8:00 AM to 11:00 PM,8:00 AM to 11:00 PM,8:00 AM to 11:00 PM,8:00 AM to 11:00 PM,8:00 AM to 11:00 PM,PST,Yelp,https://www.yelp.com/biz/walmart-neighborhood-market-la-mirada-2
,Walmart,1600 S Mountain Ave,Duarte,CA,91010,34.13434,-117.984,(626) 359-7708,,,,,,,,PST,Yelp,https://www.yelp.com/biz/walmart-duarte
,Walmart,17150 Gale Ave,City Of Industry,CA,91745,33.9989,-117.932,(626) 854-1166,,,,,,,,PST,Yelp,https://www.yelp.com/biz/walmart-supercenter-city-of-industry
,Walmart,1731 E Ave J,Lancaster,CA,93535,34.69254,-118.098,(661) 945-7848,,,,,,,,PST,Yelp,https://www.yelp.com/biz/walmart-supercenter-lancaster-10
,Walmart,19340 Hawthorne Blvd,Torrance,CA,90503,33.85551,-118.354,(310) 750-1983,7:00 AM to 10:00 PM,7:00 AM to 10:00 PM,7:00 AM to 10:00 PM,7:00 AM to 10:00 PM,7:00 AM to 10:00 PM,7:00 AM to 10:00 PM,7:00 AM to 10:00 PM,PST,Yelp,https://www.yelp.com/biz/walmart-neighborhood-market-torrance-3
,Walmart,1950 Auto Centre Dr,Glendora,CA,91740,34.11665,-117.827,(909) 592-4866,,,,,,,,PST,Yelp,https://www.yelp.com/biz/walmart-glendora-2
,Walmart,19503 Normandie Ave,Torrance,CA,90501,33.854172,-118.29929,,,,,,,,,,LACounty,
,Walmart,19821 Rinaldi St,Porter Ranch,CA,91326,34.27811,-118.567,(818) 832-0643,,,,,,,,PST,Yelp,https://www.yelp.com/biz/walmart-supercenter-porter-ranch
,Walmart,20226 Avalon Blvd,Carson,CA,90746,33.84808,-118.26469,,,,,,,,,,LACounty,
,Walmart,22015 Hawthorne Blvd,Torrance,CA,90503,33.82794,-118.353,(310) 750-0179,7:00 AM to 10:00 PM,7:00 AM to 10:00 PM,7:00 AM to 10:00 PM,7:00 AM to 10:00 PM,7:00 AM to 10:00 PM,7:00 AM to 10:00 PM,8:00 AM to 9:00 PM,PST,Yelp,https://www.yelp.com/biz/walmart-torrance-5
,Walmart,25450 The Old Rd,Stevenson Ranch,CA,91381,34.38344,-118.569,(661) 253-1911,,,,,,,,PST,Yelp,https://www.yelp.com/biz/walmart-stevenson-ranch-2
,Walmart,2595 E Imperial Hwy,Brea,CA,92821,33.91125,-117.864,(714) 529-0596,7:00 AM to 11:00 PM,7:00 AM to 11:00 PM,7:00 AM to 11:00 PM,7:00 AM to 11:00 PM,7:00 AM to 11:00 PM,7:00 AM to 11:00 PM,7:00 AM to 11:00 PM,PST,Yelp,https://www.yelp.com/biz/walmart-brea-3
,Walmart,26471 Carl Boyer Dr,Santa Clarita,CA,91350,34.41425,-118.506,(661) 259-0863,,,,,,,,PST,Yelp,https://www.yelp.com/biz/walmart-supercenter-santa-clarita-3
,Walmart,2753 E Eastland Center Dr,West Covina,CA,91791,34.07368,-117.886,(626) 332-4608,,,,,,,,PST,Yelp,https://www.yelp.com/biz/walmart-supercenter-west-covina
,Walmart,2770 Carson St,Lakewood,CA,90712,33.8304,-118.159,(562) 429-6239,,,,,,,,PST,Yelp,https://www.yelp.com/biz/walmart-supercenter-lakewood-4
,Walmart,27931 Kelly Johnson Pkwy,Santa Clarita,CA,91355,34.44414,-118.577,(661) 294-5211,,,,,,,,PST,Yelp,https://www.yelp.com/biz/walmart-supercenter-santa-clarita-2
,Walmart,3250 Big Dalton Ave,Baldwin Park,CA,91706,34.07197,-117.963,(626) 814-2235,,,,,,,,PST,Yelp,https://www.yelp.com/biz/walmart-supercenter-baldwin-park-2
,Walmart,37140 47Th St E,Palmdale,CA,93552,34.55664,-118.043,(661) 533-0248,,,,,,,,PST,Yelp,https://www.yelp.com/biz/walmart-supercenter-palmdale
,Walmart,3875 Rancho Vista Blvd,Palmdale,CA,93551,34.61401,-118.2,(661) 202-3602,,,,,,,,PST,Yelp,https://www.yelp.com/biz/walmart-neighborhood-market-palmdale
,Walmart,40130 10Th St W,Palmdale,CA,93551,34.61145,-118.145,(661) 267-6496,,,,,,,,PST,Yelp,https://www.yelp.com/biz/walmart-supercenter-palmdale-2
,Walmart,512 North Ventu Park Road,Thousand Oaks,CA,91320,34.18635,-118.909,(805) 262-3406,8:00 AM to 10:00 PM,8:00 AM to 10:00 PM,8:00 AM to 10:00 PM,8:00 AM to 10:00 PM,8:00 AM to 10:00 PM,8:00 AM to 10:00 PM,8:00 AM to 10:00 PM,PST,Yelp,https://www.yelp.com/biz/walmart-neighborhood-market-thousand-oaks-2
,Walmart,5420 Lapalma Ave,La Palma,CA,90623,33.84619,-118.038,(714) 822-3152,6:00 AM to 11:00 PM,6:00 AM to 11:00 PM,6:00 AM to 11:00 PM,6:00 AM to 11:00 PM,6:00 AM to 11:00 PM,6:00 AM to 11:00 PM,6:00 AM to 11:00 PM,PST,Yelp,https://www.yelp.com/biz/walmart-neighborhood-market-la-palma-4
,Walmart,6433 Fallbrook Ave,West Hills,CA,91307,34.18818,-118.625,(818) 719-8602,7:00 AM to 11:00 PM,7:00 AM to 11:00 PM,7:00 AM to 11:00 PM,7:00 AM to 11:00 PM,7:00 AM to 11:00 PM,7:00 AM to 11:00 PM,7:00 AM to 11:00 PM,PST,Yelp,https://www.yelp.com/biz/walmart-west-hills-2
,Walmart,7250 Carson Blvd,Long Beach,CA,90808,33.82935,-118.091,(562) 425-5113,,,,,,,,PST,Yelp,https://www.yelp.com/biz/walmart-supercenter-long-beach
,Walmart,778 E. Arrow Hwy,Pomona,CA,91767,34.08963,-117.737,(909) 962-5011,,,,,,,,PST,Yelp,https://www.yelp.com/biz/walmart-neighborhood-market-pomona-2
,Walmart,80 Rio Rancho Rd,Pomona,CA,91766,34.027706,-117.7616,,,,,,,,,,LACounty,
,Walmart,8333 Van Nuys Blvd,Panorama City,CA,91402,34.22261,-118.45,(818) 830-0350,7:00 AM to 11:00 PM,7:00 AM to 11:00 PM,7:00 AM to 11:00 PM,7:00 AM to 11:00 PM,7:00 AM to 11:00 PM,7:00 AM to 11:00 PM,7:00 AM to 11:00 PM,PST,Yelp,https://www.yelp.com/biz/walmart-panorama-city-2
,Walmart,8500 Washington Blvd,Pico Rivera,CA,90660,33.986698,-118.10377,,,,,,,,,,LACounty,
,Walmart,9001 Apollo Way,Downey,CA,90242,33.92394,-118.147,(562) 803-3507,9:00 AM to 9:00 PM,9:00 AM to 9:00 PM,9:00 AM to 9:00 PM,9:00 AM to 9:00 PM,9:00 AM to 9:00 PM,9:00 AM to 7:00 PM,10:00 AM to 6:00 PM,PST,Yelp,https://www.yelp.com/biz/walmart-superstore-downey-2
,Whole Foods,1050 Gayley Ave,Los Angeles,CA,90024,34.061202,-118.446957,(310) 824-0858,7:00 AM - 10:00 PM,7:00 AM - 10:00 PM,7:00 AM - 10:00 PM,7:00 AM - 10:00 PM,7:00 AM - 10:00 PM,7:00 AM - 10:00 PM,7:00 AM - 10:00 PM,PST,Factual,http://www.wholefoodsmarket.com
,Whole Foods,11666 National Blvd,Los Angeles,CA,90064,34.022584,-118.438003,(310) 996-8840,7:00 AM - 10:00 PM,7:00 AM - 10:00 PM,7:00 AM - 10:00 PM,7:00 AM - 10:00 PM,7:00 AM - 10:00 PM,7:00 AM - 10:00 PM,7:00 AM - 10:00 PM,PST,Factual,http://www.wholefoodsmarket.com
,Whole Foods,11737 San Vicente Blvd,Los Angeles,CA,90049,34.053641,-118.467413,(310) 826-4433,7:00 AM - 10:00 PM,7:00 AM - 10:00 PM,7:00 AM - 10:00 PM,7:00 AM - 10:00 PM,7:00 AM - 10:00 PM,7:00 AM - 10:00 PM,7:00 AM - 10:00 PM,PST,Factual,http://www.wholefoodsmarket.com
,Whole Foods,12746 W Jefferson Blvd,Los Angeles,CA,90094,33.971901,-118.430473,(310) 862-9900,7:00 AM - 10:00 PM,7:00 AM - 10:00 PM,7:00 AM - 10:00 PM,7:00 AM - 10:00 PM,7:00 AM - 10:00 PM,7:00 AM - 10:00 PM,7:00 AM - 10:00 PM,PST,Factual,http://www.wholefoodsmarket.com
,Whole Foods,12905 Riverside Dr,Sherman Oaks,CA,91423,34.15807,-118.414,(818) 762-5548,7:00 AM to 10:00 PM,7:00 AM to 10:00 PM,7:00 AM to 10:00 PM,7:00 AM to 10:00 PM,7:00 AM to 10:00 PM,7:00 AM to 10:00 PM,7:00 AM to 10:00 PM,PST,Yelp,https://www.yelp.com/biz/whole-foods-market-sherman-oaks-3
,Whole Foods,1425 Montana Ave,Santa Monica,CA,90403,34.032898,-118.494738,(310) 576-4707,7:00 AM - 10:00 PM,7:00 AM - 10:00 PM,7:00 AM - 10:00 PM,7:00 AM - 10:00 PM,7:00 AM - 10:00 PM,7:00 AM - 10:00 PM,7:00 AM - 10:00 PM,PST,Factual,http://www.wholefoodsmarket.com
,Whole Foods,18700 Ventura Blvd,Tarzana,CA,91356,34.17025,-118.541,(818) 578-7840,7:00 AM to 11:00 PM,7:00 AM to 11:00 PM,7:00 AM to 11:00 PM,7:00 AM to 11:00 PM,7:00 AM to 11:00 PM,7:00 AM to 11:00 PM,7:00 AM to 11:00 PM,PST,Yelp,https://www.yelp.com/biz/whole-foods-market-tarzana
,Whole Foods,19340 Rinaldi St,Northridge,CA,91326,34.273369,-118.554954,(818) 363-3933,7:00 AM - 10:00 PM,7:00 AM - 10:00 PM,7:00 AM - 10:00 PM,7:00 AM - 10:00 PM,7:00 AM - 10:00 PM,7:00 AM - 10:00 PM,7:00 AM - 10:00 PM,PST,Factual,http://www.wholefoodsmarket.com
,Whole Foods,21347 Ventura Blvd,Woodland Hills,CA,91364,34.168181,-118.596977,(818) 610-0000,7:00 AM - 10:00 PM,7:00 AM - 10:00 PM,7:00 AM - 10:00 PM,7:00 AM - 10:00 PM,7:00 AM - 10:00 PM,7:00 AM - 10:00 PM,7:00 AM - 10:00 PM,PST,Factual,http://www.wholefoodsmarket.com
,Whole Foods,2201 Wilshire Blvd,Santa Monica,CA,90403,34.033283,-118.481351,(310) 315-0662,7:00 AM - 10:00 PM,7:00 AM - 10:00 PM,7:00 AM - 10:00 PM,7:00 AM - 10:00 PM,7:00 AM - 10:00 PM,7:00 AM - 10:00 PM,7:00 AM - 10:00 PM,PST,Factual,http://www.wholefoodsmarket.com
,Whole Foods,225 Lincoln Blvd,Venice,CA,90291,34.001093,-118.469848,(310) 566-9480,6:30 AM - 10:00 PM,6:30 AM - 10:00 PM,6:30 AM - 10:00 PM,6:30 AM - 10:00 PM,6:30 AM - 10:00 PM,6:30 AM - 10:00 PM,6:30 AM - 10:00 PM,PST,Factual,http://www.wholefoodsmarket.com
,Whole Foods,239 N Crescent Dr,Beverly Hills,CA,90210,34.069532,-118.39848,(310) 274-3360,7:00 AM - 10:00 PM,7:00 AM - 10:00 PM,7:00 AM - 10:00 PM,7:00 AM - 10:00 PM,7:00 AM - 10:00 PM,7:00 AM - 10:00 PM,7:00 AM - 10:00 PM,PST,Factual,http://www.wholefoodsmarket.com
,Whole Foods,24130 Valencia Blvd,Valencia,CA,91355,34.412512,-118.555931,(661) 260-2377,8:00 AM - 10:00 PM,8:00 AM - 10:00 PM,8:00 AM - 10:00 PM,8:00 AM - 10:00 PM,8:00 AM - 10:00 PM,8:00 AM - 10:00 PM,8:00 AM - 10:00 PM,PST,Factual,http://www.wholefoodsmarket.com
,Whole Foods,2655 Pacific Coast Hwy,Torrance,CA,90505,33.792512,-118.331021,(310) 257-8700,8:00 AM - 9:00 PM,8:00 AM - 9:00 PM,8:00 AM - 9:00 PM,8:00 AM - 9:00 PM,8:00 AM - 9:00 PM,8:00 AM - 9:00 PM,8:00 AM - 9:00 PM,PST,Factual,http://www.wholefoodsmarket.com
,Whole Foods,3301 E Imperial Highway,Brea,CA,92823,33.90973,-117.852,(714) 528-7400,7:00 AM to 10:00 PM,7:00 AM to 10:00 PM,7:00 AM to 10:00 PM,7:00 AM to 10:00 PM,7:00 AM to 10:00 PM,7:00 AM to 10:00 PM,7:00 AM to 10:00 PM,PST,Yelp,https://www.yelp.com/biz/whole-foods-market-brea
,Whole Foods,331 N Glendale Ave,Glendale,CA,91206,34.151032,-118.245948,(818) 548-3695,7:00 AM - 10:00 PM,7:00 AM - 10:00 PM,7:00 AM - 10:00 PM,7:00 AM - 10:00 PM,7:00 AM - 10:00 PM,7:00 AM - 10:00 PM,7:00 AM - 10:00 PM,PST,Factual,http://www.wholefoodsmarket.com
,Whole Foods,3751 E Foothill Blvd,Pasadena,CA,91107,34.151171,-118.072188,(626) 351-5994,7:00 AM - 10:00 PM,7:00 AM - 10:00 PM,7:00 AM - 10:00 PM,7:00 AM - 10:00 PM,7:00 AM - 10:00 PM,7:00 AM - 10:00 PM,7:00 AM - 10:00 PM,PST,Factual,http://www.wholefoodsmarket.com
,Whole Foods,405 N Pacific Coast Hwy,Redondo Beach,CA,90277,33.84734,-118.38939,(310) 376-6931,8:00 AM - 10:00 PM,8:00 AM - 10:00 PM,8:00 AM - 10:00 PM,8:00 AM - 10:00 PM,8:00 AM - 10:00 PM,8:00 AM - 10:00 PM,8:00 AM - 10:00 PM,PST,Factual,http://www.wholefoodsmarket.com
,Whole Foods,4520 N Sepulveda Blvd,Sherman Oaks,CA,91403,34.151862,-118.466574,(818) 382-3700,7:00 AM - 10:00 PM,7:00 AM - 10:00 PM,7:00 AM - 10:00 PM,7:00 AM - 10:00 PM,7:00 AM - 10:00 PM,7:00 AM - 10:00 PM,7:00 AM - 10:00 PM,PST,Factual,http://www.wholefoodsmarket.com
,Whole Foods,465 S Arroyo Pkwy,Pasadena,CA,91105,34.137803,-118.14779,(626) 204-2266,7:00 AM - 10:00 PM,7:00 AM - 10:00 PM,7:00 AM - 10:00 PM,7:00 AM - 10:00 PM,7:00 AM - 10:00 PM,7:00 AM - 10:00 PM,7:00 AM - 10:00 PM,PST,Factual,http://www.wholefoodsmarket.com
,Whole Foods,500 Wilshire Blvd,Santa Monica,CA,90401,34.019873,-118.49685,(310) 395-4510,7:00 AM - 10:00 PM,7:00 AM - 10:00 PM,7:00 AM - 10:00 PM,7:00 AM - 10:00 PM,7:00 AM - 10:00 PM,7:00 AM - 10:00 PM,7:00 AM - 10:00 PM,PST,Factual,http://www.wholefoodsmarket.com
,Whole Foods,6350 W 3Rd St,Los Angeles,CA,90036,34.070826,-118.360808,(323) 964-6800,7:00 AM - 11:00 PM,7:00 AM - 11:00 PM,7:00 AM - 11:00 PM,7:00 AM - 11:00 PM,7:00 AM - 11:00 PM,7:00 AM - 11:00 PM,7:00 AM - 11:00 PM,PST,Factual,http://www.wholefoodsmarket.com
,Whole Foods,6550 E Pacific Coast Hwy,,CA,90803,33.754797,-118.109377,(562) 598-8687,7:00 AM - 10:00 PM,7:00 AM - 10:00 PM,7:00 AM - 10:00 PM,7:00 AM - 10:00 PM,7:00 AM - 10:00 PM,7:00 AM - 10:00 PM,7:00 AM - 10:00 PM,PST,Factual,http://www.wholefoodsmarket.com
,Whole Foods,760 S Sepulveda Blvd,,CA,90245,33.906375,-118.392814,(310) 333-1900,10:00 AM - 9:00 PM,10:00 AM - 9:00 PM,10:00 AM - 9:00 PM,10:00 AM - 9:00 PM,10:00 AM - 9:00 PM,10:00 AM - 9:00 PM,11:00 AM - 7:00 PM,PST,Factual,http://www.wholefoodsmarket.com
,Whole Foods,7871 Santa Monica Blvd,West Hollywood,CA,90046,34.09096,-118.361,(323) 848-4200,7:00 AM to 11:00 PM,7:00 AM to 11:00 PM,7:00 AM to 11:00 PM,7:00 AM to 11:00 PM,7:00 AM to 11:00 PM,7:00 AM to 11:00 PM,7:00 AM to 11:00 PM,PST,Yelp,https://www.yelp.com/biz/whole-foods-market-west-hollywood
,Whole Foods,788 S Grand Ave,Los Angeles,CA,90017,34.046027,-118.25761,(213) 873-4745,7:00 AM - 10:00 PM,7:00 AM - 10:00 PM,7:00 AM - 10:00 PM,7:00 AM - 10:00 PM,7:00 AM - 10:00 PM,7:00 AM - 10:00 PM,7:00 AM - 10:00 PM,PST,Factual,http://www.wholefoodsmarket.com
,Whole Foods,Plaza El Segundo,El Segundo,CA,90245,33.90656,-118.393,(310) 333-1900,7:00 AM to 10:00 PM,7:00 AM to 10:00 PM,7:00 AM to 10:00 PM,7:00 AM to 10:00 PM,7:00 AM to 10:00 PM,7:00 AM to 10:00 PM,7:00 AM to 10:00 PM,PST,Yelp,https://www.yelp.com/biz/whole-foods-market-el-segundo